{"type":"FeatureCollection","features":[{"type":"Feature","geometry":{"type":"MultiPolygon","coordinates":[[[[114.26565,22.2916167],[114.2667,22.2916],[114.2667,22.2925],[114.2657,22.2925166],[114.26565,22.2916167]]]]},"properties":{"GmlID":"BridgeAreas.1","OBJNAM":"Tseung Kwan O Cross Bay Bridge Area No.4","OBJECTID":1}},{"type":"Feature","geometry":{"type":"MultiPolygon","coordinates":[[[[114.2634,22.2919667],[114.26565,22.2916167],[114.2657,22.2925166],[114.2636833,22.2928333],[114.2634,22.2919667]]]]},"properties":{"GmlID":"BridgeAreas.2","OBJNAM":"Tseung Kwan O Cross Bay Bridge Area No.3","OBJECTID":2}},{"type":"Feature","geometry":{"type":"MultiPolygon","coordinates":[[[[114.2618333,22.2925333],[114.2634,22.2919667],[114.2636833,22.2928333],[114.2622333,22.29335],[114.2618333,22.2925333]]]]},"properties":{"GmlID":"BridgeAreas.3","OBJNAM":"Tseung Kwan O Cross Bay Bridge Area No.2","OBJECTID":3}},{"type":"Feature","geometry":{"type":"MultiPolygon","coordinates":[[[[114.2599333,22.2933167],[114.2618333,22.2925333],[114.2622333,22.29335],[114.2603333,22.29415],[114.2599333,22.2933167]]]]},"properties":{"GmlID":"BridgeAreas.4","OBJNAM":"Tseung Kwan O Cross Bay Bridge Area No.1","OBJECTID":4}},{"type":"Feature","geometry":{"type":"MultiPolygon","coordinates":[[[[114.2599333,22.2933167],[114.2603333,22.29415],[114.2577834,22.2952167],[114.2573667,22.2944],[114.2599333,22.2933167]]]]},"properties":{"GmlID":"BridgeAreas.5","OBJNAM":"Tseung Kwan O Cross Bay Bridge Area No.2","OBJECTID":5}},{"type":"Feature","geometry":{"type":"MultiPolygon","coordinates":[[[[114.2572167,22.2955167],[114.2569,22.2952833],[114.2567167,22.2952167],[114.25645,22.2947166],[114.2573667,22.2944],[114.2577834,22.2952167],[114.2572167,22.2955167]]]]},"properties":{"GmlID":"BridgeAreas.6","OBJNAM":"Tseung Kwan O Interchange Area No.1","OBJECTID":6}},{"type":"Feature","geometry":{"type":"MultiPolygon","coordinates":[[[[114.2572167,22.2955167],[114.2562333,22.297],[114.2553667,22.29685],[114.2551167,22.29695],[114.2547833,22.29655],[114.2543334,22.2965333],[114.2539,22.29585],[114.25645,22.2947166],[114.2567167,22.2952167],[114.2569,22.2952833],[114.2572167,22.2955167]]]]},"properties":{"GmlID":"BridgeAreas.7","OBJNAM":"Tseung Kwan O Interchange Area No.3","OBJECTID":7}},{"type":"Feature","geometry":{"type":"MultiPolygon","coordinates":[[[[114.2539,22.29585],[114.2543334,22.2965333],[114.2532,22.2973],[114.2527167,22.2968166],[114.2539,22.29585]]]]},"properties":{"GmlID":"BridgeAreas.8","OBJNAM":"Tseung Kwan O Interchange Area No.2","OBJECTID":8}},{"type":"Feature","geometry":{"type":"MultiPolygon","coordinates":[[[[114.2636833,22.3013834],[114.2634833,22.3015],[114.26325,22.3012],[114.2634666,22.3010834],[114.2636833,22.3013834]]]]},"properties":{"GmlID":"BridgeAreas.9","OBJNAM":"Tseung Kwan O Southern Bridge Area No.2","OBJECTID":9}},{"type":"Feature","geometry":{"type":"MultiPolygon","coordinates":[[[[114.2638833,22.30125],[114.2636667,22.30095],[114.2638667,22.3008333],[114.2640834,22.3011333],[114.2638833,22.30125]]]]},"properties":{"GmlID":"BridgeAreas.10","OBJNAM":"Tseung Kwan O Southern Bridge Area No.2","OBJECTID":10}},{"type":"Feature","geometry":{"type":"MultiPolygon","coordinates":[[[[114.2636833,22.3013834],[114.2634666,22.3010834],[114.2636667,22.30095],[114.2638833,22.30125],[114.2636833,22.3013834]]]]},"properties":{"GmlID":"BridgeAreas.11","OBJNAM":"Tseung Kwan O Southern Bridge Area No.1","OBJECTID":11}},{"type":"Feature","geometry":{"type":"MultiPolygon","coordinates":[[[[114.112409,22.3465357],[114.1154792,22.3473775],[114.1154723,22.347378],[114.1154535,22.3473966],[114.115389,22.3475868],[114.115397,22.3476144],[114.1154102,22.3476257],[114.1155188,22.3476568],[114.1150018,22.3491619],[114.1148969,22.3491309],[114.1144077,22.3505625],[114.1145236,22.3506602],[114.1142108,22.3514423],[114.1140044,22.3515653],[114.1136653,22.3524213],[114.1136235,22.3524073],[114.1136047,22.3524719],[114.1136011,22.3525421],[114.1136398,22.3526641],[114.1137083,22.352764],[114.1138199,22.3528622],[114.1139393,22.3529487],[114.1140704,22.3530232],[114.1142063,22.353078],[114.1143367,22.3531091],[114.1143813,22.3531149],[114.1144344,22.3531046],[114.1144587,22.3530792],[114.1144667,22.3530623],[114.1144668,22.3526679],[114.1144754,22.3525488],[114.1144967,22.3524353],[114.1145399,22.3523979],[114.1146872,22.3523908],[114.1147055,22.3523457],[114.1147517,22.3520781],[114.114813,22.3519455],[114.1149349,22.3519478],[114.1151171,22.351722],[114.1150419,22.3515946],[114.1151415,22.3514873],[114.1159144,22.3517383],[114.1164202,22.3547234],[114.1155633,22.3551893],[114.113289,22.3601647],[114.1130452,22.3600681],[114.1125224,22.359861],[114.1122135,22.3593423],[114.1122558,22.3593209],[114.1122045,22.3592535],[114.1121682,22.3592306],[114.1121545,22.3592241],[114.1120825,22.3592137],[114.1120253,22.3592276],[114.1119647,22.3592719],[114.1119329,22.3593232],[114.1119044,22.3593853],[114.1117958,22.3596616],[114.1117537,22.359781],[114.1117267,22.3598878],[114.111493,22.3609808],[114.1114464,22.3611997],[114.1114179,22.3612057],[114.1114062,22.3612197],[114.1114067,22.361243],[114.1114254,22.3612783],[114.1114337,22.361344],[114.1113964,22.3615154],[114.1113717,22.3617288],[114.1113764,22.3618672],[114.1114112,22.3620017],[114.1117288,22.3627409],[114.1119238,22.3631998],[114.1073667,22.36315],[114.1077741,22.3620143],[114.1084839,22.3611131],[114.1085281,22.3610492],[114.108625,22.3608978],[114.1087288,22.3607095],[114.1088659,22.3604144],[114.1089571,22.360163],[114.1089927,22.3600487],[114.1090203,22.3599436],[114.1090693,22.3597109],[114.1090862,22.3596222],[114.1091045,22.359488],[114.1091153,22.3593843],[114.1091159,22.3593448],[114.1091206,22.359272],[114.1091239,22.3591953],[114.1091247,22.3590508],[114.1091125,22.358813],[114.1091072,22.3587388],[114.1091037,22.3587107],[114.1090996,22.3586319],[114.1090778,22.3584045],[114.1090566,22.3580898],[114.109048,22.3579474],[114.1090352,22.3576535],[114.1089924,22.3576504],[114.1089934,22.3575289],[114.1089944,22.3572116],[114.1090345,22.3572112],[114.1090402,22.356996],[114.1090426,22.3566647],[114.1090534,22.356388],[114.1090694,22.3561645],[114.109094,22.3558259],[114.1091249,22.355546],[114.1091521,22.3553377],[114.1092028,22.3551094],[114.109266,22.3548757],[114.1093241,22.3546944],[114.109427,22.3547273],[114.1094496,22.3547156],[114.1097032,22.3539837],[114.1096981,22.3539713],[114.1096934,22.3539696],[114.1095637,22.3539311],[114.1098548,22.3530693],[114.1099249,22.3529088],[114.1100097,22.3529283],[114.1100318,22.3527434],[114.1101231,22.3527529],[114.1102138,22.3520333],[114.1102731,22.3518659],[114.1107807,22.3508285],[114.1109025,22.3508802],[114.1115477,22.3496334],[114.1122335,22.3483155],[114.1122272,22.3482125],[114.1120825,22.3474981],[114.112409,22.3465357]]]]},"properties":{"GmlID":"BridgeAreas.12","OBJNAM":"Tsing Tsuen and Tsing Yi Bridges Area","OBJECTID":12}},{"type":"Feature","geometry":{"type":"MultiPolygon","coordinates":[[[[114.1601291,22.2462057],[114.1599273,22.2463547],[114.1598082,22.2464458],[114.1581951,22.2456476],[114.1587353,22.2455423],[114.1592253,22.2452731],[114.1593925,22.2451246],[114.1597298,22.2443826],[114.1598348,22.2441467],[114.1598069,22.2439223],[114.1614792,22.2452966],[114.1614685,22.2453123],[114.1614411,22.2453546],[114.1614175,22.2453735],[114.1613245,22.2454119],[114.161303,22.2454277],[114.1610569,22.2452631],[114.1610414,22.2452525],[114.1610026,22.2452982],[114.1610483,22.2453399],[114.1609974,22.245374],[114.160975,22.2453492],[114.1608811,22.2452325],[114.160865,22.245254],[114.1609069,22.2453222],[114.160886,22.2453549],[114.1608638,22.2453172],[114.1608336,22.2453419],[114.1608079,22.2453078],[114.1607851,22.2453171],[114.1607527,22.2453414],[114.1607962,22.2453984],[114.1607576,22.245414],[114.1607423,22.2453915],[114.1606606,22.2454478],[114.1607581,22.2455906],[114.1607125,22.2456198],[114.1607509,22.2456807],[114.1607099,22.2457049],[114.1607405,22.2457666],[114.1607286,22.2457732],[114.1606681,22.2456777],[114.1606182,22.2457083],[114.1606545,22.2457695],[114.1606261,22.2457719],[114.1606105,22.245725],[114.1605996,22.2457281],[114.160586,22.2457058],[114.1605431,22.2457213],[114.1605149,22.2456638],[114.1604863,22.2456684],[114.1605417,22.2458613],[114.1605467,22.2458978],[114.1605141,22.245917],[114.1604702,22.2459373],[114.1603928,22.2459485],[114.1603343,22.2459672],[114.1603085,22.2459731],[114.1600735,22.2460585],[114.1600691,22.2460821],[114.160074,22.2461075],[114.1601176,22.2461505],[114.1601243,22.2462007],[114.1601291,22.2462057]]]]},"properties":{"GmlID":"BridgeAreas.13","OBJNAM":"Ap Lei Chau Bridges Area","OBJECTID":13}},{"type":"Feature","geometry":{"type":"MultiPolygon","coordinates":[[[[113.9364547,22.2901196],[113.9364567,22.2901883],[113.9364959,22.2903551],[113.9365623,22.2905319],[113.9365863,22.290582],[113.936696,22.2907063],[113.9377011,22.291643],[113.9384225,22.292327],[113.9385707,22.2924475],[113.9389628,22.2927858],[113.9390543,22.2928696],[113.9391161,22.2929319],[113.9392746,22.2931147],[113.9394292,22.2932587],[113.9395911,22.2933905],[113.9397315,22.2935154],[113.9399809,22.2937443],[113.9400422,22.2937156],[113.9401452,22.2938101],[113.938427,22.2949904],[113.9383976,22.2949289],[113.938364,22.294886],[113.9383852,22.2948328],[113.9383867,22.2947861],[113.9382995,22.2946887],[113.9379755,22.294379],[113.9379047,22.2943186],[113.9378155,22.2942355],[113.9375823,22.2940075],[113.9374343,22.2938673],[113.9371413,22.2935729],[113.9369632,22.2934032],[113.9368115,22.2933953],[113.9366857,22.2931796],[113.9364822,22.2930106],[113.9362973,22.2929238],[113.9361847,22.2928627],[113.9361206,22.2927314],[113.9359621,22.2927367],[113.9358319,22.2925378],[113.9357318,22.2923377],[113.9354429,22.2920685],[113.9352158,22.2919314],[113.9351252,22.2918487],[113.93513,22.2917302],[113.934983,22.2916745],[113.9348451,22.2916186],[113.9347568,22.291493],[113.9345949,22.2913652],[113.934454,22.2910074],[113.9342445,22.2908626],[113.9341035,22.2907033],[113.9364547,22.2901196]]]]},"properties":{"GmlID":"BridgeAreas.14","OBJNAM":"Tung Chung Bridges Area","OBJECTID":14}},{"type":"Feature","geometry":{"type":"MultiPolygon","coordinates":[[[[113.9645167,22.3078],[113.9634667,22.3062833],[113.9691834,22.3028667],[113.9691242,22.3002518],[113.9692033,22.3003134],[113.9693845,22.3003999],[113.9695626,22.3004287],[113.9697262,22.3004305],[113.970303,22.3006304],[113.9706292,22.3007552],[113.9708988,22.3008705],[113.9710337,22.3009782],[113.9710996,22.3010864],[113.9712075,22.3012054],[113.9713193,22.301278],[113.9714483,22.3013278],[113.9716981,22.30135],[113.9718558,22.3013991],[113.9738127,22.3025239],[113.97025,22.3043833],[113.9645167,22.3078]]]]},"properties":{"GmlID":"BridgeAreas.15","OBJNAM":"Tuen Mun-Chek Lap Kok Link Area No. 3","OBJECTID":15}},{"type":"Feature","geometry":{"type":"MultiPolygon","coordinates":[[[[113.9601167,22.3104167],[113.9587166,22.3091],[113.9596334,22.30855],[113.961,22.3098667],[113.9601167,22.3104167]]]]},"properties":{"GmlID":"BridgeAreas.16","OBJNAM":"Tuen Mun-Chek Lap Kok Link Area No. 1","OBJECTID":16}},{"type":"Feature","geometry":{"type":"MultiPolygon","coordinates":[[[[113.9601167,22.3104167],[113.9593456,22.3110839],[113.9593168,22.3110538],[113.9592504,22.310987],[113.9592106,22.3109487],[113.9591459,22.3108889],[113.9591016,22.31085],[113.9590658,22.3108193],[113.958954,22.3107289],[113.9588581,22.3106577],[113.9587318,22.3105719],[113.9586135,22.3104955],[113.9585327,22.3104456],[113.9584741,22.3104105],[113.9583416,22.3103346],[113.9582894,22.3103062],[113.9582191,22.3102719],[113.9581012,22.3102258],[113.9580333,22.3102049],[113.9579636,22.3101873],[113.9578001,22.3101609],[113.957662,22.3101558],[113.9575729,22.3101566],[113.9574827,22.3101607],[113.9573923,22.3101681],[113.9572985,22.3101792],[113.9572004,22.3101952],[113.9570866,22.3102194],[113.956965,22.310249],[113.9568155,22.3102908],[113.9566639,22.3103344],[113.9587166,22.3091],[113.9601167,22.3104167]]]]},"properties":{"GmlID":"BridgeAreas.17","OBJNAM":"Tuen Mun-Chek Lap Kok Link Area No. 2","OBJECTID":17}},{"type":"Feature","geometry":{"type":"MultiPolygon","coordinates":[[[[113.961,22.3098667],[113.9596334,22.30855],[113.9634667,22.3062833],[113.9645167,22.3078],[113.961,22.3098667]]]]},"properties":{"GmlID":"BridgeAreas.18","OBJNAM":"Tuen Mun-Chek Lap Kok Link Area No. 2","OBJECTID":18}},{"type":"Feature","geometry":{"type":"MultiPolygon","coordinates":[[[[113.8526667,22.281],[113.8504833,22.2817166],[113.8498,22.2797834],[113.8519,22.2790833],[113.8526667,22.281]]]]},"properties":{"GmlID":"BridgeAreas.19","OBJNAM":"Hong Kong Link Road Area No.4","OBJECTID":19}},{"type":"Feature","geometry":{"type":"MultiPolygon","coordinates":[[[[113.8619333,22.2753],[113.8622166,22.2761167],[113.8626,22.27725],[113.8526667,22.281],[113.8519,22.2790833],[113.8619333,22.2753]]]]},"properties":{"GmlID":"BridgeAreas.20","OBJNAM":"Hong Kong Link Road Area No.2","OBJECTID":20}},{"type":"Feature","geometry":{"type":"MultiPolygon","coordinates":[[[[113.8855834,22.28445],[113.88685,22.2827833],[113.8942992,22.2873994],[113.8942795,22.2874465],[113.894262,22.2875268],[113.8942029,22.2876848],[113.8942757,22.2878204],[113.8943736,22.2879344],[113.894372,22.2880648],[113.8944105,22.2881581],[113.8945728,22.2882353],[113.894672,22.2883883],[113.8947083,22.288492],[113.8947798,22.2886214],[113.8948843,22.2887616],[113.8950048,22.2889097],[113.8951288,22.2889994],[113.8952115,22.2891144],[113.895401,22.2892282],[113.8955047,22.289161],[113.8956566,22.2892364],[113.8958285,22.2892764],[113.8958856,22.2893856],[113.8958845,22.2894291],[113.8958976,22.2894587],[113.8959508,22.2894526],[113.8960516,22.289506],[113.8961291,22.2895656],[113.8962245,22.2896472],[113.8964034,22.289814],[113.8964754,22.2899154],[113.8965447,22.2902081],[113.8965575,22.2903258],[113.8965023,22.2904941],[113.8964744,22.2905372],[113.8964176,22.2905955],[113.8963442,22.2906567],[113.8963338,22.2907647],[113.8962841,22.2908981],[113.896272,22.2909651],[113.8962698,22.2911967],[113.8962536,22.2912534],[113.8962259,22.2913104],[113.8962258,22.2913324],[113.896238,22.2913598],[113.8962692,22.2913933],[113.8964152,22.2914766],[113.8965066,22.2915427],[113.8967854,22.2917799],[113.8968059,22.2918428],[113.8855834,22.28445]]]]},"properties":{"GmlID":"BridgeAreas.21","OBJNAM":"Hong Kong Link Road Area No.4","OBJECTID":21}},{"type":"Feature","geometry":{"type":"MultiPolygon","coordinates":[[[[113.9017167,22.2927834],[113.9016,22.29315],[113.9002,22.2926834],[113.8985166,22.2919],[113.8973124,22.2911475],[113.897566,22.2909943],[113.8976879,22.2909527],[113.8990333,22.29175],[113.9006166,22.29245],[113.9017167,22.2927834]]]]},"properties":{"GmlID":"BridgeAreas.22","OBJNAM":"Hong Kong Link Road Area No.4","OBJECTID":22}},{"type":"Feature","geometry":{"type":"MultiPolygon","coordinates":[[[[113.8663,22.2761833],[113.8660166,22.27535],[113.8656333,22.2742167],[113.8702667,22.27405],[113.8740167,22.2749],[113.8774667,22.2765833],[113.88685,22.2827833],[113.8855834,22.28445],[113.8762,22.27825],[113.87325,22.2768167],[113.8700167,22.2760833],[113.8663,22.2761833]]]]},"properties":{"GmlID":"BridgeAreas.23","OBJNAM":"Hong Kong Link Road Area No.2","OBJECTID":23}},{"type":"Feature","geometry":{"type":"MultiPolygon","coordinates":[[[[113.9116834,22.2945834],[113.9119667,22.2947333],[113.9126167,22.2949333],[113.912517,22.2952328],[113.9120833,22.2952333],[113.91075,22.2945667],[113.9116834,22.2945834]]]]},"properties":{"GmlID":"BridgeAreas.24","OBJNAM":"Hong Kong Link Road Area No.4","OBJECTID":24}},{"type":"Feature","geometry":{"type":"MultiPolygon","coordinates":[[[[113.9108333,22.29415],[113.9107352,22.2941483],[113.9097833,22.2941333],[113.9089834,22.2938666],[113.9081167,22.2937666],[113.9059666,22.2937666],[113.9040726,22.2936422],[113.9039334,22.2936334],[113.9020666,22.2932833],[113.9021667,22.2929167],[113.9038334,22.29325],[113.9048144,22.2933205],[113.9048671,22.2933343],[113.9049397,22.2933296],[113.9059167,22.2934],[113.9082,22.2933666],[113.9093834,22.29355],[113.91055,22.294],[113.9108333,22.29415]]]]},"properties":{"GmlID":"BridgeAreas.25","OBJNAM":"Hong Kong Link Road Area No.4","OBJECTID":25}},{"type":"Feature","geometry":{"type":"MultiPolygon","coordinates":[[[[113.9017167,22.2927834],[113.9021667,22.2929167],[113.9020666,22.2932833],[113.9016,22.29315],[113.9017167,22.2927834]]]]},"properties":{"GmlID":"BridgeAreas.26","OBJNAM":"Hong Kong Link Road Area No.3","OBJECTID":26}},{"type":"Feature","geometry":{"type":"MultiPolygon","coordinates":[[[[113.9116834,22.2945834],[113.91075,22.2945667],[113.9097833,22.2941333],[113.9107352,22.2941483],[113.9108333,22.29415],[113.9116834,22.2945834]]]]},"properties":{"GmlID":"BridgeAreas.27","OBJNAM":"Hong Kong Link Road Area No.2","OBJECTID":27}},{"type":"Feature","geometry":{"type":"MultiPolygon","coordinates":[[[[113.8656333,22.2742167],[113.8660166,22.27535],[113.8663,22.2761833],[113.86535,22.27635],[113.8635,22.2769167],[113.8626,22.27725],[113.8622166,22.2761167],[113.8619333,22.2753],[113.8628334,22.2749667],[113.8646833,22.2744167],[113.8656333,22.2742167]]]]},"properties":{"GmlID":"BridgeAreas.28","OBJNAM":"Hong Kong Link Road Area No.1","OBJECTID":28}},{"type":"Feature","geometry":{"type":"MultiPolygon","coordinates":[[[[113.8628334,22.2749667],[113.8631167,22.2757833],[113.8635,22.2769167],[113.8626,22.27725],[113.8622166,22.2761167],[113.8619333,22.2753],[113.8628334,22.2749667]]]]},"properties":{"GmlID":"BridgeAreas.29","OBJNAM":"Hong Kong Link Road Special Area No.1","OBJECTID":29}},{"type":"Feature","geometry":{"type":"MultiPolygon","coordinates":[[[[113.8656333,22.2742167],[113.8660166,22.27535],[113.8663,22.2761833],[113.86535,22.27635],[113.8650666,22.2755333],[113.8646833,22.2744167],[113.8656333,22.2742167]]]]},"properties":{"GmlID":"BridgeAreas.30","OBJNAM":"Hong Kong Link Road Special Area No.2","OBJECTID":30}},{"type":"Feature","geometry":{"type":"MultiPolygon","coordinates":[[[[113.8646833,22.2744167],[113.8650666,22.2755333],[113.86535,22.27635],[113.8635,22.2769167],[113.8631167,22.2757833],[113.8628334,22.2749667],[113.8646833,22.2744167]]]]},"properties":{"GmlID":"BridgeAreas.31","OBJNAM":"Hong Kong Link Road Special Area No.3","OBJECTID":31}},{"type":"Feature","geometry":{"type":"MultiPolygon","coordinates":[[[[114.1216347,22.3215194],[114.1216282,22.3215227],[114.1217104,22.3216677],[114.1217156,22.3217005],[114.1217192,22.3217339],[114.1217217,22.3217674],[114.1217144,22.3217997],[114.1215261,22.3223628],[114.1215229,22.3223836],[114.1215261,22.3223944],[114.1215367,22.3224095],[114.1216874,22.3225751],[114.1219281,22.3228402],[114.1222631,22.323207],[114.1223593,22.3233122],[114.1223594,22.3233124],[114.1226443,22.3236242],[114.1226958,22.3236396],[114.1176825,22.3309947],[114.1155503,22.328651],[114.1153255,22.3288281],[114.1146987,22.3281388],[114.1141278,22.3275115],[114.1141014,22.327487],[114.1140656,22.3274645],[114.1140258,22.327449],[114.1139896,22.3274418],[114.1139852,22.3274413],[114.1139789,22.3274408],[114.1128323,22.3273683],[114.1128285,22.3273684],[114.1128086,22.3273751],[114.1127963,22.3273889],[114.1127907,22.3274372],[114.1126587,22.3274289],[114.1216333,22.3215167],[114.1216347,22.3215194]]]]},"properties":{"GmlID":"BridgeAreas.32","OBJNAM":"Stonecutters Bridge Area","OBJECTID":32}},{"type":"Feature","geometry":{"type":"MultiPolygon","coordinates":[[[[114.0650697,22.3464523],[114.0814684,22.351061],[114.0814615,22.3512302],[114.081417,22.3512649],[114.0813544,22.3512221],[114.0812741,22.3511917],[114.081257,22.3512115],[114.0812492,22.3512622],[114.081277,22.3513442],[114.0813498,22.3514413],[114.0813461,22.3515643],[114.081335,22.3516789],[114.0812586,22.351764],[114.0811371,22.3518634],[114.0810375,22.3519333],[114.0809519,22.3519699],[114.0808687,22.3520426],[114.0807431,22.3520945],[114.0806534,22.3521182],[114.0805635,22.3520599],[114.0804477,22.3520384],[114.0803918,22.3521067],[114.0803637,22.3522991],[114.0803024,22.3523211],[114.0802454,22.3523504],[114.0801597,22.3524184],[114.0800923,22.3525021],[114.0800534,22.3525932],[114.0799302,22.3529477],[114.0799142,22.3530309],[114.0799129,22.3531196],[114.0799444,22.353237],[114.0799827,22.3533063],[114.0802603,22.3536288],[114.0802151,22.3540098],[114.0800558,22.35431],[114.0799818,22.3544617],[114.0799646,22.354582],[114.0799002,22.3548455],[114.0800066,22.3549264],[114.0803641,22.3551077],[114.0804085,22.355174],[114.080404,22.3553232],[114.0803477,22.3564423],[114.0803397,22.3565928],[114.0801749,22.3566382],[114.0800436,22.3566803],[114.0799089,22.3567974],[114.0798111,22.3569042],[114.0797371,22.3570081],[114.0796761,22.3571559],[114.0795634,22.3573715],[114.0794699,22.3575165],[114.0793089,22.3576079],[114.0791796,22.3577579],[114.0791612,22.3578978],[114.0791236,22.3580407],[114.0650131,22.3550028],[114.0650094,22.3550012],[114.0649661,22.3549963],[114.0648884,22.3549466],[114.0648248,22.3548754],[114.0647527,22.3548104],[114.0646805,22.3546935],[114.0646126,22.3546099],[114.064643,22.3545671],[114.0646078,22.354483],[114.0646329,22.3544193],[114.0645899,22.3542934],[114.06448,22.3542572],[114.0644098,22.3542385],[114.0643751,22.3542887],[114.0643114,22.3542638],[114.0643321,22.3541883],[114.0642708,22.3541165],[114.0640324,22.3540192],[114.0638747,22.3539728],[114.0637048,22.3539468],[114.0636308,22.3539066],[114.0635944,22.3539415],[114.0635392,22.3539251],[114.0634265,22.3537873],[114.0633755,22.3537179],[114.0633265,22.353636],[114.0632992,22.3535615],[114.0632666,22.35336],[114.0632583,22.3531917],[114.0632742,22.3530213],[114.0633064,22.3528368],[114.0634806,22.3528363],[114.0634795,22.3528042],[114.0636913,22.3528044],[114.0640066,22.3529088],[114.0641695,22.3529626],[114.0649026,22.3532054],[114.0649123,22.3531974],[114.0650065,22.3529576],[114.0649957,22.3529362],[114.0641192,22.3526404],[114.0641187,22.3524999],[114.0640944,22.3524136],[114.0640424,22.3523514],[114.0639835,22.3523322],[114.0639053,22.3523214],[114.0637736,22.3523185],[114.0634539,22.3523898],[114.0634306,22.3523397],[114.0633664,22.3522742],[114.0632676,22.3522198],[114.0631924,22.3521781],[114.0631079,22.352127],[114.0630531,22.3520757],[114.0630267,22.3520427],[114.063079,22.3519847],[114.0630712,22.3519539],[114.0630245,22.3519033],[114.0629955,22.3518821],[114.0629493,22.3518867],[114.0628785,22.3519465],[114.0628733,22.3519821],[114.0628171,22.3519864],[114.0626978,22.3519584],[114.0625677,22.3519116],[114.0624194,22.3518379],[114.0622481,22.3517095],[114.0622742,22.3516891],[114.0623124,22.3516841],[114.0623295,22.3516723],[114.0623355,22.3516553],[114.0622797,22.3516339],[114.0622342,22.3516377],[114.0621596,22.3516383],[114.0619936,22.3515523],[114.0618815,22.3514314],[114.0617893,22.3512844],[114.061754,22.3511926],[114.0617365,22.3509745],[114.0617121,22.3508606],[114.0616936,22.3507095],[114.061683,22.3505732],[114.0616783,22.3504146],[114.0616815,22.3503172],[114.0617059,22.3501639],[114.061737,22.3500115],[114.0617421,22.349817],[114.0617362,22.3496631],[114.0617373,22.3495414],[114.061749,22.3494104],[114.0617722,22.3492793],[114.0618224,22.3491376],[114.0618598,22.3490527],[114.0619276,22.3489408],[114.0619955,22.3489781],[114.0620435,22.3489911],[114.0620781,22.3489771],[114.0620908,22.3489398],[114.0621261,22.3488619],[114.0621849,22.3487887],[114.0622521,22.3487134],[114.0622714,22.3486408],[114.0623546,22.3486106],[114.0626214,22.3486302],[114.0629052,22.3486762],[114.0632281,22.3487303],[114.0636442,22.3487822],[114.063886,22.348841],[114.0638607,22.3489304],[114.0641968,22.3490242],[114.0642455,22.348885],[114.0643504,22.3488816],[114.064459,22.3488478],[114.0645829,22.3487395],[114.0646231,22.3486792],[114.0646631,22.3485596],[114.064738,22.3483247],[114.0647444,22.3482518],[114.0647188,22.3481041],[114.0646606,22.3480047],[114.064617,22.3478963],[114.0646292,22.3478129],[114.0646797,22.3476599],[114.0647236,22.347507],[114.0649596,22.3467722],[114.0650697,22.3464523]]]]},"properties":{"GmlID":"BridgeAreas.33","OBJNAM":"Tsing Ma Bridges Area","OBJECTID":33}},{"type":"Feature","geometry":{"type":"MultiPolygon","coordinates":[[[[114.0591649,22.3426821],[114.0591644,22.3426919],[114.0592517,22.3427449],[114.0592724,22.342806],[114.0592984,22.3428985],[114.0591362,22.3431146],[114.0589923,22.3432917],[114.0587445,22.3434941],[114.0587195,22.3436143],[114.0586605,22.3437768],[114.058633,22.3438832],[114.0586283,22.3439439],[114.0585675,22.3440228],[114.0584239,22.3442208],[114.058213,22.3443953],[114.0580517,22.3444894],[114.0578917,22.3445704],[114.0578074,22.3445471],[114.0578226,22.3445229],[114.0576829,22.3445403],[114.0575581,22.3445588],[114.0574251,22.3445672],[114.0572886,22.3446258],[114.0571132,22.3446511],[114.0569783,22.3447613],[114.0569031,22.3448563],[114.0568539,22.3449438],[114.0567985,22.3450848],[114.0567778,22.3451622],[114.0567535,22.3453128],[114.056743,22.3454681],[114.0567594,22.3455672],[114.0568096,22.3456769],[114.0568756,22.3457628],[114.0568453,22.3457903],[114.0568493,22.3458567],[114.0567389,22.3459263],[114.0567277,22.346009],[114.0567331,22.3460275],[114.0567237,22.3460381],[114.0565654,22.3462101],[114.0565645,22.3462451],[114.05671,22.346236],[114.056798,22.3463294],[114.056841,22.3464134],[114.0568658,22.346492],[114.0568518,22.3465947],[114.0568414,22.3466658],[114.0568007,22.3467171],[114.0567988,22.34683],[114.0567605,22.346904],[114.0567598,22.3469344],[114.0566992,22.3469158],[114.0566712,22.3469165],[114.0566227,22.3469105],[114.0565621,22.3469269],[114.0565505,22.3469546],[114.0565572,22.3470123],[114.0565699,22.3470234],[114.0566336,22.3470189],[114.0567131,22.3470235],[114.056721,22.3470658],[114.0567319,22.3470687],[114.0567349,22.3471562],[114.0567256,22.3472035],[114.0567019,22.3472306],[114.0567008,22.3472865],[114.0567353,22.3473034],[114.056782,22.3473103],[114.0568567,22.3473082],[114.0568795,22.3473962],[114.0568541,22.347396],[114.0568432,22.3474119],[114.0568546,22.3474334],[114.0568992,22.3474503],[114.0569153,22.3474718],[114.0569451,22.3474831],[114.0570136,22.3474821],[114.0570542,22.347477],[114.0570785,22.3474646],[114.0571368,22.3474522],[114.0571902,22.3474692],[114.0570929,22.347692],[114.0570844,22.3477243],[114.0570939,22.3479162],[114.0571176,22.347915],[114.0571038,22.3477988],[114.0571123,22.347705],[114.0572102,22.3474754],[114.057401,22.3474584],[114.0575516,22.3475018],[114.0577907,22.3474734],[114.0579334,22.3475432],[114.0580231,22.3476804],[114.0581134,22.3477668],[114.0581182,22.347812],[114.0580241,22.3478649],[114.0579657,22.3480218],[114.0578898,22.3481104],[114.0576477,22.3481492],[114.0576403,22.3482197],[114.057584,22.348205],[114.057581,22.3480982],[114.0574627,22.3480728],[114.0572164,22.3480839],[114.0569342,22.3481277],[114.0568977,22.3481028],[114.0569095,22.3479861],[114.0569435,22.3478652],[114.0569157,22.3478561],[114.0568809,22.3479713],[114.0568669,22.3481232],[114.0568401,22.3481536],[114.0567224,22.3482054],[114.056513,22.3482368],[114.0564506,22.3481701],[114.0564106,22.3481606],[114.0563226,22.3481871],[114.0561426,22.3482774],[114.0562198,22.3483929],[114.056068,22.3484984],[114.055974,22.3485384],[114.0559789,22.3484311],[114.0559085,22.34843],[114.0559048,22.3485028],[114.0558544,22.3484413],[114.0558285,22.34836],[114.0557733,22.3483384],[114.055695,22.3483451],[114.0559409,22.3481388],[114.0559166,22.3481185],[114.0556932,22.348304],[114.0555173,22.348266],[114.0555937,22.3480981],[114.0556128,22.3480403],[114.0555721,22.3480239],[114.0556208,22.3478738],[114.0553964,22.3478081],[114.0553714,22.3478849],[114.0555467,22.3479392],[114.0555631,22.347967],[114.0555467,22.3480166],[114.0555176,22.3480086],[114.0555036,22.3480109],[114.055461,22.3481441],[114.0554591,22.3482305],[114.0553918,22.3482365],[114.0552612,22.3482805],[114.055186,22.3482725],[114.055141,22.34829],[114.0549845,22.3483993],[114.0548922,22.3484348],[114.0548717,22.3484106],[114.0548522,22.3483992],[114.0548188,22.3484184],[114.0547727,22.3484421],[114.0546791,22.3485001],[114.054636,22.3485193],[114.0545632,22.3485435],[114.054474,22.3485643],[114.0544612,22.3485734],[114.0544612,22.3485824],[114.0544358,22.3486083],[114.0544024,22.3486315],[114.0543756,22.3486433],[114.0543138,22.348659],[114.0542671,22.348657],[114.0542379,22.3486437],[114.0541634,22.3486138],[114.0541481,22.3486172],[114.0541427,22.3486103],[114.0541033,22.3486052],[114.054014,22.3486035],[114.0539983,22.3486571],[114.0539934,22.3487152],[114.0540333,22.3487667],[114.0499513,22.3460858],[114.0499518,22.3460855],[114.0501569,22.345924],[114.0502848,22.3458344],[114.0503944,22.3457543],[114.0505951,22.3456125],[114.0508286,22.3454917],[114.0510915,22.3452287],[114.0511396,22.3450633],[114.0512741,22.3449509],[114.0514729,22.3449155],[114.0515687,22.3449397],[114.0518245,22.3449227],[114.0519008,22.3448207],[114.0518942,22.3447352],[114.0517673,22.3446106],[114.0515999,22.3444497],[114.0515015,22.3442748],[114.0514755,22.3440788],[114.0516747,22.3439998],[114.0518517,22.3438231],[114.0528115,22.3433458],[114.0530664,22.3435958],[114.0531157,22.3435644],[114.053142,22.343604],[114.0533907,22.3434437],[114.053396,22.3434805],[114.0534128,22.3435162],[114.0534757,22.3435357],[114.0535648,22.3435301],[114.0536978,22.3435017],[114.0537507,22.343488],[114.0538745,22.343447],[114.0539754,22.3433317],[114.0541625,22.3430677],[114.054222,22.3429773],[114.0542457,22.3428964],[114.0542495,22.3428045],[114.054234,22.3426585],[114.0542236,22.3426145],[114.0541948,22.3425803],[114.0541451,22.3425579],[114.0540916,22.3425481],[114.0540346,22.3425726],[114.053913,22.3425966],[114.0537707,22.3425144],[114.0537549,22.3423429],[114.0536661,22.3422121],[114.0537861,22.342218],[114.0538833,22.3421738],[114.0541228,22.3420967],[114.0541651,22.3419817],[114.0542482,22.3419751],[114.0543556,22.341913],[114.0544448,22.3417778],[114.0546049,22.3416018],[114.0547068,22.3415578],[114.0549611,22.3414382],[114.0549773,22.341359],[114.0551623,22.3411962],[114.0553058,22.3410647],[114.0553404,22.3410448],[114.0553718,22.3410403],[114.055412,22.341058],[114.0554383,22.3410557],[114.0555029,22.3410237],[114.0555129,22.3410119],[114.0555152,22.3410045],[114.05551,22.3410023],[114.0554881,22.3410024],[114.0554288,22.3410225],[114.055411,22.3410196],[114.0553964,22.341007],[114.0553899,22.3409826],[114.0553936,22.3409604],[114.0554479,22.340882],[114.0555463,22.3408068],[114.0555777,22.3407734],[114.0555683,22.3407054],[114.0556478,22.3406256],[114.0557568,22.3406209],[114.0558284,22.3405408],[114.0591649,22.3426821]]]]},"properties":{"GmlID":"BridgeAreas.34","OBJNAM":"Kap Shui Mun Bridges Area","OBJECTID":34}}]}