{"type":"FeatureCollection","features":[{"type":"Feature","geometry":{"type":"MultiPoint","coordinates":[[114.3357833,22.2276333]]},"properties":{"GmlID":"CallingInPoint.1","OBJNAM":"Tathong Channel Separation Buoy No.1","INFORM":"Eastern Approaches Calling-in Point","TRAFFIC":"inbound","VHFCHANNEL":"12","OBJECTID":1}},{"type":"Feature","geometry":{"type":"MultiPoint","coordinates":[[114.3358,22.20985]]},"properties":{"GmlID":"CallingInPoint.2","OBJNAM":"Tathong Channel Separation Buoy No.1","INFORM":"Eastern Approaches Calling-in Point","TRAFFIC":"outbound","VHFCHANNEL":"12","OBJECTID":2}},{"type":"Feature","geometry":{"type":"MultiPoint","coordinates":[[114.2384,22.2845167]]},"properties":{"GmlID":"CallingInPoint.3","OBJNAM":"Lei Yue Mun","INFORM":"Eastern Approaches Calling-in Point","TRAFFIC":"two-way","VHFCHANNEL":"02, 12","OBJECTID":3}},{"type":"Feature","geometry":{"type":"MultiPoint","coordinates":[[114.3039667,22.15]]},"properties":{"GmlID":"CallingInPoint.4","OBJNAM":"Waglan Lighthouse","INFORM":"South-Eastern Approaches Calling-in Point","TRAFFIC":"two-way","VHFCHANNEL":"12","OBJECTID":4}},{"type":"Feature","geometry":{"type":"MultiPoint","coordinates":[[114.1242,22.2486333]]},"properties":{"GmlID":"CallingInPoint.5","OBJNAM":"Lamma Patch","INFORM":"South-Eastern Approaches Calling-in Point","TRAFFIC":"inbound","VHFCHANNEL":"14","OBJECTID":5}},{"type":"Feature","geometry":{"type":"MultiPoint","coordinates":[[114.1203667,22.24555]]},"properties":{"GmlID":"CallingInPoint.6","OBJNAM":"Lamma Patch","INFORM":"South-Eastern Approaches Calling-in Point","TRAFFIC":"outbound","VHFCHANNEL":"12","OBJECTID":6}},{"type":"Feature","geometry":{"type":"MultiPoint","coordinates":[[114.05015,22.17905]]},"properties":{"GmlID":"CallingInPoint.7","OBJNAM":"Cheung Chau Buoy","INFORM":"South-Western Approaches Calling-in Point","TRAFFIC":"two-way","VHFCHANNEL":"63","OBJECTID":7}},{"type":"Feature","geometry":{"type":"MultiPoint","coordinates":[[113.858,22.1875]]},"properties":{"GmlID":"CallingInPoint.8","OBJNAM":"Fan Lau Kok","INFORM":"Western Approaches (via Adamasta Channel) Calling-in Point","TRAFFIC":"inbound","VHFCHANNEL":"63","OBJECTID":8}},{"type":"Feature","geometry":{"type":"MultiPoint","coordinates":[[113.8536833,22.1906167]]},"properties":{"GmlID":"CallingInPoint.9","OBJNAM":"Fan Lau Kok","INFORM":"Western Approaches (via Adamasta Channel) Calling-in Point","TRAFFIC":"outbound","VHFCHANNEL":"63","OBJECTID":9}},{"type":"Feature","geometry":{"type":"MultiPoint","coordinates":[[114.0239833,22.2227833]]},"properties":{"GmlID":"CallingInPoint.10","OBJNAM":"Adamasta Rock","INFORM":"Western Approaches (via Adamasta Channel) Calling-in Point","TRAFFIC":"inbound","VHFCHANNEL":"63","OBJECTID":10}},{"type":"Feature","geometry":{"type":"MultiPoint","coordinates":[[114.0219,22.22515]]},"properties":{"GmlID":"CallingInPoint.11","OBJNAM":"Adamasta Rock","INFORM":"Western Approaches (via Adamasta Channel) Calling-in Point","TRAFFIC":"outbound","VHFCHANNEL":"63","OBJECTID":11}},{"type":"Feature","geometry":{"type":"MultiPoint","coordinates":[[113.8925,22.3325]]},"properties":{"GmlID":"CallingInPoint.12","OBJNAM":"Sha Chau","INFORM":"Western Approaches (via north of Lantau Island) Calling-in Point","TRAFFIC":"two-way","VHFCHANNEL":"67","OBJECTID":12}},{"type":"Feature","geometry":{"type":"MultiPoint","coordinates":[[114.0,22.3459833]]},"properties":{"GmlID":"CallingInPoint.13","OBJNAM":"Castle Peak No.1 Buoy","INFORM":"Western Approaches / North-western Approaches Calling-in Point","TRAFFIC":"two-way","VHFCHANNEL":"14, 67","OBJECTID":13}},{"type":"Feature","geometry":{"type":"MultiPoint","coordinates":[[113.8886333,22.41575]]},"properties":{"GmlID":"CallingInPoint.14","OBJNAM":"Urmston Road Pilot Station","INFORM":"North-Western Approaches Calling-in Point","TRAFFIC":"two-way","VHFCHANNEL":"67","OBJECTID":14}},{"type":"Feature","geometry":{"type":"MultiPoint","coordinates":[[114.11515,22.3242667]]},"properties":{"GmlID":"CallingInPoint.15","OBJNAM":"Northern 4 Buoy","INFORM":"Northern Fairway and Rambler Channel Calling-in Point","TRAFFIC":"two-way","VHFCHANNEL":"02,14,74","OBJECTID":15}},{"type":"Feature","geometry":{"type":"MultiPoint","coordinates":[[114.1127667,22.3509333]]},"properties":{"GmlID":"CallingInPoint.16","OBJNAM":"Cheung Tsing Bridge","INFORM":"Northern Fairway and Rambler Channel Calling-in Point","TRAFFIC":"two-way","VHFCHANNEL":"14, 74","OBJECTID":16}},{"type":"Feature","geometry":{"type":"MultiPoint","coordinates":[[114.4520833,22.4772833]]},"properties":{"GmlID":"CallingInPoint.17","OBJNAM":"Shek Ngau Chau","INFORM":"Mirs Bay Approaches Calling-in Point","TRAFFIC":"two-way","VHFCHANNEL":"12","OBJECTID":17}},{"type":"Feature","geometry":{"type":"MultiPoint","coordinates":[[114.33875,22.5608167]]},"properties":{"GmlID":"CallingInPoint.18","OBJNAM":"Crooked Island","INFORM":"Mirs Bay Approaches Calling-in Point","TRAFFIC":"two-way","VHFCHANNEL":"12","OBJECTID":18}}]}