{"type":"FeatureCollection","features":[{"type":"Feature","geometry":{"type":"MultiPolygon","coordinates":[[[[114.08885,22.3245833],[114.0760666,22.3573666],[114.0702333,22.3623667],[114.0566167,22.3623667],[114.0566167,22.3570833],[114.068,22.3570833],[114.0702333,22.3548667],[114.0805,22.3279167],[114.08885,22.3245833]]]]},"properties":{"GmlID":"FairywayTSS.1","OBJNAM":"Ma Wan Fairway","INFORM":"Anchoring, fishing and trawling are prohibited in fairway","OBJECTID":1}},{"type":"Feature","geometry":{"type":"MultiPolygon","coordinates":[[[[114.0819,22.32375],[114.0805,22.3279167],[114.0613333,22.3382],[114.0535667,22.3482],[114.0519,22.3470833],[114.0619,22.3343],[114.0819,22.32375]]]]},"properties":{"GmlID":"FairywayTSS.2","OBJNAM":"Kap Shui Mun Fairway","INFORM":"Anchoring, fishing and trawling are prohibited in fairway","OBJECTID":2}},{"type":"Feature","geometry":{"type":"MultiPolygon","coordinates":[[[[114.0236167,22.3427833],[114.0222166,22.34805],[113.9836334,22.3482],[113.9614167,22.347],[113.95245,22.3484667],[113.9352833,22.3552834],[113.9322166,22.35055],[113.94305,22.3463833],[113.95845,22.3432],[113.97805,22.34445],[113.9858333,22.34445],[114.0236167,22.3427833]]]]},"properties":{"GmlID":"FairywayTSS.3","OBJNAM":"Castle Peak Fairway","INFORM":"Anchoring, fishing and trawling are prohibited in fairway","OBJECTID":3}},{"type":"Feature","geometry":{"type":"MultiPolygon","coordinates":[[[[113.9322166,22.35055],[113.9352833,22.3552834],[113.90805,22.3711167],[113.89945,22.38445],[113.8914833,22.41635],[113.8857833,22.41515],[113.8907833,22.39515],[113.8941667,22.3822167],[113.9038833,22.3672166],[113.9322166,22.35055]]]]},"properties":{"GmlID":"FairywayTSS.4","OBJNAM":"Urmston Road Fairway","INFORM":"Anchoring, fishing and trawling are prohibited in fairway","OBJECTID":4}},{"type":"Feature","geometry":{"type":"MultiPolygon","coordinates":[[[[114.14495,22.3270833],[114.1441167,22.3257],[114.1482833,22.3234667],[114.1516167,22.3179166],[114.1516167,22.2976333],[114.1532833,22.2976333],[114.1532833,22.3179167],[114.1494,22.3243],[114.14495,22.3270833]]]]},"properties":{"GmlID":"FairywayTSS.5","OBJNAM":"Yau Ma Tei Fairway","INFORM":"Anchoring, fishing and trawling are prohibited in fairway","OBJECTID":5}},{"type":"Feature","geometry":{"type":"MultiPolygon","coordinates":[[[[114.1135667,22.2729167],[114.0994,22.2970833],[114.0985667,22.3054167],[114.08885,22.3245833],[114.0805,22.3279167],[114.0819,22.32375],[114.1046666,22.2690333],[114.1135667,22.2729167]]]]},"properties":{"GmlID":"FairywayTSS.6","OBJNAM":"Western Fairway","INFORM":"Anchoring, fishing and trawling are prohibited in fairway","OBJECTID":6}},{"type":"Feature","geometry":{"type":"MultiPolygon","coordinates":[[[[114.1404167,22.2974167],[114.1218167,22.2936167],[114.1237833,22.2882],[114.1095833,22.2797167],[114.1108333,22.2775667],[114.1319,22.2901333],[114.1455167,22.2929167],[114.1404167,22.2974167]]]]},"properties":{"GmlID":"FairywayTSS.7","OBJNAM":"Southern Fairway","INFORM":"Anchoring, fishing and trawling are prohibited in fairway","OBJECTID":7}},{"type":"Feature","geometry":{"type":"MultiPolygon","coordinates":[[[[114.08885,22.3245833],[114.0985667,22.3054167],[114.1032833,22.3143],[114.1133,22.31975],[114.12845,22.3120333],[114.1404167,22.2974167],[114.1429833,22.3],[114.1309333,22.3147167],[114.1107667,22.325],[114.0997333,22.3186833],[114.08885,22.3245833]]]]},"properties":{"GmlID":"FairywayTSS.8","OBJNAM":"Northern Fairway","INFORM":"Anchoring, fishing and trawling are prohibited in fairway","OBJECTID":8}},{"type":"Feature","geometry":{"type":"MultiPolygon","coordinates":[[[[114.1677833,22.2912667],[114.1672667,22.2879],[114.1744,22.28805],[114.1901,22.2954167],[114.20745,22.2956833],[114.20745,22.2995833],[114.1909334,22.2995834],[114.1734333,22.2913833],[114.1677833,22.2912667]]]]},"properties":{"GmlID":"FairywayTSS.9","OBJNAM":"Hung Hom Fairway","INFORM":"Anchoring, fishing and trawling are prohibited in fairway","OBJECTID":9}},{"type":"Feature","geometry":{"type":"MultiPolygon","coordinates":[[[[114.20745,22.2995833],[114.20745,22.2956833],[114.2345333,22.2845833],[114.2402333,22.28125],[114.24245,22.2843],[114.23635,22.2879167],[114.20745,22.2995833]]]]},"properties":{"GmlID":"FairywayTSS.10","OBJNAM":"Eastern Fairway","INFORM":"Anchoring, fishing and trawling are prohibited in fairway","OBJECTID":10}},{"type":"Feature","geometry":{"type":"MultiPolygon","coordinates":[[[[114.1429833,22.3],[114.1404167,22.2974167],[114.1455167,22.2929167],[114.1672667,22.2879],[114.1677833,22.2912667],[114.1568833,22.2937667],[114.1532833,22.2976333],[114.1516167,22.2976333],[114.1429833,22.3]]]]},"properties":{"GmlID":"FairywayTSS.11","OBJNAM":"Central Fairway","INFORM":"Anchoring, fishing and trawling are prohibited in fairway","OBJECTID":11}},{"type":"Feature","geometry":{"type":"MultiPolygon","coordinates":[[[[114.0222166,22.34805],[114.0236167,22.3427833],[114.03945,22.3488833],[114.0372166,22.3538833],[114.0222166,22.34805]]]]},"properties":{"GmlID":"FairywayTSS.12","OBJNAM":"Ha Pang Fairway","INFORM":"Anchoring, fishing and trawling are prohibited in fairway","OBJECTID":12}},{"type":"Feature","geometry":{"type":"MultiPolygon","coordinates":[[[[114.1046,22.2882],[114.1237833,22.2882],[114.1218167,22.2936167],[114.1014334,22.2936167],[114.1046,22.2882]]]]},"properties":{"GmlID":"FairywayTSS.13","OBJNAM":"North Green Island Fairway","INFORM":"Anchoring, fishing and trawling are prohibited in fairway","OBJECTID":13}},{"type":"Feature","geometry":{"type":"MultiPolygon","coordinates":[[[[114.0482667,22.1843833],[114.0520333,22.1737333],[114.0520333,22.1737333],[114.0900167,22.2598333],[114.0900167,22.2598333],[114.0832833,22.26375],[114.0832833,22.26375],[114.0482667,22.1843833]]]]},"properties":{"GmlID":"FairywayTSS.14","OBJNAM":"West Lamma Fairway","INFORM":"Anchoring, fishing and trawling are prohibited in fairway","OBJECTID":14}},{"type":"Feature","geometry":{"type":"MultiPolygon","coordinates":[[[[113.9618,22.1843],[113.9666833,22.1737333],[113.9666833,22.1737333],[114.0520333,22.1737333],[114.0520333,22.1737333],[114.0482667,22.1843833],[114.0482667,22.1843833],[113.9618,22.1843]]]]},"properties":{"GmlID":"FairywayTSS.15","OBJNAM":"South Shek Kwu Chau Fairway","INFORM":"Anchoring, fishing and trawling are prohibited in fairway","OBJECTID":15}},{"type":"Feature","geometry":{"type":"MultiPolygon","coordinates":[[[[113.92995,22.1970833],[113.92995,22.1884667],[113.92995,22.1884667],[113.9666833,22.1737333],[113.9666833,22.1737333],[113.9618,22.1843],[113.9618,22.1843],[113.92995,22.1970833]]]]},"properties":{"GmlID":"FairywayTSS.16","OBJNAM":"Soko Fairway","INFORM":"Anchoring, fishing and trawling are prohibited in fairway","OBJECTID":16}},{"type":"Feature","geometry":{"type":"MultiPolygon","coordinates":[[[[114.1046666,22.2690333],[114.1185638,22.244025],[114.1702301,22.2059667],[114.1852371,22.1773504],[114.1919013,22.1651333],[114.2000258,22.1493552],[114.2227367,22.1623484],[114.209419,22.1767895],[114.2002365,22.1868],[114.1760667,22.2129166],[114.1760667,22.2129166],[114.1262833,22.2501333],[114.1135667,22.2729167],[114.1046666,22.2690333]]]]},"properties":{"GmlID":"FairywayTSS.17","OBJNAM":"East Lamma Channel Traffic Separation Scheme","INFORM":"Anchoring, fishing and trawling are prohibited in Traffic Separation Scheme","OBJECTID":17}},{"type":"Feature","geometry":{"type":"MultiPolygon","coordinates":[[[[114.2402333,22.28125],[114.2561333,22.2701333],[114.2712834,22.2321334],[114.2969017,22.2062419],[114.3357922,22.2034635],[114.3357917,22.2331853],[114.2902346,22.2306863],[114.2802347,22.2356866],[114.2654666,22.2714668],[114.24245,22.2843],[114.2402333,22.28125]]]]},"properties":{"GmlID":"FairywayTSS.18","OBJNAM":"Tathong Channel Traffic Separation Scheme","INFORM":"Anchoring, fishing and trawling are prohibited in Traffic Separation Scheme","OBJECTID":18}},{"type":"Feature","geometry":{"type":"MultiPolygon","coordinates":[[[[114.0900166,22.2598333],[114.0912546,22.2626502],[114.0924621,22.2653979],[114.0932784,22.2672582],[114.0944769,22.2699898],[114.0955927,22.2725328],[114.0966167,22.2748667],[114.0959644,22.2756812],[114.0921694,22.280419],[114.0857488,22.2749167],[114.079978,22.2699875],[114.0785561,22.268771],[114.0769791,22.2674217],[114.0636328,22.256],[114.0630676,22.2555164],[114.0441167,22.2393],[114.04,22.2370476],[114.0207833,22.2265334],[114.0063333,22.2134667],[113.94,22.2055074],[113.92995,22.2043],[113.9066167,22.20125],[113.8557667,22.1932],[113.8491,22.19375],[113.8557833,22.18875],[113.8602167,22.18625],[113.9066167,22.1940333],[113.92995,22.1884666],[113.92995,22.1970834],[113.94,22.1983136],[114.0093833,22.2068],[114.02495,22.2218],[114.0385397,22.2287476],[114.04,22.2294942],[114.0494,22.2343],[114.05,22.2348217],[114.0583149,22.2420489],[114.0743646,22.256],[114.0832834,22.26375],[114.0866198,22.2618066],[114.0900166,22.2598333]]]]},"properties":{"GmlID":"FairywayTSS.19","OBJNAM":"Recommended Traffic Separation Scheme","INFORM":"Anchoring, fishing and trawling are prohibited in Recommended Traffic Separation Scheme","OBJECTID":19}}]}