{"type":"FeatureCollection","features":[{"type":"Feature","geometry":{"type":"MultiLineString","coordinates":[[[114.2365485,22.2878941],[114.2337945,22.2843109]]]},"properties":{"GmlID":"HarbourLimit.1","OBJANM":"Eastern Harbour Limit","INFORM":"From the westernmost extremity of Siu Chau Wan Point to the westernmost extremity of Ah Kung Ngam Point","OBJECTID":1}},{"type":"Feature","geometry":{"type":"MultiLineString","coordinates":[[[114.1109252,22.2831893],[114.1163458,22.2748133]]]},"properties":{"GmlID":"HarbourLimit.2","OBJANM":"Western Harbour Limit","INFORM":"From the westernmost point of Island of Hong Kong to the westernmost point of Green Island","OBJECTID":2}},{"type":"Feature","geometry":{"type":"MultiLineString","coordinates":[[[114.0789896,22.3671772],[114.07899,22.3585117]]]},"properties":{"GmlID":"HarbourLimit.3","OBJANM":"Western Harbour Limit","INFORM":"Along the eastern and northern coast lines of Tsing Yi to the westernmost extremity of Tsing Yi and thence a straight line drawn true north therefrom to the mainland","OBJECTID":3}},{"type":"Feature","geometry":{"type":"MultiLineString","coordinates":[[[114.11085,22.28335],[114.1101,22.2904167],[114.1085833,22.3068167],[114.10765,22.3166833],[114.1068,22.3256],[114.1068,22.3256667],[114.1066667,22.32705]]]},"properties":{"GmlID":"HarbourLimit.4","OBJANM":"Western Harbour Limit","INFORM":"From the westernmost point of Green Island to the south-easternmost point of Tsing Yi","OBJECTID":4}}]}