{"type":"FeatureCollection","features":[{"type":"Feature","geometry":{"type":"MultiPolygon","coordinates":[[[[113.872039,22.3136304],[113.8711111,22.3133334],[113.8708855,22.3140104],[113.8684786,22.3212309],[113.8683334,22.3216667],[113.8678616,22.3214982],[113.8644445,22.3202778],[113.8683333,22.3094445],[113.8666667,22.3088889],[113.8666667,22.2986111],[113.872228,22.2878366],[113.8751642,22.2821472],[113.8755555,22.2813889],[113.8891595,22.2857903],[113.8891766,22.2857216],[113.8893974,22.2858672],[113.8922834,22.2877701],[113.8925127,22.2879204],[113.8931625,22.2883459],[113.8938123,22.2887712],[113.8941816,22.2890127],[113.8945508,22.2892544],[113.8953743,22.2897986],[113.8961969,22.2903442],[113.8964858,22.2905336],[113.8963969,22.2906598],[113.8963847,22.2906823],[113.8963186,22.2908046],[113.8962682,22.2909445],[113.8962679,22.2910752],[113.8962676,22.2912151],[113.8962272,22.2913177],[113.8962372,22.2913644],[113.8963675,22.2914579],[113.8965578,22.2915796],[113.8967179,22.2917198],[113.896798,22.291804],[113.896848,22.2918974],[113.8969383,22.2918882],[113.8969385,22.2918042],[113.8969387,22.2917109],[113.8969389,22.2915896],[113.8969792,22.291487],[113.8970497,22.2913658],[113.8971704,22.291254],[113.8972155,22.2912196],[113.8972444,22.2911975],[113.897331,22.2911314],[113.8973615,22.2911134],[113.8974412,22.2911673],[113.8977146,22.2913465],[113.8977232,22.2913521],[113.8978321,22.2914233],[113.8979301,22.2914818],[113.8980317,22.2915347],[113.8988345,22.2919952],[113.8989912,22.2920865],[113.8990842,22.2921329],[113.8994889,22.2923153],[113.8998956,22.2924936],[113.9000642,22.2925686],[113.9002344,22.2926407],[113.9003582,22.2926863],[113.9004837,22.2927274],[113.9007435,22.2928077],[113.9012681,22.2929715],[113.9017927,22.2931353],[113.9021146,22.2932281],[113.9024406,22.2933083],[113.9026597,22.2933556],[113.9029537,22.2934124],[113.9032468,22.2934631],[113.9035406,22.2935093],[113.90413,22.2935907],[113.9043845,22.2936217],[113.9046394,22.2936492],[113.9048709,22.2936697],[113.9051029,22.2936823],[113.905609,22.2936929],[113.9061152,22.2936965],[113.9071278,22.2936956],[113.9078167,22.2937213],[113.9081972,22.2937363],[113.9086189,22.2937758],[113.9090334,22.2938479],[113.9094097,22.2939442],[113.9098345,22.2940913],[113.9106447,22.2944658],[113.9114159,22.2948554],[113.911863,22.2950549],[113.9121411,22.2951603],[113.9123646,22.2952296],[113.911854,22.2952274],[113.9110362,22.295224],[113.9106222,22.2952222],[113.9101137,22.2952196],[113.909379,22.2952148],[113.909252,22.2952138],[113.9090689,22.2952122],[113.9088987,22.2952105],[113.9087415,22.2952088],[113.9085972,22.2952069],[113.9084658,22.2952051],[113.9083474,22.2952032],[113.9082418,22.2952012],[113.9081492,22.2951991],[113.9080696,22.295197],[113.907997,22.2951948],[113.9079254,22.2951926],[113.907855,22.2951903],[113.9077858,22.2951881],[113.9077177,22.2951856],[113.9076507,22.2951832],[113.9075849,22.2951808],[113.9075202,22.2951783],[113.9074565,22.2951758],[113.9073941,22.2951731],[113.9073328,22.2951705],[113.9072725,22.2951679],[113.9072135,22.2951652],[113.9071555,22.2951623],[113.9070987,22.2951595],[113.907043,22.2951566],[113.9069881,22.2951537],[113.9069336,22.2951507],[113.9068795,22.2951476],[113.9068259,22.2951444],[113.9067727,22.2951411],[113.90672,22.2951377],[113.9066677,22.2951343],[113.9066157,22.2951307],[113.9065643,22.2951272],[113.9065132,22.2951235],[113.9064626,22.2951198],[113.9064123,22.2951159],[113.9063626,22.2951119],[113.9063133,22.2951078],[113.9062644,22.2951038],[113.9062158,22.2950996],[113.9060277,22.2950829],[113.9058491,22.2950668],[113.905803,22.2950626],[113.90568,22.2950512],[113.9056393,22.2950474],[113.9055992,22.2950437],[113.9055596,22.2950399],[113.9055208,22.2950362],[113.9054816,22.2950325],[113.9054412,22.2950286],[113.9053999,22.2950245],[113.9053574,22.2950203],[113.9053139,22.2950158],[113.9052693,22.2950114],[113.9052236,22.2950067],[113.9051767,22.2950019],[113.9051288,22.2949969],[113.9051198,22.2949959],[113.9050798,22.2949917],[113.9050298,22.2949864],[113.9049785,22.294981],[113.9049263,22.2949754],[113.9048728,22.2949697],[113.9048184,22.2949637],[113.9047628,22.2949577],[113.9047072,22.2949516],[113.9046524,22.2949455],[113.9045986,22.2949394],[113.9045859,22.294938],[113.9045458,22.2949335],[113.9044938,22.2949274],[113.9044427,22.2949216],[113.9043926,22.2949156],[113.9043434,22.2949097],[113.9042951,22.2949039],[113.9042477,22.2948981],[113.9042013,22.2948923],[113.9041558,22.2948865],[113.9041111,22.2948808],[113.9040825,22.2948771],[113.9040675,22.2948751],[113.9040247,22.2948695],[113.9039829,22.294864],[113.9039412,22.2948581],[113.9038989,22.2948522],[113.903856,22.2948459],[113.9038125,22.2948394],[113.9037685,22.2948327],[113.9037238,22.2948256],[113.9036785,22.2948182],[113.9036326,22.2948106],[113.9035861,22.2948027],[113.9035391,22.2947947],[113.9034914,22.2947862],[113.903443,22.2947775],[113.9033942,22.2947685],[113.9033447,22.2947593],[113.9032946,22.29475],[113.9032439,22.2947402],[113.9028619,22.2946661],[113.9025313,22.2946019],[113.9024929,22.2945944],[113.9024539,22.2945866],[113.9024141,22.2945786],[113.9023739,22.2945704],[113.9023329,22.2945619],[113.9022912,22.2945533],[113.902249,22.2945443],[113.9022061,22.2945351],[113.9021626,22.2945257],[113.9021184,22.294516],[113.9020736,22.2945061],[113.9020281,22.294496],[113.901982,22.2944856],[113.9019353,22.2944751],[113.9018879,22.2944643],[113.9018399,22.2944531],[113.901792,22.2944419],[113.9017448,22.2944308],[113.9016986,22.2944198],[113.901653,22.2944088],[113.9016084,22.2943979],[113.9015645,22.2943869],[113.9015214,22.2943762],[113.9014792,22.2943653],[113.9014377,22.2943546],[113.9013971,22.2943439],[113.9013573,22.2943333],[113.9013182,22.2943228],[113.90128,22.2943124],[113.9012426,22.2943019],[113.901206,22.2942915],[113.9011702,22.2942812],[113.9011326,22.2942701],[113.9010903,22.2942576],[113.9010434,22.2942437],[113.900992,22.2942282],[113.9009358,22.2942112],[113.9008751,22.2941929],[113.9008099,22.2941731],[113.9007399,22.2941517],[113.9006654,22.2941289],[113.9006359,22.2941198],[113.9005864,22.2941047],[113.9005026,22.294079],[113.9004796,22.2940719],[113.8994445,22.2927778],[113.8937577,22.2909822],[113.8903344,22.2899012],[113.8840607,22.2879197],[113.8836111,22.2877778],[113.8833231,22.2884692],[113.8828783,22.2895365],[113.8825417,22.2903447],[113.8824471,22.2905716],[113.8821593,22.2912622],[113.8821093,22.291382],[113.8818692,22.2919584],[113.8808334,22.2944445],[113.8919062,22.298072],[113.8966112,22.2996131],[113.8968525,22.2999215],[113.8978404,22.3011847],[113.8978724,22.3012281],[113.8978978,22.3012622],[113.897903,22.3012692],[113.8979079,22.3012756],[113.8979124,22.3012815],[113.8979163,22.3012868],[113.8979198,22.3012912],[113.8979799,22.3013744],[113.8980332,22.3014848],[113.8980751,22.3015917],[113.8981017,22.3017093],[113.8981053,22.3018126],[113.8981051,22.3018908],[113.8980897,22.3019799],[113.8980741,22.3020724],[113.898051,22.3021471],[113.8980203,22.3022005],[113.8980087,22.3022397],[113.8980278,22.3022966],[113.8980583,22.3023287],[113.8981101,22.3023567],[113.89802,22.3025987],[113.8980095,22.3026272],[113.8973673,22.3043524],[113.8970141,22.3042359],[113.8966872,22.3051273],[113.8968359,22.305173],[113.8968796,22.3053613],[113.8967316,22.3057463],[113.8965081,22.3063276],[113.8964056,22.3065942],[113.8963787,22.3066633],[113.8916569,22.3051725],[113.881289,22.3018983],[113.8805556,22.3016667],[113.8803251,22.3022199],[113.8780375,22.30771],[113.8777778,22.3083333],[113.8785148,22.3085567],[113.8808252,22.3092569],[113.8838236,22.3101655],[113.8866692,22.3110277],[113.8869445,22.3111111],[113.8947194,22.3169435],[113.9003524,22.3188212],[113.9002112,22.3192002],[113.8994142,22.3213407],[113.8991938,22.3219327],[113.8991415,22.3219159],[113.8990127,22.3222619],[113.872039,22.3136304]],[[113.8951143,22.3057191],[113.8951139,22.305727],[113.8951132,22.3057425],[113.8951129,22.3057516],[113.8951127,22.3057573],[113.8951124,22.3057716],[113.8951123,22.305775],[113.8951123,22.3057819],[113.8951124,22.3057852],[113.8951124,22.3057885],[113.8951124,22.3057919],[113.8951125,22.3057952],[113.8951126,22.3057986],[113.8951132,22.3058122],[113.8951143,22.3058258],[113.8951157,22.3058397],[113.8951193,22.30587],[113.8951237,22.3059055],[113.8951244,22.3059104],[113.8951253,22.3059157],[113.8951264,22.3059213],[113.8951277,22.3059273],[113.8951292,22.3059336],[113.8951309,22.3059402],[113.8951328,22.3059472],[113.8951349,22.3059546],[113.8951372,22.3059623],[113.8951398,22.3059704],[113.8951425,22.3059787],[113.8951454,22.3059875],[113.8951485,22.3059966],[113.8951519,22.306006],[113.8951554,22.3060158],[113.8951591,22.3060259],[113.8951734,22.3060638],[113.8951855,22.3060947],[113.8951881,22.3061014],[113.8951906,22.3061076],[113.895193,22.3061135],[113.8951953,22.3061188],[113.8951974,22.3061238],[113.8951994,22.3061283],[113.8952012,22.3061324],[113.8952029,22.3061362],[113.8952046,22.3061395],[113.8952062,22.3061429],[113.8952068,22.3061439],[113.8952079,22.3061462],[113.8952096,22.3061493],[113.8952112,22.3061525],[113.8952129,22.3061555],[113.8952146,22.3061584],[113.8952163,22.3061613],[113.895218,22.3061641],[113.8952197,22.3061668],[113.8952215,22.3061695],[113.8952232,22.306172],[113.8952249,22.3061745],[113.8952267,22.3061769],[113.8952284,22.3061792],[113.8952302,22.3061814],[113.895237,22.3061895],[113.8952386,22.3061913],[113.8952402,22.3061931],[113.8952417,22.3061947],[113.8952432,22.3061962],[113.8952446,22.3061977],[113.895246,22.306199],[113.8952474,22.3062003],[113.8952488,22.3062015],[113.8952501,22.3062026],[113.8952514,22.3062037],[113.8952526,22.3062046],[113.8952538,22.3062054],[113.895255,22.3062062],[113.8952562,22.306207],[113.8952576,22.3062078],[113.8952589,22.3062086],[113.8952604,22.3062094],[113.8952619,22.3062101],[113.8952634,22.3062109],[113.8952667,22.3062124],[113.8952685,22.3062132],[113.8952703,22.3062139],[113.8952722,22.3062147],[113.8952741,22.3062154],[113.895276,22.3062162],[113.8952781,22.3062169],[113.8952802,22.3062177],[113.8952886,22.3062203],[113.8952966,22.3062226],[113.8953043,22.3062243],[113.8953117,22.3062257],[113.8953135,22.3062259],[113.8953153,22.3062261],[113.8953191,22.3062264],[113.8953211,22.3062265],[113.895323,22.3062265],[113.8953271,22.3062265],[113.8953291,22.3062265],[113.8953312,22.3062264],[113.8953355,22.306226],[113.8953377,22.3062258],[113.8953399,22.3062255],[113.8953421,22.3062252],[113.8953444,22.3062249],[113.8953467,22.3062245],[113.8953489,22.3062241],[113.8953512,22.3062236],[113.8953534,22.3062232],[113.8953556,22.3062226],[113.8953578,22.3062221],[113.8953621,22.306221],[113.8953642,22.3062203],[113.8953684,22.306219],[113.8953705,22.3062183],[113.8953725,22.3062175],[113.8953745,22.3062168],[113.8953765,22.306216],[113.8953785,22.3062152],[113.8953805,22.3062143],[113.8953824,22.3062134],[113.8953842,22.3062125],[113.8953861,22.3062116],[113.8953896,22.3062096],[113.8953912,22.3062086],[113.8953929,22.3062076],[113.8953944,22.3062065],[113.895396,22.3062054],[113.8953975,22.3062043],[113.8953989,22.3062031],[113.8954003,22.3062019],[113.8954043,22.3061983],[113.8954067,22.3061957],[113.8954079,22.3061944],[113.8954091,22.306193],[113.8954102,22.3061916],[113.8954113,22.3061902],[113.8954124,22.3061887],[113.8954134,22.3061873],[113.8954145,22.3061857],[113.8954164,22.3061827],[113.8954174,22.3061811],[113.8954209,22.3061745],[113.8954218,22.3061728],[113.8954233,22.3061692],[113.895424,22.3061674],[113.8954248,22.3061656],[113.8954255,22.3061637],[113.8954267,22.3061598],[113.8954274,22.3061578],[113.8954279,22.3061558],[113.8954285,22.3061538],[113.895429,22.3061517],[113.8954308,22.3061431],[113.8954321,22.3061348],[113.8954324,22.3061329],[113.8954327,22.3061311],[113.8954329,22.3061294],[113.8954331,22.3061277],[113.8954336,22.3061218],[113.8954337,22.3061171],[113.8954336,22.3061159],[113.8954334,22.3061145],[113.8954331,22.3061129],[113.8954327,22.3061109],[113.8954321,22.3061087],[113.8954315,22.3061063],[113.8954307,22.3061036],[113.8954299,22.3061007],[113.8954288,22.3060975],[113.8954277,22.3060941],[113.8954265,22.3060904],[113.8954252,22.3060864],[113.8954237,22.3060822],[113.8954222,22.3060778],[113.8954205,22.3060731],[113.8954187,22.3060681],[113.8954168,22.3060629],[113.8954147,22.3060575],[113.8954123,22.3060519],[113.8954098,22.3060461],[113.8954071,22.3060402],[113.8954042,22.306034],[113.8954011,22.3060276],[113.8953987,22.3060228],[113.8953978,22.306021],[113.8953943,22.3060143],[113.8953906,22.3060073],[113.8953868,22.3060001],[113.8953827,22.3059927],[113.8953785,22.3059852],[113.895374,22.3059774],[113.8953694,22.3059695],[113.8953646,22.3059613],[113.8953598,22.3059532],[113.8953552,22.3059455],[113.8953509,22.3059381],[113.8953468,22.3059311],[113.8953429,22.3059244],[113.8953393,22.305918],[113.895336,22.305912],[113.8953328,22.3059063],[113.8953299,22.305901],[113.8953273,22.305896],[113.8953249,22.3058914],[113.8953227,22.3058871],[113.8953208,22.3058831],[113.8953191,22.3058795],[113.8953176,22.3058763],[113.8953164,22.3058733],[113.8953153,22.3058706],[113.8953143,22.3058679],[113.8953132,22.3058653],[113.8953123,22.3058626],[113.8953086,22.3058525],[113.8953054,22.3058429],[113.8953047,22.3058406],[113.8953039,22.3058383],[113.8953033,22.3058361],[113.8953026,22.3058339],[113.8953002,22.3058251],[113.895298,22.3058161],[113.8952959,22.305807],[113.8952941,22.3057978],[113.8952936,22.3057954],[113.8952932,22.3057929],[113.8952928,22.3057903],[113.8952923,22.3057876],[113.8952909,22.3057759],[113.8952905,22.3057727],[113.8952902,22.3057694],[113.8952898,22.305766],[113.8952895,22.3057625],[113.8952893,22.305759],[113.8952889,22.3057553],[113.8952888,22.3057537],[113.8952887,22.3057515],[113.8952884,22.3057476],[113.8952876,22.3057328],[113.8952871,22.3057198],[113.8952869,22.3057087],[113.8952872,22.3056994],[113.8952877,22.305691],[113.8952884,22.3056826],[113.8952893,22.3056742],[113.8952904,22.3056657],[113.8952916,22.3056571],[113.8952931,22.3056485],[113.8952947,22.3056399],[113.8952966,22.3056311],[113.8952972,22.3056285],[113.8952981,22.3056252],[113.8952991,22.305621],[113.8953005,22.3056161],[113.8953082,22.3055887],[113.8953199,22.3055488],[113.8953354,22.3054965],[113.8953489,22.3054602],[113.8956171,22.3047406],[113.8958466,22.3041251],[113.8959145,22.303943],[113.895922,22.3039289],[113.8959293,22.3039152],[113.8959365,22.3039018],[113.8959436,22.3038889],[113.8959504,22.3038763],[113.8959572,22.303864],[113.8959638,22.3038522],[113.8959702,22.3038408],[113.8959765,22.3038297],[113.8959826,22.3038191],[113.8959886,22.3038087],[113.8959945,22.3037989],[113.8960002,22.3037893],[113.8960057,22.3037801],[113.8960111,22.3037714],[113.8960151,22.3037651],[113.8960164,22.303763],[113.8960216,22.3037549],[113.8960268,22.303747],[113.8960321,22.3037392],[113.8960375,22.3037317],[113.8960429,22.3037243],[113.8960484,22.3037171],[113.8960539,22.3037102],[113.8960595,22.3037033],[113.8960651,22.3036967],[113.8960709,22.3036902],[113.8960766,22.303684],[113.8960824,22.3036779],[113.8960883,22.303672],[113.8960942,22.3036663],[113.8961001,22.3036607],[113.8961062,22.3036554],[113.8961123,22.3036501],[113.8961187,22.3036448],[113.8961252,22.3036394],[113.8961319,22.3036339],[113.8961388,22.3036284],[113.896146,22.3036229],[113.8961533,22.3036173],[113.8961607,22.3036116],[113.8961684,22.3036058],[113.8961763,22.3036001],[113.8961844,22.3035942],[113.8961927,22.3035883],[113.8962011,22.3035823],[113.8962098,22.3035763],[113.8962186,22.3035702],[113.8962368,22.303558],[113.8962458,22.3035521],[113.8962547,22.3035463],[113.8962636,22.3035407],[113.8962723,22.3035352],[113.896281,22.3035299],[113.8962895,22.3035248],[113.896298,22.3035198],[113.8963064,22.3035149],[113.8963113,22.3035122],[113.8963147,22.3035102],[113.896323,22.3035057],[113.8963311,22.3035014],[113.8963392,22.3034971],[113.8963471,22.303493],[113.896355,22.3034891],[113.8963628,22.3034854],[113.8964855,22.3034273],[113.8964931,22.3034236],[113.8965008,22.30342],[113.8965085,22.3034162],[113.8965162,22.3034125],[113.8965241,22.3034086],[113.8965319,22.3034048],[113.8965398,22.3034009],[113.8965478,22.3033969],[113.8965801,22.3033805],[113.8966003,22.3033699],[113.8966131,22.3033633],[113.8966213,22.303359],[113.896629,22.3033548],[113.8966364,22.3033508],[113.8966433,22.303347],[113.8966498,22.3033434],[113.8966559,22.30334],[113.8966616,22.3033368],[113.8966669,22.3033337],[113.8966718,22.3033308],[113.8966763,22.3033281],[113.8966803,22.3033255],[113.896684,22.3033232],[113.8966872,22.303321],[113.8966901,22.303319],[113.8966925,22.3033171],[113.8966945,22.3033155],[113.896698,22.3033123],[113.8966997,22.3033106],[113.8967013,22.3033088],[113.8967029,22.3033069],[113.8967044,22.3033051],[113.8967059,22.3033032],[113.8967073,22.3033012],[113.8967086,22.3032991],[113.8967099,22.303297],[113.8967111,22.3032949],[113.8967123,22.3032927],[113.8967135,22.3032904],[113.8967145,22.303288],[113.8967156,22.3032857],[113.8967166,22.3032832],[113.8967174,22.3032807],[113.8967182,22.3032783],[113.896719,22.3032757],[113.8967196,22.3032732],[113.8967201,22.3032706],[113.8967205,22.3032681],[113.8967209,22.3032654],[113.8967211,22.3032628],[113.8967212,22.3032602],[113.8967213,22.3032575],[113.8967212,22.3032548],[113.8967211,22.3032522],[113.8967208,22.3032494],[113.8967205,22.3032467],[113.89672,22.3032439],[113.8967196,22.3032411],[113.8967189,22.3032384],[113.8967183,22.3032357],[113.8967175,22.3032331],[113.8967168,22.3032305],[113.896716,22.303228],[113.8967151,22.3032256],[113.8967142,22.3032233],[113.8967132,22.303221],[113.8967121,22.3032188],[113.896711,22.3032167],[113.8967098,22.3032146],[113.8967086,22.3032126],[113.8967073,22.3032106],[113.896706,22.3032087],[113.8967046,22.3032069],[113.8967031,22.3032052],[113.8967016,22.3032035],[113.8967001,22.3032019],[113.8966986,22.3032003],[113.8966971,22.3031988],[113.8966955,22.3031973],[113.8966923,22.3031945],[113.8966907,22.3031932],[113.896689,22.3031919],[113.8966874,22.3031907],[113.8966857,22.3031895],[113.896684,22.3031883],[113.8966822,22.3031873],[113.8966805,22.3031862],[113.8966787,22.3031852],[113.8966769,22.3031843],[113.8966751,22.3031834],[113.8966732,22.3031825],[113.8966712,22.3031817],[113.8966692,22.3031809],[113.8966671,22.3031802],[113.896665,22.3031795],[113.8966628,22.3031788],[113.8966605,22.3031782],[113.8966557,22.303177],[113.8966533,22.3031765],[113.8966507,22.303176],[113.8966482,22.3031756],[113.8966455,22.3031752],[113.8966428,22.3031748],[113.89664,22.3031745],[113.8966372,22.3031742],[113.8966343,22.303174],[113.8966315,22.3031739],[113.8966285,22.303174],[113.8966256,22.3031741],[113.8966226,22.3031743],[113.8966196,22.3031745],[113.8966166,22.303175],[113.8966135,22.3031754],[113.8966104,22.303176],[113.8966073,22.3031767],[113.8966041,22.3031775],[113.8966009,22.3031783],[113.8965977,22.3031793],[113.8965945,22.3031803],[113.8965912,22.3031814],[113.8965873,22.3031829],[113.8965823,22.303185],[113.896576,22.3031876],[113.8965687,22.3031909],[113.8965602,22.3031947],[113.8965505,22.3031992],[113.8965397,22.3032042],[113.896534,22.3032069],[113.8965277,22.3032099],[113.8965145,22.3032161],[113.8965002,22.3032229],[113.8964847,22.3032303],[113.8964681,22.3032384],[113.8964502,22.303247],[113.8964313,22.3032562],[113.8964112,22.303266],[113.8963899,22.3032764],[113.8963685,22.3032869],[113.8963481,22.303297],[113.8963285,22.3033067],[113.8963099,22.3033161],[113.8962923,22.303325],[113.8962756,22.3033336],[113.8962598,22.3033417],[113.896245,22.3033495],[113.8962311,22.3033569],[113.8962181,22.3033639],[113.8962061,22.3033705],[113.896195,22.3033768],[113.8961949,22.3033769],[113.8961848,22.3033826],[113.8961756,22.3033881],[113.8961673,22.3033931],[113.89616,22.3033978],[113.8961531,22.3034023],[113.8961462,22.3034068],[113.8961394,22.3034114],[113.8961325,22.3034161],[113.8961256,22.3034208],[113.8961119,22.3034302],[113.8961051,22.303435],[113.8960983,22.3034399],[113.8960914,22.3034448],[113.8960846,22.3034497],[113.8960778,22.3034547],[113.896071,22.3034597],[113.8960574,22.3034699],[113.8960506,22.303475],[113.8960438,22.3034802],[113.8960372,22.3034854],[113.8960306,22.3034906],[113.896024,22.3034959],[113.8960176,22.3035012],[113.8960113,22.3035065],[113.896005,22.3035118],[113.8959988,22.3035172],[113.8959927,22.3035226],[113.8959867,22.3035281],[113.8959807,22.3035335],[113.8959748,22.303539],[113.8959691,22.3035445],[113.8959633,22.3035501],[113.8959577,22.3035557],[113.8959521,22.3035612],[113.8959466,22.3035669],[113.8959412,22.3035726],[113.8959359,22.3035783],[113.8959305,22.3035841],[113.89592,22.303596],[113.8959148,22.3036019],[113.8959097,22.303608],[113.8959047,22.3036141],[113.8958997,22.3036202],[113.8958947,22.3036264],[113.8958898,22.3036327],[113.8958849,22.303639],[113.8958801,22.3036454],[113.8958754,22.3036518],[113.8958707,22.3036583],[113.8958659,22.303665],[113.8958609,22.3036722],[113.8958557,22.30368],[113.8958503,22.3036881],[113.8958447,22.3036968],[113.8958389,22.3037059],[113.8958329,22.3037155],[113.8958267,22.3037255],[113.8958203,22.3037361],[113.8958137,22.3037471],[113.8958069,22.3037585],[113.8957998,22.3037705],[113.8957926,22.3037829],[113.8957851,22.3037958],[113.8957774,22.3038091],[113.8957696,22.303823],[113.895178,22.305416],[113.8951663,22.3054476],[113.8951649,22.305452],[113.8951635,22.3054565],[113.8951621,22.305461],[113.8951608,22.3054655],[113.8951555,22.3054837],[113.8951542,22.3054883],[113.8951529,22.3054929],[113.8951516,22.3054975],[113.8951504,22.3055022],[113.8951455,22.3055209],[113.8951408,22.3055399],[113.8951365,22.3055593],[113.8951344,22.305569],[113.8951324,22.3055788],[113.8951288,22.3055988],[113.8951255,22.3056181],[113.8951227,22.3056359],[113.8951204,22.3056522],[113.8951199,22.3056561],[113.8951194,22.3056599],[113.895119,22.3056636],[113.8951178,22.3056743],[113.8951171,22.3056815],[113.8951159,22.3056963],[113.8951156,22.3057],[113.8951153,22.3057038],[113.8951151,22.3057076],[113.8951146,22.3057153],[113.8951143,22.3057191]]],[[[113.9606965,22.3092711],[113.960718,22.309256],[113.960991,22.3090646],[113.9613513,22.308844],[113.9613732,22.3088307],[113.9613814,22.3088536],[113.965,22.31],[113.9618538,22.3184502],[113.961755,22.3181495],[113.9616336,22.3177755],[113.9615104,22.3173961],[113.9611115,22.3160977],[113.9597844,22.3120204],[113.9596701,22.3116915],[113.9594659,22.3112349],[113.9593857,22.3111159],[113.959325,22.3110594],[113.95943,22.3108586],[113.9595042,22.310716],[113.9595674,22.3105787],[113.959599,22.3105101],[113.9596838,22.3103263],[113.9598986,22.3099985],[113.9601422,22.3097175],[113.9604839,22.3094201],[113.9606965,22.3092711]]],[[[113.8929788,22.2878717],[113.8925147,22.287544],[113.8913956,22.2868055],[113.8911825,22.2866648],[113.890514,22.2862285],[113.8910131,22.2863899],[113.894278,22.2874462],[113.8942591,22.2874696],[113.8942488,22.2876002],[113.8942786,22.2877868],[113.8943884,22.2879924],[113.8945585,22.2882073],[113.8946584,22.2884221],[113.8948083,22.288665],[113.8949283,22.2888518],[113.8950385,22.2889453],[113.8952689,22.2890857],[113.8955194,22.2891981],[113.8957801,22.2892546],[113.8959103,22.2893481],[113.8960405,22.2894883],[113.8963509,22.2897315],[113.8964809,22.289909],[113.8965206,22.2901238],[113.8965312,22.2902445],[113.8963752,22.2901441],[113.8931295,22.2879906],[113.8929788,22.2878717]]],[[[113.9604042,22.3214606],[113.9604061,22.3221618],[113.9604065,22.3223374],[113.9604065,22.3223376],[113.9597547,22.3240883],[113.9552778,22.3361111],[113.935,22.33],[113.9305555,22.3416667],[113.9266667,22.3405555],[113.9269087,22.3398954],[113.9294108,22.3330717],[113.9297222,22.3322222],[113.9291136,22.3320275],[113.9228795,22.3300325],[113.9233896,22.328662],[113.9234176,22.3285978],[113.9234526,22.3285366],[113.9234942,22.3284791],[113.9235421,22.328426],[113.9235957,22.3283777],[113.9236543,22.3283349],[113.9237175,22.328298],[113.9237843,22.3282674],[113.9238542,22.3282435],[113.9268453,22.3273798],[113.927337,22.3272379],[113.9273372,22.3272379],[113.9346085,22.3274069],[113.9363709,22.327448],[113.9386111,22.3275001],[113.9468404,22.3303288],[113.9475001,22.3305556],[113.9476777,22.3300581],[113.9487371,22.3270917],[113.9488889,22.3266667],[113.9487319,22.3262271],[113.9475,22.3227777],[113.9459226,22.3221549],[113.945817,22.3209858],[113.9457192,22.3209901],[113.9457407,22.3208687],[113.9458573,22.3208735],[113.9459664,22.3207869],[113.9460601,22.3205699],[113.9461099,22.3203859],[113.9461881,22.3197597],[113.9460445,22.3197646],[113.9459716,22.3203891],[113.9450429,22.3203853],[113.9449398,22.3204235],[113.9448155,22.3203365],[113.9448001,22.3201917],[113.9448471,22.3200759],[113.9449562,22.3199313],[113.9450808,22.3199315],[113.9451275,22.3198592],[113.9450499,22.3197578],[113.9449099,22.3197141],[113.9447079,22.3195256],[113.9445837,22.3193807],[113.9445605,22.3193156],[113.9446863,22.3192778],[113.9446789,22.3192465],[113.9445475,22.3192724],[113.9445373,22.3192504],[113.9443974,22.3190909],[113.9443196,22.3190764],[113.9442384,22.3186556],[113.9449975,22.3185114],[113.9449762,22.3184131],[113.9447649,22.3184517],[113.9447673,22.3184621],[113.9442185,22.3185638],[113.9441539,22.318267],[113.9441922,22.3182597],[113.9448063,22.3181422],[113.944775,22.3180005],[113.9441725,22.3181158],[113.944123,22.3181253],[113.9440352,22.3177223],[113.9440796,22.3177138],[113.9446937,22.3175963],[113.9446624,22.3174546],[113.9440599,22.3175699],[113.9440043,22.3175805],[113.9440043,22.3175803],[113.9436528,22.3159675],[113.9425791,22.3145008],[113.9425483,22.3144588],[113.9425485,22.3144588],[113.9472223,22.3158333],[113.947325,22.3155595],[113.9473505,22.315614],[113.9492765,22.3217802],[113.9494197,22.3220298],[113.9496164,22.3222512],[113.9499479,22.3225117],[113.9500755,22.3225942],[113.9502607,22.322714],[113.950576,22.3227699],[113.9509997,22.3228003],[113.9516863,22.3226283],[113.953711,22.3220774],[113.9539501,22.3219896],[113.9541825,22.3219569],[113.9547182,22.3218314],[113.9550679,22.3217122],[113.9556424,22.321559],[113.9562569,22.32137],[113.9574477,22.3210707],[113.958275,22.3208506],[113.9591156,22.3205928],[113.9595973,22.320459],[113.9597906,22.3204606],[113.9599965,22.32053],[113.9601906,22.3206914],[113.9603103,22.3208668],[113.9603768,22.3211477],[113.9604042,22.3214606]]],[[[113.9413195,22.3032635],[113.9413233,22.3027888],[113.94122,22.3024688],[113.9414314,22.3025357],[113.9606325,22.3086163],[113.9607456,22.3086521],[113.9607715,22.3086603],[113.9602909,22.3089333],[113.9602677,22.3089464],[113.9598534,22.3091816],[113.9590213,22.3096464],[113.9588216,22.309758],[113.9582379,22.3100842],[113.9580255,22.3102029],[113.957968,22.3101819],[113.957457,22.3101574],[113.9565186,22.3103301],[113.9553201,22.3107132],[113.9543681,22.3109876],[113.9539157,22.3111232],[113.9533197,22.3114333],[113.952677,22.3118589],[113.9515858,22.31241],[113.9508742,22.3127173],[113.9505074,22.3128544],[113.9500791,22.3130055],[113.9492062,22.3132527],[113.9484349,22.3134408],[113.9481072,22.3134735],[113.9485223,22.3123667],[113.9493736,22.3100966],[113.9497223,22.3091667],[113.9487822,22.3088614],[113.9467458,22.3082001],[113.9405895,22.3062008],[113.9405943,22.306189],[113.9408771,22.3056946],[113.9411097,22.3052464],[113.9413118,22.3046812],[113.94133,22.3039135],[113.9413195,22.3032635]]],[[[113.9084078,22.2921224],[113.9085237,22.292006],[113.9111945,22.2928702],[113.9127611,22.2933771],[113.9170618,22.2947685],[113.917365,22.2948666],[113.9169817,22.2949703],[113.9165559,22.2950639],[113.9161802,22.2951189],[113.9154585,22.2951603],[113.9138158,22.2951502],[113.9131647,22.2950885],[113.9127068,22.2949966],[113.9122607,22.2948635],[113.9118277,22.2946915],[113.9114024,22.2944907],[113.9108079,22.2941877],[113.9098286,22.2937464],[113.9095453,22.2936517],[113.9092565,22.2935725],[113.9089475,22.2935063],[113.9087161,22.2934689],[113.9085671,22.2934498],[113.9083186,22.2934268],[113.9079722,22.2934085],[113.9074586,22.2934196],[113.9051605,22.293398],[113.9043471,22.2933351],[113.9036335,22.2932443],[113.902785,22.2930915],[113.9020402,22.2929162],[113.9014432,22.2927467],[113.9008545,22.2925533],[113.9004526,22.2924056],[113.8997071,22.2920963],[113.8994058,22.2919575],[113.8986893,22.2915937],[113.8981974,22.2913144],[113.897795,22.2910666],[113.8976565,22.2909758],[113.8978631,22.2909006],[113.8980838,22.2908637],[113.8982544,22.2908919],[113.8984649,22.290967],[113.8985549,22.2910699],[113.8986048,22.2912192],[113.8987852,22.2912942],[113.8989056,22.2912757],[113.8990057,22.2913785],[113.8991056,22.2915467],[113.8992559,22.2916216],[113.8994465,22.2916313],[113.8996573,22.2915757],[113.8997376,22.2915478],[113.8998078,22.2915479],[113.899848,22.2914734],[113.8998181,22.2913426],[113.8997683,22.2912399],[113.8997886,22.291072],[113.8999791,22.2911843],[113.9001194,22.2912218],[113.9002113,22.2912205],[113.9002141,22.2911756],[113.9002148,22.291166],[113.9001445,22.2911845],[113.9000141,22.2911469],[113.8998438,22.291072],[113.8998139,22.2909787],[113.899774,22.2908479],[113.8997944,22.29068],[113.8997949,22.2904654],[113.8998254,22.2902041],[113.8998458,22.2901016],[113.8999362,22.2900271],[113.900137,22.289906],[113.9002776,22.2898223],[113.900368,22.2897665],[113.9004183,22.2896826],[113.9005389,22.2895895],[113.9007601,22.2895213],[113.9007797,22.2895153],[113.9009703,22.2895063],[113.901171,22.2894506],[113.9013719,22.2893483],[113.9015326,22.289246],[113.9016328,22.2892834],[113.9016827,22.2893955],[113.9018228,22.2895357],[113.9020434,22.2895921],[113.9023141,22.2896671],[113.9026047,22.2897891],[113.9027749,22.2899479],[113.9027346,22.2900785],[113.902678,22.2901351],[113.9026039,22.290209],[113.9026037,22.290321],[113.9026434,22.290489],[113.902775,22.2907566],[113.9028317,22.2908306],[113.9028634,22.2908719],[113.9029536,22.2909],[113.903114,22.2909003],[113.9032644,22.2909565],[113.9033645,22.2911154],[113.9034059,22.2911605],[113.9035619,22.2912923],[113.9038027,22.2914529],[113.9040317,22.2917523],[113.9040669,22.2919246],[113.9040884,22.2920298],[113.9039846,22.2923285],[113.9039381,22.2926274],[113.9039731,22.2927028],[113.9040633,22.2927869],[113.9040932,22.292871],[113.904177,22.2929184],[113.9042202,22.2929429],[113.9044538,22.2931235],[113.9047045,22.2931613],[113.9048546,22.2933389],[113.9049249,22.2933389],[113.9050454,22.2932458],[113.9050255,22.2931712],[113.9049154,22.2930217],[113.9049557,22.2929751],[113.9054681,22.2925094],[113.9055585,22.2925095],[113.9057693,22.2923792],[113.9058997,22.2923514],[113.9061097,22.2926877],[113.9062502,22.292688],[113.9064709,22.2926324],[113.9066617,22.2925301],[113.9068424,22.2925024],[113.9070129,22.292512],[113.9071734,22.2925123],[113.907334,22.2924286],[113.9075952,22.2922517],[113.9077458,22.292112],[113.9078463,22.2920561],[113.9080569,22.2920565],[113.9081671,22.2921593],[113.9082673,22.2922062],[113.9082973,22.2921883],[113.9083523,22.2921556],[113.9084078,22.2921224]]]]},"properties":{"GmlID":"HKIAApproachArea.1","OBJNAM":"Airport Approach Restricted Area No. 7","INFORM":"No vessel which has a height exceeding 30 metres above sea level shall enter or pass through","OBJECTID":1}},{"type":"Feature","geometry":{"type":"MultiPolygon","coordinates":[[[[113.8966112,22.2996131],[113.8919062,22.298072],[113.8919062,22.298072],[113.8808334,22.2944445],[113.8808334,22.2944445],[113.8818692,22.2919584],[113.8818692,22.2919584],[113.8821093,22.291382],[113.8821093,22.291382],[113.8821593,22.2912622],[113.8821593,22.2912622],[113.8824471,22.2905716],[113.8824471,22.2905716],[113.8825417,22.2903447],[113.8825417,22.2903447],[113.8828783,22.2895365],[113.8828783,22.2895365],[113.8833231,22.2884692],[113.8833231,22.2884692],[113.8836111,22.2877778],[113.8836111,22.2877778],[113.8840607,22.2879197],[113.8840607,22.2879197],[113.8903344,22.2899012],[113.8903344,22.2899012],[113.8937577,22.2909822],[113.8937577,22.2909822],[113.8994445,22.2927778],[113.8994445,22.2927778],[113.9004796,22.2940719],[113.9004796,22.2940719],[113.9004143,22.2940517],[113.9004137,22.2940515],[113.9003214,22.2940231],[113.9002239,22.2939928],[113.9001217,22.2939613],[113.900015,22.2939282],[113.8999089,22.2938954],[113.8998082,22.2938645],[113.8997133,22.2938357],[113.8996241,22.2938088],[113.8995403,22.2937839],[113.8994624,22.293761],[113.89939,22.2937401],[113.8993232,22.2937212],[113.8992621,22.2937042],[113.8992067,22.2936892],[113.8991568,22.2936763],[113.8991127,22.2936653],[113.8990741,22.2936563],[113.8990412,22.2936492],[113.8990138,22.2936442],[113.8989922,22.2936411],[113.8982785,22.2936418],[113.8971075,22.2936428],[113.8963027,22.2936435],[113.8956272,22.2936576],[113.8953442,22.2936811],[113.8950567,22.2938232],[113.8948267,22.2939296],[113.8946157,22.294054],[113.8944622,22.2942141],[113.8943469,22.2943742],[113.8942317,22.2945166],[113.8940973,22.2947301],[113.894001,22.2949616],[113.893924,22.2951931],[113.8939059,22.2953902],[113.8939044,22.2954069],[113.8938847,22.2956562],[113.8939416,22.2959058],[113.8940177,22.2961731],[113.8940462,22.2962315],[113.8940551,22.2962495],[113.8941359,22.2964149],[113.8941439,22.2964299],[113.8941522,22.2964451],[113.8941607,22.2964602],[113.8941693,22.2964755],[113.8941781,22.2964909],[113.8941871,22.2965062],[113.8941962,22.2965215],[113.8942055,22.2965369],[113.8965005,22.2994715],[113.8966109,22.2996126],[113.8966112,22.2996131]]]]},"properties":{"GmlID":"HKIAApproachArea.2","OBJNAM":"Airport Approach Restricted Area No. 1","INFORM":"No vessel shall enter or pass through","OBJECTID":2}},{"type":"Feature","geometry":{"type":"MultiPolygon","coordinates":[[[[113.9012508,22.3163982],[113.9012311,22.316461],[113.9003524,22.3188212],[113.8947194,22.3169435],[113.8869445,22.3111111],[113.8866692,22.3110277],[113.8838236,22.3101655],[113.8808252,22.3092569],[113.8785148,22.3085567],[113.8777778,22.3083333],[113.8780375,22.30771],[113.8803251,22.3022199],[113.8805556,22.3016667],[113.881289,22.3018983],[113.8916569,22.3051725],[113.8963787,22.3066633],[113.8963318,22.3067841],[113.8963173,22.3068112],[113.8962848,22.3068721],[113.8962522,22.3069301],[113.8962142,22.306985],[113.8961708,22.3070364],[113.8961224,22.307084],[113.8960697,22.3071273],[113.8960129,22.3071658],[113.8959527,22.3071993],[113.8958892,22.3072276],[113.8958233,22.3072503],[113.8957555,22.3072674],[113.8947426,22.3072526],[113.894742,22.3072442],[113.8947398,22.3072361],[113.894736,22.3072284],[113.8947311,22.3072215],[113.8947248,22.3072155],[113.8947174,22.3072105],[113.8947092,22.3072068],[113.8947006,22.3072046],[113.8946916,22.3072037],[113.8914096,22.3071557],[113.8913163,22.3071576],[113.8912232,22.3071658],[113.891131,22.3071804],[113.8910403,22.3072012],[113.8909515,22.3072283],[113.890865,22.3072613],[113.8907814,22.3073001],[113.8907012,22.3073447],[113.8906246,22.3073946],[113.8905522,22.3074495],[113.8904843,22.3075094],[113.8904213,22.3075736],[113.8903636,22.307642],[113.8903115,22.3077143],[113.8902791,22.3077672],[113.8902652,22.3077899],[113.8902251,22.3078683],[113.8901912,22.3079494],[113.889884,22.3087745],[113.8898559,22.3088605],[113.8898401,22.3089268],[113.889835,22.3089482],[113.8898211,22.3090372],[113.8898146,22.3091268],[113.8898155,22.3092167],[113.8898237,22.3093062],[113.8898393,22.3093949],[113.889862,22.3094823],[113.8898919,22.3095678],[113.8899286,22.3096509],[113.889972,22.3097312],[113.8900219,22.3098081],[113.8900779,22.3098814],[113.8901397,22.3099504],[113.890207,22.3100149],[113.8902794,22.3100744],[113.8911754,22.3107564],[113.8945643,22.3133359],[113.8950972,22.3137149],[113.8951633,22.3137589],[113.8952322,22.313799],[113.8953037,22.3138347],[113.8953775,22.3138662],[113.8954535,22.3138933],[113.8959908,22.3140665],[113.9000244,22.3153666],[113.9007887,22.315613],[113.9008539,22.3156374],[113.9009162,22.3156676],[113.9009751,22.3157034],[113.9010299,22.3157444],[113.9010801,22.3157902],[113.9011252,22.3158403],[113.9011649,22.3158943],[113.9011986,22.3159517],[113.9012262,22.3160118],[113.9012472,22.3160743],[113.9012617,22.3161383],[113.9012693,22.3162033],[113.9012699,22.3162607],[113.90127,22.3162687],[113.9012638,22.3163339],[113.9012508,22.3163982]]],[[[113.9294108,22.3330717],[113.9269087,22.3398954],[113.9266667,22.3405555],[113.9256992,22.3402425],[113.8979977,22.3312755],[113.8964565,22.3307764],[113.8688782,22.3218432],[113.8683334,22.3216667],[113.8684786,22.3212309],[113.8708855,22.3140104],[113.8711111,22.3133334],[113.872039,22.3136304],[113.8990127,22.3222619],[113.898909,22.3225405],[113.8989612,22.3225573],[113.8989396,22.3226154],[113.8989134,22.322676],[113.8988809,22.322734],[113.8988425,22.3227888],[113.8987983,22.3228398],[113.8987491,22.3228865],[113.8986953,22.3229285],[113.8986372,22.3229654],[113.8985756,22.3229968],[113.8985109,22.3230224],[113.8984439,22.3230421],[113.8983751,22.3230555],[113.8983052,22.3230625],[113.8982348,22.3230632],[113.8981648,22.3230574],[113.8980957,22.3230453],[113.8980282,22.323027],[113.8937618,22.3216516],[113.8923324,22.3211908],[113.8824978,22.3180202],[113.8811013,22.31757],[113.879269,22.3169793],[113.8791759,22.3169529],[113.8790808,22.316933],[113.8789845,22.3169197],[113.8788873,22.3169132],[113.8787899,22.3169135],[113.8786929,22.3169205],[113.8785966,22.3169343],[113.8785017,22.3169547],[113.8784087,22.3169817],[113.8783181,22.3170151],[113.8782304,22.3170546],[113.8781463,22.3171001],[113.878066,22.3171514],[113.87799,22.3172081],[113.8779188,22.31727],[113.8778528,22.3173366],[113.8777923,22.3174076],[113.8777376,22.3174826],[113.8776892,22.3175613],[113.8776472,22.3176431],[113.8776119,22.3177275],[113.8766337,22.3203534],[113.8766053,22.32044],[113.8765839,22.3205284],[113.8765697,22.3206181],[113.8765627,22.3207085],[113.876563,22.3207991],[113.8765706,22.3208895],[113.8765854,22.320979],[113.8766072,22.3210673],[113.8766363,22.3211539],[113.8766721,22.3212381],[113.8767147,22.3213196],[113.8767636,22.321398],[113.8768187,22.3214727],[113.8768797,22.3215433],[113.8769462,22.3216097],[113.8769678,22.3216282],[113.8770177,22.3216711],[113.8770941,22.3217274],[113.8771747,22.3217782],[113.8772592,22.3218233],[113.8773471,22.3218624],[113.8774378,22.3218952],[113.8806344,22.322926],[113.8806981,22.3229497],[113.8807592,22.3229791],[113.8808169,22.3230138],[113.8808707,22.3230534],[113.8809203,22.3230977],[113.8809651,22.3231462],[113.8810252,22.3232129],[113.8810904,22.3232755],[113.8811602,22.3233336],[113.8812344,22.3233868],[113.8812499,22.3233965],[113.8813125,22.323435],[113.881394,22.3234778],[113.8814788,22.323515],[113.8815661,22.3235465],[113.8820788,22.3237118],[113.8825357,22.3238591],[113.884721,22.3245637],[113.8848105,22.3245893],[113.8849017,22.3246087],[113.8849943,22.324622],[113.8850877,22.3246292],[113.8851814,22.3246301],[113.8852749,22.3246246],[113.8853677,22.3246131],[113.8854594,22.3245952],[113.8855268,22.3245829],[113.8855952,22.3245766],[113.8856639,22.3245765],[113.8857322,22.3245824],[113.8857997,22.3245945],[113.8858656,22.3246125],[113.8977755,22.3284516],[113.8977574,22.3285003],[113.8987864,22.3288319],[113.8988045,22.3287834],[113.9083594,22.3318624],[113.9091397,22.3321139],[113.9092035,22.3321377],[113.9092645,22.3321671],[113.9093222,22.3322017],[113.9093761,22.3322414],[113.9094256,22.3322856],[113.9094704,22.3323341],[113.9095306,22.3324008],[113.9095958,22.3324635],[113.9096656,22.3325214],[113.9097399,22.3325747],[113.9098179,22.3326229],[113.9098996,22.3326656],[113.9099842,22.3327029],[113.9100716,22.3327343],[113.9132269,22.3337509],[113.9133165,22.3337765],[113.9134078,22.333796],[113.9135003,22.3338093],[113.9135937,22.3338164],[113.9136874,22.3338172],[113.9137808,22.3338118],[113.9138738,22.3338002],[113.9139654,22.3337823],[113.9140328,22.33377],[113.9141012,22.3337637],[113.9141699,22.3337636],[113.9142383,22.3337696],[113.9143057,22.3337816],[113.9143716,22.3337996],[113.9175687,22.3348296],[113.9176618,22.334856],[113.9177569,22.3348759],[113.9178532,22.3348891],[113.9179505,22.3348956],[113.9180479,22.3348953],[113.918145,22.3348882],[113.9182413,22.3348745],[113.9183362,22.334854],[113.9184292,22.334827],[113.9185197,22.3347936],[113.9186073,22.3347541],[113.9186915,22.3347084],[113.9187719,22.3346572],[113.9188478,22.3346005],[113.918919,22.3345385],[113.918985,22.334472],[113.9190455,22.3344009],[113.9191001,22.3343259],[113.9191485,22.3342472],[113.9191906,22.3341655],[113.9192258,22.334081],[113.9195022,22.3333386],[113.9195284,22.3332779],[113.9195609,22.3332198],[113.9195993,22.3331651],[113.9196434,22.3331141],[113.9196926,22.3330675],[113.9197465,22.3330255],[113.9198045,22.3329885],[113.9198662,22.3329571],[113.9199309,22.3329315],[113.9199979,22.3329118],[113.9200668,22.3328984],[113.9201366,22.3328914],[113.9202069,22.3328906],[113.920277,22.3328964],[113.9203461,22.3329085],[113.9204136,22.3329269],[113.9204227,22.3329299],[113.9205159,22.3329562],[113.9206109,22.3329761],[113.9207073,22.3329893],[113.9208045,22.3329958],[113.9209019,22.3329956],[113.920999,22.3329885],[113.9210953,22.3329747],[113.9211902,22.3329542],[113.9212832,22.3329272],[113.9213737,22.3328938],[113.9214613,22.3328543],[113.9215456,22.3328087],[113.9216259,22.3327574],[113.9217018,22.3327006],[113.921773,22.3326388],[113.921839,22.3325721],[113.9218995,22.3325011],[113.9219541,22.3324261],[113.9220025,22.3323474],[113.9220446,22.3322657],[113.9220799,22.3321812],[113.9228795,22.3300325],[113.9291136,22.3320275],[113.9297222,22.3322222],[113.9294108,22.3330717]]],[[[113.9459824,22.322817],[113.9459226,22.3221549],[113.9475,22.3227777],[113.9487319,22.3262271],[113.9488889,22.3266667],[113.9487371,22.3270917],[113.9476777,22.3300581],[113.9475001,22.3305556],[113.9468404,22.3303288],[113.9386111,22.3275001],[113.9363709,22.327448],[113.9346085,22.3274069],[113.9273372,22.3272379],[113.9308005,22.3262378],[113.9357851,22.3247985],[113.9358744,22.3247694],[113.9359613,22.3247343],[113.9360452,22.3246936],[113.9361258,22.3246473],[113.9362025,22.3245957],[113.9362752,22.3245392],[113.9363432,22.3244779],[113.9364064,22.3244122],[113.9364642,22.3243424],[113.9365165,22.324269],[113.936563,22.3241923],[113.9366035,22.3241126],[113.9366376,22.3240305],[113.93667,22.3239435],[113.9367313,22.3237788],[113.9370412,22.3229459],[113.9375605,22.32155],[113.9375793,22.3215098],[113.9376045,22.3214726],[113.9376355,22.3214396],[113.9376715,22.3214113],[113.9377119,22.3213885],[113.9377555,22.3213718],[113.9378038,22.3213616],[113.9378293,22.3213563],[113.9389626,22.3217263],[113.9395109,22.3218751],[113.9397717,22.3219078],[113.9436191,22.3226322],[113.943822,22.3229646],[113.9442191,22.323274],[113.944561,22.3235496],[113.9447008,22.323709],[113.9447786,22.323767],[113.9450122,22.323666],[113.945137,22.323478],[113.945355,22.3234494],[113.9456464,22.3233382],[113.9457402,22.3231701],[113.9456884,22.3229082],[113.9459824,22.322817]]]]},"properties":{"GmlID":"HKIAApproachArea.3","OBJNAM":"Airport Approach Restricted Area No. 3","INFORM":"No vessel shall enter or pass through","OBJECTID":3}},{"type":"Feature","geometry":{"type":"MultiPolygon","coordinates":[[[[113.9827547,22.3402672],[113.9829088,22.3403318],[113.983039,22.3403909],[113.9831486,22.3404432],[113.9832226,22.3404746],[113.9832794,22.3404989],[113.9833627,22.3404749],[113.9833934,22.3404018],[113.9834394,22.3402754],[113.9834509,22.340232],[113.9834841,22.3401055],[113.9835014,22.3399574],[113.9835378,22.3397529],[113.9835633,22.3395601],[113.9835749,22.3394966],[113.9835799,22.3394682],[113.9836034,22.3394698],[113.9837273,22.3394782],[113.9837353,22.3393772],[113.9836152,22.339369],[113.983598,22.3393678],[113.9836213,22.3392174],[113.9836232,22.3391141],[113.9836178,22.3389434],[113.9835934,22.3387718],[113.9835928,22.3387503],[113.9835897,22.3386227],[113.9835834,22.3385845],[113.9835699,22.338546],[113.9835524,22.3385086],[113.9835327,22.3384756],[113.983499,22.33843],[113.9834535,22.3383677],[113.9834406,22.33835],[113.9833647,22.338187],[113.9833106,22.3380456],[113.983296,22.3380125],[113.9832908,22.3380004],[113.9832394,22.3378829],[113.9832164,22.3378053],[113.9831992,22.3377468],[113.9831902,22.337716],[113.9831375,22.3375904],[113.9830545,22.3374156],[113.9830466,22.3373938],[113.9829965,22.3372546],[113.9829655,22.3371838],[113.9829306,22.3371043],[113.9828854,22.3369421],[113.9828375,22.3367834],[113.9827735,22.3366166],[113.9827046,22.3364642],[113.9826243,22.3363058],[113.9824885,22.3361032],[113.9824006,22.3359782],[113.9822941,22.3358201],[113.9821973,22.3356895],[113.9820569,22.3355291],[113.9818399,22.3352844],[113.9817144,22.3351454],[113.9815967,22.3350286],[113.9814915,22.3348711],[113.9813794,22.3346834],[113.9812734,22.3345069],[113.9811832,22.3343519],[113.9811211,22.3342068],[113.9811036,22.3341668],[113.9811036,22.3341668],[113.9858333,22.3341667],[113.9858333,22.3341667],[113.9858333,22.3413889],[113.9858333,22.3413889],[113.97805,22.3413834],[113.97805,22.3413834],[113.9780556,22.3341667],[113.9780556,22.3341667],[113.9804008,22.3341667],[113.9804008,22.3341667],[113.9803691,22.3342823],[113.9803691,22.3342824],[113.9803623,22.3343304],[113.9803325,22.3344832],[113.9803107,22.334617],[113.9802822,22.3347418],[113.9802841,22.3348366],[113.9802653,22.3349644],[113.9802875,22.3351461],[113.9803119,22.3352991],[113.9803514,22.3354939],[113.9803724,22.3356347],[113.9804239,22.335812],[113.9805023,22.3360474],[113.9805693,22.3362433],[113.9806024,22.3363579],[113.980637,22.3364778],[113.9807059,22.3366689],[113.9807624,22.3368315],[113.980787,22.3369364],[113.9808011,22.3369969],[113.9808701,22.3371551],[113.9809337,22.3373239],[113.9810239,22.3374827],[113.981098,22.3376733],[113.9811661,22.3378473],[113.9812026,22.3380202],[113.9812023,22.3380245],[113.9811935,22.3381505],[113.9812714,22.3381911],[113.9812747,22.3381929],[113.9813004,22.3382078],[113.981369,22.338248],[113.9814848,22.338369],[113.9815453,22.3384939],[113.9815605,22.3385254],[113.9816197,22.3386704],[113.9816237,22.3386802],[113.9816317,22.3387003],[113.9816506,22.3387478],[113.98168,22.3388217],[113.9817185,22.3389548],[113.9817676,22.339106],[113.9818513,22.3392512],[113.981908,22.3393836],[113.982016,22.3395219],[113.9821297,22.3396555],[113.9822165,22.3397948],[113.9822908,22.3399334],[113.9824109,22.3400746],[113.9825466,22.3401546],[113.9825358,22.3401679],[113.9824405,22.3402854],[113.9823891,22.3402492],[113.9823856,22.3402536],[113.9823391,22.3403109],[113.9823263,22.3403266],[113.9823854,22.3403681],[113.9824702,22.3404277],[113.9824806,22.3404148],[113.9825333,22.34035],[113.9824802,22.3403129],[113.9825702,22.340202],[113.9825881,22.3401801],[113.9826323,22.3402072],[113.9826894,22.3402447],[113.9827547,22.3402672]],[[113.9810083,22.3381286],[113.9809967,22.3381251],[113.980984,22.3381215],[113.9809772,22.3381219],[113.9809705,22.3381232],[113.9809617,22.3381296],[113.980955,22.3381376],[113.9809443,22.3381502],[113.9809308,22.3381593],[113.9809163,22.3381663],[113.9809065,22.3381753],[113.9808958,22.3381943],[113.9808919,22.3382023],[113.9808929,22.3382113],[113.9808948,22.3382212],[113.9808996,22.3382276],[113.9809093,22.3382302],[113.9809238,22.3382293],[113.9809364,22.3382303],[113.9809461,22.338233],[113.9809538,22.3382402],[113.9809616,22.3382474],[113.9809682,22.33826],[113.9809751,22.3382717],[113.9809828,22.3382825],[113.9810013,22.3382925],[113.9810118,22.3382961],[113.9810274,22.3383024],[113.981037,22.3383016],[113.9810468,22.3382943],[113.9810554,22.338288],[113.9810739,22.3382835],[113.9810826,22.3382782],[113.9810845,22.3382692],[113.9810825,22.3382547],[113.9810835,22.3382457],[113.9810836,22.3382376],[113.9810759,22.338225],[113.9810643,22.3382071],[113.9810556,22.3381907],[113.9810479,22.3381736],[113.9810401,22.3381592],[113.9810304,22.3381398],[113.9810208,22.3381323],[113.9810083,22.3381286]]]]},"properties":{"GmlID":"HKIAApproachArea.4","OBJNAM":"Airport Approach Restricted Area No. 4","INFORM":"No vessel shall enter or pass through","OBJECTID":4}},{"type":"Feature","geometry":{"type":"MultiPolygon","coordinates":[[[[113.947325,22.3155595],[113.9472223,22.3158333],[113.9472223,22.3158333],[113.9425485,22.3144588],[113.9425485,22.3144588],[113.9425483,22.3144588],[113.9425483,22.3144588],[113.9424497,22.3143238],[113.9423627,22.3142061],[113.9427452,22.3139793],[113.9429563,22.3139131],[113.9431855,22.313899],[113.9432766,22.3139002],[113.9434189,22.3139314],[113.9462206,22.3144581],[113.9466463,22.3146114],[113.946793,22.3147113],[113.9467659,22.3148855],[113.9470011,22.315109],[113.9472434,22.3153854],[113.947325,22.3155595]]],[[[113.9405895,22.3062008],[113.9467458,22.3082001],[113.9467458,22.3082001],[113.9487822,22.3088614],[113.9487822,22.3088614],[113.9497223,22.3091667],[113.9497223,22.3091667],[113.9493736,22.3100966],[113.9493736,22.3100966],[113.9485223,22.3123667],[113.9485223,22.3123667],[113.9481072,22.3134735],[113.9481072,22.3134735],[113.9479613,22.3134881],[113.9474413,22.3134492],[113.9472206,22.3133971],[113.9470456,22.3133892],[113.9469944,22.3134364],[113.9462853,22.313118],[113.9457476,22.3129644],[113.9445931,22.3127443],[113.9438298,22.3125969],[113.9430556,22.3124501],[113.9429025,22.3124645],[113.9426034,22.3123724],[113.9423272,22.3122566],[113.9417421,22.3119307],[113.9415355,22.311764],[113.9413479,22.311579],[113.9410096,22.311186],[113.9408072,22.3108841],[113.9405096,22.310481],[113.9405096,22.310481],[113.9406328,22.310526],[113.9406892,22.310543],[113.9414334,22.3107833],[113.9418167,22.30975],[113.9400778,22.3091931],[113.9399607,22.3091556],[113.9398626,22.3091242],[113.9398626,22.3091242],[113.9397661,22.308729],[113.9397759,22.3086414],[113.9400212,22.3085572],[113.940069,22.3081136],[113.9401273,22.3074277],[113.9402199,22.3071146],[113.9405895,22.3062008]]]]},"properties":{"GmlID":"HKIAApproachArea.5","OBJNAM":"Airport Approach Restricted Area No. 5","INFORM":"No vessel which has a height exceeding 15 metres above sea level shall enter or pass through","OBJECTID":5}},{"type":"Feature","geometry":{"type":"MultiPolygon","coordinates":[[[[113.9780556,22.3444444],[113.97805,22.3413834],[113.97805,22.3413834],[113.9858333,22.3413889],[113.9858333,22.3413889],[113.9858333,22.3444445],[113.9858333,22.3444445],[113.9780556,22.3444444]]],[[[113.9804008,22.3341667],[113.9780556,22.3341667],[113.9780556,22.3341667],[113.9780556,22.3308333],[113.9780556,22.3308333],[113.9858333,22.3308333],[113.9858333,22.3308333],[113.9858333,22.3341667],[113.9858333,22.3341667],[113.9811036,22.3341668],[113.9811036,22.3341668],[113.9810479,22.3340391],[113.9809342,22.3339226],[113.9807485,22.333857],[113.980699,22.333867],[113.980583,22.3338903],[113.9804173,22.3341066],[113.9804008,22.3341667]]]]},"properties":{"GmlID":"HKIAApproachArea.6","OBJNAM":"Airport Approach Restricted Area No. 6","INFORM":"No vessel which has a height exceeding 15 metres above sea level shall enter or pass through","OBJECTID":6}},{"type":"Feature","geometry":{"type":"MultiPolygon","coordinates":[[[[113.8781946,22.3795874],[113.8781432,22.3796111],[113.8781432,22.3796111],[113.8782466,22.3794802],[113.8784177,22.3792635],[113.8786186,22.379009],[113.8816604,22.3751561],[113.8818552,22.3749093],[113.8822222,22.3744444],[113.8823409,22.3742939],[113.8823439,22.3742952],[113.8823529,22.3742989],[113.8824714,22.3745206],[113.8824511,22.3747605],[113.882391,22.3750003],[113.8824302,22.3752219],[113.8825488,22.3754989],[113.882568,22.3758128],[113.8825478,22.3759788],[113.8824678,22.3762187],[113.8825071,22.3764218],[113.8824865,22.3767723],[113.882287,22.3772519],[113.8820081,22.3776574],[113.8816104,22.3780443],[113.8813717,22.3782284],[113.8812126,22.3783758],[113.8810335,22.3785969],[113.8804969,22.3788359],[113.8802983,22.3789277],[113.8802185,22.3790568],[113.8799603,22.3791117],[113.8796426,22.3791296],[113.8792254,22.3793134],[113.878709,22.3794416],[113.8782323,22.37957],[113.8781946,22.3795874]]],[[[113.8780388,22.3820551],[113.8781756,22.3819755],[113.8781822,22.38197],[113.8781932,22.3819613],[113.878205,22.3819524],[113.8782177,22.3819432],[113.8782312,22.3819339],[113.8782454,22.3819243],[113.8782605,22.3819146],[113.8782764,22.3819045],[113.8782931,22.3818943],[113.878304,22.3818877],[113.8783106,22.3818838],[113.878329,22.3818731],[113.8783481,22.3818622],[113.8783681,22.3818511],[113.8783718,22.3818491],[113.8786046,22.3818039],[113.8789222,22.381823],[113.8790849,22.3818656],[113.8791802,22.3818973],[113.8795177,22.3818795],[113.8797956,22.38188],[113.8799661,22.3817328],[113.8799861,22.3817101],[113.8800137,22.3816782],[113.8800358,22.3816526],[113.880069,22.3816118],[113.8800938,22.3815696],[113.8801173,22.3815133],[113.8801254,22.3814974],[113.880138,22.3814725],[113.8801657,22.3814149],[113.880185,22.3813714],[113.8802031,22.3813165],[113.880214,22.3812831],[113.8802194,22.3812675],[113.8802737,22.3810872],[113.8803932,22.3808843],[113.8805722,22.3807556],[113.8806718,22.3806265],[113.880712,22.3804236],[113.8809107,22.3803132],[113.881129,22.3803136],[113.8811687,22.3803321],[113.8811683,22.3804982],[113.8815056,22.3806096],[113.8819619,22.3807397],[113.8822398,22.3807401],[113.8824583,22.3807037],[113.8826571,22.3805564],[113.8828958,22.3803722],[113.8831144,22.3802435],[113.8832738,22.3801884],[113.8835113,22.3802811],[113.8837893,22.3803001],[113.8841069,22.3802637],[113.8845638,22.3801354],[113.8847626,22.379988],[113.884922,22.3797669],[113.8850415,22.3795456],[113.8850521,22.3794812],[113.8850551,22.3794731],[113.8850623,22.3794528],[113.8850694,22.379432],[113.8850766,22.3794107],[113.8850796,22.3794016],[113.8850837,22.3793889],[113.8850905,22.3793666],[113.8850966,22.3793445],[113.8851018,22.3793225],[113.8851063,22.3793005],[113.8851099,22.3792786],[113.885113,22.3792568],[113.8851152,22.379235],[113.8851166,22.3792132],[113.8851173,22.3791915],[113.8851173,22.3791888],[113.8851172,22.3791699],[113.8851163,22.3791483],[113.8851147,22.3791268],[113.8851124,22.3791053],[113.8851093,22.3790839],[113.8851054,22.3790625],[113.8851007,22.3790412],[113.8850954,22.3790199],[113.8850899,22.3789983],[113.8850837,22.3789763],[113.8850773,22.3789541],[113.8850704,22.3789316],[113.8850631,22.3789089],[113.8850553,22.3788859],[113.8850473,22.3788627],[113.8850387,22.3788391],[113.8850298,22.3788154],[113.8850204,22.3787912],[113.8850106,22.378767],[113.8850004,22.3787424],[113.8849898,22.3787176],[113.8849788,22.3786924],[113.8849674,22.3786671],[113.8849554,22.3786414],[113.8849431,22.3786151],[113.8849301,22.3785885],[113.8849166,22.3785615],[113.8849025,22.3785339],[113.8848879,22.378506],[113.8848728,22.3784775],[113.8848571,22.3784486],[113.8848409,22.3784194],[113.8848241,22.3783897],[113.8848069,22.3783596],[113.884789,22.3783289],[113.8847707,22.3782978],[113.8847632,22.3782853],[113.8847517,22.3782663],[113.8847323,22.3782344],[113.8847123,22.3782019],[113.8846903,22.378169],[113.8846646,22.3781352],[113.8846353,22.3781007],[113.8846025,22.3780654],[113.8845878,22.378051],[113.8844627,22.3779502],[113.8843106,22.3778278],[113.8841124,22.3776798],[113.8838944,22.3775132],[113.8837558,22.3773284],[113.8837365,22.3770884],[113.8838164,22.3768671],[113.8839491,22.3767442],[113.88404,22.3766632],[113.8841356,22.3765928],[113.8842245,22.3765561],[113.884297,22.3765285],[113.8843464,22.376504],[113.8844486,22.3764151],[113.884554,22.3764151],[113.8845574,22.3762345],[113.8844618,22.3762345],[113.8844585,22.3762651],[113.8843794,22.3763233],[113.8843201,22.376357],[113.8842904,22.3763479],[113.8842575,22.3762774],[113.8842673,22.3762192],[113.8842245,22.3761058],[113.8841487,22.376066],[113.8840725,22.3760108],[113.8840564,22.3760001],[113.8836996,22.3757779],[113.8835213,22.3756115],[113.8832437,22.3754449],[113.8830453,22.3753891],[113.8829265,22.3752412],[113.882927,22.3749644],[113.8828881,22.3746506],[113.882948,22.3744846],[113.8830079,22.374337],[113.883147,22.374245],[113.8833657,22.3740793],[113.8834851,22.3739503],[113.8834853,22.373858],[113.8834657,22.3737473],[113.8835849,22.3736552],[113.8837437,22.3736555],[113.8839819,22.3736928],[113.8841605,22.373767],[113.8844184,22.3737859],[113.8845971,22.3737493],[113.8846078,22.3737103],[113.8846171,22.3736755],[113.8845381,22.3735277],[113.8844393,22.3733245],[113.8847223,22.3733333],[113.8862541,22.3757588],[113.886577,22.3762701],[113.886715,22.3764886],[113.8879023,22.3783685],[113.8880555,22.3786111],[113.8876406,22.3793816],[113.8872469,22.380113],[113.8861112,22.3822222],[113.877937,22.3822222],[113.877859,22.3822222],[113.8778497,22.3820794],[113.8780284,22.3820612],[113.8780388,22.3820551]]]]},"properties":{"GmlID":"HKIAApproachArea.7","OBJNAM":"Airport Approach Restricted Area No. 8","INFORM":"No vessel which has a height exceeding 30 metres above sea level shall enter or pass through","OBJECTID":7}},{"type":"Feature","geometry":{"type":"MultiPolygon","coordinates":[[[[113.9398626,22.3091242],[113.9399607,22.3091556],[113.9400778,22.3091931],[113.9418167,22.30975],[113.9414334,22.3107833],[113.9406892,22.310543],[113.9406328,22.310526],[113.9405096,22.310481],[113.9405096,22.310481],[113.9403591,22.3102771],[113.9401687,22.3099856],[113.9398831,22.3092079],[113.9398626,22.3091242]]]]},"properties":{"GmlID":"HKIAApproachArea.8","OBJNAM":"Airport Approach Restricted Area No. 2","INFORM":"No vessel shall enter or pass through","OBJECTID":8}}]}