{"type":"FeatureCollection","features":[{"type":"Feature","geometry":{"type":"Point","coordinates":[114.2586497,22.2070472]},"properties":{"GmlID":"MAR_PARK.1","OBJECTID":1,"NAME_EN":"Cape D'Aguilar Marine Reserve","NAME_TC":"鶴咀海岸保護區"}},{"type":"Feature","geometry":{"type":"Point","coordinates":[113.9204992,22.172151]},"properties":{"GmlID":"MAR_PARK.2","OBJECTID":2,"NAME_EN":"South Lantau Marine Park","NAME_TC":"南大嶼海岸公園"}},{"type":"Feature","geometry":{"type":"Point","coordinates":[113.8590775,22.2015257]},"properties":{"GmlID":"MAR_PARK.3","OBJECTID":3,"NAME_EN":"Southwest Lantau Marine Park","NAME_TC":"大嶼山西南海岸公園"}},{"type":"Feature","geometry":{"type":"Point","coordinates":[113.8800699,22.3729592]},"properties":{"GmlID":"MAR_PARK.4","OBJECTID":4,"NAME_EN":"Sha Chau & Lung Kwu Chau Marine Park","NAME_TC":"沙洲及龍鼓洲海岸公園"}},{"type":"Feature","geometry":{"type":"Point","coordinates":[114.4348067,22.5436998]},"properties":{"GmlID":"MAR_PARK.5","OBJECTID":5,"NAME_EN":"Tung Ping Chau Marine Park","NAME_TC":"東平洲海岸公園"}},{"type":"Feature","geometry":{"type":"Point","coordinates":[114.33508,22.4724889]},"properties":{"GmlID":"MAR_PARK.6","OBJECTID":6,"NAME_EN":"Hoi Ha Wan Marine Park","NAME_TC":"海下灣海岸公園"}},{"type":"Feature","geometry":{"type":"Point","coordinates":[114.2908295,22.5185451]},"properties":{"GmlID":"MAR_PARK.7","OBJECTID":7,"NAME_EN":"Yan Chau Tong Marine Park","NAME_TC":"印洲塘海岸公園"}},{"type":"Feature","geometry":{"type":"Point","coordinates":[113.9751128,22.3329071]},"properties":{"GmlID":"MAR_PARK.8","OBJECTID":8,"NAME_EN":"The Brothers Marine Park","NAME_TC":"大小磨刀海岸公園"}},{"type":"Feature","geometry":{"type":"Point","coordinates":[113.8951765,22.3333155]},"properties":{"GmlID":"MAR_PARK.9","OBJECTID":9,"NAME_EN":"North Lantau Marine Park","NAME_TC":"北大嶼海岸公園"}}]}