{"type":"FeatureCollection","features":[{"type":"Feature","geometry":{"type":"MultiPolygon","coordinates":[[[[114.129681,22.285893],[114.129962,22.286142],[114.129627,22.286469],[114.129346,22.286219],[114.129681,22.285893]]]]},"properties":{"GmlID":"PCWA_BerthVacancy.1","berth_id":"WD-01","Vacant":"N","OBJECTID":1}},{"type":"Feature","geometry":{"type":"MultiPolygon","coordinates":[[[[114.129627,22.286469],[114.129962,22.286142],[114.130636,22.28674],[114.130301,22.287067],[114.129627,22.286469]]]]},"properties":{"GmlID":"PCWA_BerthVacancy.2","berth_id":"WD-02","Vacant":"N","OBJECTID":2}},{"type":"Feature","geometry":{"type":"MultiPolygon","coordinates":[[[[114.130636,22.28674],[114.130973,22.287039],[114.130638,22.287366],[114.130301,22.287067],[114.130636,22.28674]]]]},"properties":{"GmlID":"PCWA_BerthVacancy.3","berth_id":"WD-03","Vacant":"Y","OBJECTID":3}},{"type":"Feature","geometry":{"type":"MultiPolygon","coordinates":[[[[114.130638,22.287366],[114.130973,22.287039],[114.131254,22.287289],[114.130919,22.287615],[114.130638,22.287366]]]]},"properties":{"GmlID":"PCWA_BerthVacancy.4","berth_id":"WD-04","Vacant":"N","OBJECTID":4}},{"type":"Feature","geometry":{"type":"MultiPolygon","coordinates":[[[[114.131254,22.287289],[114.131535,22.287538],[114.1312,22.287865],[114.130919,22.287615],[114.131254,22.287289]]]]},"properties":{"GmlID":"PCWA_BerthVacancy.5","berth_id":"WD-05","Vacant":"N","OBJECTID":5}},{"type":"Feature","geometry":{"type":"MultiPolygon","coordinates":[[[[114.1312,22.287865],[114.131535,22.287538],[114.131816,22.287787],[114.131481,22.288114],[114.1312,22.287865]]]]},"properties":{"GmlID":"PCWA_BerthVacancy.6","berth_id":"WD-06","Vacant":"N","OBJECTID":6}},{"type":"Feature","geometry":{"type":"MultiPolygon","coordinates":[[[[114.131816,22.287787],[114.132041,22.287986],[114.131706,22.288313],[114.131481,22.288114],[114.131816,22.287787]]]]},"properties":{"GmlID":"PCWA_BerthVacancy.7","berth_id":"WD-07","Vacant":"Y","OBJECTID":7}},{"type":"Feature","geometry":{"type":"MultiPolygon","coordinates":[[[[114.131706,22.288313],[114.132041,22.287986],[114.132321,22.288236],[114.131987,22.288563],[114.131706,22.288313]]]]},"properties":{"GmlID":"PCWA_BerthVacancy.8","berth_id":"WD-08","Vacant":"Y","OBJECTID":8}},{"type":"Feature","geometry":{"type":"MultiPolygon","coordinates":[[[[114.132339,22.288233],[114.132722,22.288177],[114.132797,22.288622],[114.132413,22.288677],[114.132339,22.288233]]]]},"properties":{"GmlID":"PCWA_BerthVacancy.9","berth_id":"WD-09","Vacant":"Y","OBJECTID":9}},{"type":"Feature","geometry":{"type":"MultiPolygon","coordinates":[[[[114.132797,22.288622],[114.132722,22.288177],[114.133413,22.288077],[114.133487,22.288522],[114.132797,22.288622]]]]},"properties":{"GmlID":"PCWA_BerthVacancy.10","berth_id":"WD-10","Vacant":"Y","OBJECTID":10}},{"type":"Feature","geometry":{"type":"MultiPolygon","coordinates":[[[[114.133413,22.288077],[114.133911,22.288005],[114.133986,22.28845],[114.133487,22.288522],[114.133413,22.288077]]]]},"properties":{"GmlID":"PCWA_BerthVacancy.11","berth_id":"WD-11","Vacant":"N","OBJECTID":11}},{"type":"Feature","geometry":{"type":"MultiPolygon","coordinates":[[[[114.134677,22.288069],[114.134576,22.288417],[114.134201,22.288323],[114.134302,22.287974],[114.134677,22.288069]]]]},"properties":{"GmlID":"PCWA_BerthVacancy.12","berth_id":"WD-12","Vacant":"Y","OBJECTID":12}},{"type":"Feature","geometry":{"type":"MultiPolygon","coordinates":[[[[114.134295,22.288347],[114.134576,22.288417],[114.134556,22.288487],[114.134275,22.288417],[114.134295,22.288347]]]]},"properties":{"GmlID":"PCWA_BerthVacancy.13","berth_id":"WD-13","Vacant":"N","OBJECTID":13}},{"type":"Feature","geometry":{"type":"MultiPolygon","coordinates":[[[[114.134556,22.288487],[114.134536,22.288557],[114.134255,22.288486],[114.134275,22.288417],[114.134556,22.288487]]]]},"properties":{"GmlID":"PCWA_BerthVacancy.14","berth_id":"WD-14","Vacant":"N","OBJECTID":14}},{"type":"Feature","geometry":{"type":"MultiPolygon","coordinates":[[[[114.134255,22.288486],[114.134536,22.288557],[114.134515,22.288627],[114.134234,22.288556],[114.134255,22.288486]]]]},"properties":{"GmlID":"PCWA_BerthVacancy.15","berth_id":"WD-15","Vacant":"N","OBJECTID":15}},{"type":"Feature","geometry":{"type":"MultiPolygon","coordinates":[[[[114.134515,22.288627],[114.134495,22.288696],[114.134214,22.288626],[114.134234,22.288556],[114.134515,22.288627]]]]},"properties":{"GmlID":"PCWA_BerthVacancy.16","berth_id":"WD-16","Vacant":"N","OBJECTID":16}},{"type":"Feature","geometry":{"type":"MultiPolygon","coordinates":[[[[114.134214,22.288626],[114.134495,22.288696],[114.134475,22.288766],[114.134194,22.288696],[114.134214,22.288626]]]]},"properties":{"GmlID":"PCWA_BerthVacancy.17","berth_id":"WD-17","Vacant":"N","OBJECTID":17}},{"type":"Feature","geometry":{"type":"MultiPolygon","coordinates":[[[[114.134475,22.288766],[114.134455,22.288836],[114.134174,22.288765],[114.134194,22.288696],[114.134475,22.288766]]]]},"properties":{"GmlID":"PCWA_BerthVacancy.18","berth_id":"WD-18","Vacant":"N","OBJECTID":18}},{"type":"Feature","geometry":{"type":"MultiPolygon","coordinates":[[[[114.134099,22.28889],[114.133638,22.288957],[114.133564,22.288511],[114.134024,22.288444],[114.134099,22.28889]]]]},"properties":{"GmlID":"PCWA_BerthVacancy.19","berth_id":"WD-19","Vacant":"Y","OBJECTID":19}},{"type":"Feature","geometry":{"type":"MultiPolygon","coordinates":[[[[114.133564,22.288511],[114.133638,22.288957],[114.133255,22.289012],[114.13318,22.288567],[114.133564,22.288511]]]]},"properties":{"GmlID":"PCWA_BerthVacancy.20","berth_id":"WD-20","Vacant":"N","OBJECTID":20}},{"type":"Feature","geometry":{"type":"MultiPolygon","coordinates":[[[[114.133255,22.289012],[114.132871,22.289068],[114.132797,22.288622],[114.13318,22.288567],[114.133255,22.289012]]]]},"properties":{"GmlID":"PCWA_BerthVacancy.21","berth_id":"WD-21","Vacant":"N","OBJECTID":21}},{"type":"Feature","geometry":{"type":"MultiPolygon","coordinates":[[[[114.132797,22.288622],[114.132871,22.289068],[114.132411,22.289135],[114.132337,22.288689],[114.132797,22.288622]]]]},"properties":{"GmlID":"PCWA_BerthVacancy.22","berth_id":"WD-22","Vacant":"N","OBJECTID":22}},{"type":"Feature","geometry":{"type":"MultiPolygon","coordinates":[[[[114.132411,22.289135],[114.131912,22.289207],[114.131838,22.288762],[114.132337,22.288689],[114.132411,22.289135]]]]},"properties":{"GmlID":"PCWA_BerthVacancy.23","berth_id":"WD-23","Vacant":"N","OBJECTID":23}},{"type":"Feature","geometry":{"type":"MultiPolygon","coordinates":[[[[114.243112,22.271348],[114.242911,22.271128],[114.243206,22.270893],[114.243407,22.271113],[114.243112,22.271348]]]]},"properties":{"GmlID":"PCWA_BerthVacancy.24","berth_id":"CW-01","Vacant":"Y","OBJECTID":24}},{"type":"Feature","geometry":{"type":"MultiPolygon","coordinates":[[[[114.243206,22.270893],[114.242911,22.271128],[114.242709,22.270908],[114.243004,22.270674],[114.243206,22.270893]]]]},"properties":{"GmlID":"PCWA_BerthVacancy.25","berth_id":"CW-02","Vacant":"N","OBJECTID":25}},{"type":"Feature","geometry":{"type":"MultiPolygon","coordinates":[[[[114.242709,22.270908],[114.242508,22.270688],[114.242803,22.270454],[114.243004,22.270674],[114.242709,22.270908]]]]},"properties":{"GmlID":"PCWA_BerthVacancy.26","berth_id":"CW-03","Vacant":"Y","OBJECTID":26}},{"type":"Feature","geometry":{"type":"MultiPolygon","coordinates":[[[[114.242803,22.270454],[114.242508,22.270688],[114.242054,22.270193],[114.24235,22.269959],[114.242803,22.270454]]]]},"properties":{"GmlID":"PCWA_BerthVacancy.27","berth_id":"CW-04P","Vacant":"N","OBJECTID":27}},{"type":"Feature","geometry":{"type":"MultiPolygon","coordinates":[[[[114.242054,22.270193],[114.241752,22.269863],[114.242048,22.269629],[114.24235,22.269959],[114.242054,22.270193]]]]},"properties":{"GmlID":"PCWA_BerthVacancy.28","berth_id":"CW-05","Vacant":"Y","OBJECTID":28}},{"type":"Feature","geometry":{"type":"MultiPolygon","coordinates":[[[[114.242078,22.269481],[114.242268,22.269253],[114.242575,22.269474],[114.242385,22.269702],[114.242078,22.269481]]]]},"properties":{"GmlID":"PCWA_BerthVacancy.29","berth_id":"CW-06","Vacant":"Y","OBJECTID":29}},{"type":"Feature","geometry":{"type":"MultiPolygon","coordinates":[[[[114.242575,22.269474],[114.242268,22.269253],[114.242458,22.269024],[114.242765,22.269245],[114.242575,22.269474]]]]},"properties":{"GmlID":"PCWA_BerthVacancy.30","berth_id":"CW-07","Vacant":"Y","OBJECTID":30}},{"type":"Feature","geometry":{"type":"MultiPolygon","coordinates":[[[[114.242458,22.269024],[114.242649,22.268795],[114.242955,22.269016],[114.242765,22.269245],[114.242458,22.269024]]]]},"properties":{"GmlID":"PCWA_BerthVacancy.31","berth_id":"CW-08","Vacant":"N","OBJECTID":31}},{"type":"Feature","geometry":{"type":"MultiPolygon","coordinates":[[[[114.242955,22.269016],[114.242649,22.268795],[114.242839,22.268567],[114.243145,22.268788],[114.242955,22.269016]]]]},"properties":{"GmlID":"PCWA_BerthVacancy.32","berth_id":"CW-09","Vacant":"Y","OBJECTID":32}},{"type":"Feature","geometry":{"type":"MultiPolygon","coordinates":[[[[114.242839,22.268567],[114.243124,22.268224],[114.24343,22.268445],[114.243145,22.268788],[114.242839,22.268567]]]]},"properties":{"GmlID":"PCWA_BerthVacancy.33","berth_id":"CW-10","Vacant":"Y","OBJECTID":33}},{"type":"Feature","geometry":{"type":"MultiPolygon","coordinates":[[[[114.243773,22.268175],[114.2442,22.268488],[114.24396,22.268772],[114.243533,22.268459],[114.243773,22.268175]]]]},"properties":{"GmlID":"PCWA_BerthVacancy.34","berth_id":"CW-11","Vacant":"Y","OBJECTID":34}},{"type":"Feature","geometry":{"type":"MultiPolygon","coordinates":[[[[114.24396,22.268772],[114.2442,22.268488],[114.244444,22.268667],[114.244203,22.268951],[114.24396,22.268772]]]]},"properties":{"GmlID":"PCWA_BerthVacancy.35","berth_id":"CW-12","Vacant":"Y","OBJECTID":35}},{"type":"Feature","geometry":{"type":"MultiPolygon","coordinates":[[[[114.244444,22.268667],[114.244718,22.268868],[114.244478,22.269152],[114.244203,22.268951],[114.244444,22.268667]]]]},"properties":{"GmlID":"PCWA_BerthVacancy.36","berth_id":"CW-13P","Vacant":"N","OBJECTID":36}},{"type":"Feature","geometry":{"type":"MultiPolygon","coordinates":[[[[114.244478,22.269152],[114.244718,22.268868],[114.244962,22.269047],[114.244722,22.269331],[114.244478,22.269152]]]]},"properties":{"GmlID":"PCWA_BerthVacancy.37","berth_id":"CW-14","Vacant":"Y","OBJECTID":37}},{"type":"Feature","geometry":{"type":"MultiPolygon","coordinates":[[[[114.159438,22.315525],[114.159438,22.315218],[114.159923,22.315218],[114.159923,22.315525],[114.159438,22.315525]]]]},"properties":{"GmlID":"PCWA_BerthVacancy.38","berth_id":"NY-01","Vacant":"N","OBJECTID":38}},{"type":"Feature","geometry":{"type":"MultiPolygon","coordinates":[[[[114.159923,22.315218],[114.159438,22.315218],[114.159438,22.314947],[114.159923,22.314947],[114.159923,22.315218]]]]},"properties":{"GmlID":"PCWA_BerthVacancy.39","berth_id":"NY-02","Vacant":"N","OBJECTID":39}},{"type":"Feature","geometry":{"type":"MultiPolygon","coordinates":[[[[114.159438,22.314947],[114.159438,22.314695],[114.159923,22.314694],[114.159923,22.314947],[114.159438,22.314947]]]]},"properties":{"GmlID":"PCWA_BerthVacancy.40","berth_id":"NY-03","Vacant":"N","OBJECTID":40}},{"type":"Feature","geometry":{"type":"MultiPolygon","coordinates":[[[[114.159923,22.314694],[114.159438,22.314695],[114.159438,22.314406],[114.159923,22.314405],[114.159923,22.314694]]]]},"properties":{"GmlID":"PCWA_BerthVacancy.41","berth_id":"NY-04","Vacant":"N","OBJECTID":41}},{"type":"Feature","geometry":{"type":"MultiPolygon","coordinates":[[[[114.159438,22.314406],[114.159438,22.313719],[114.159923,22.313719],[114.159923,22.314405],[114.159438,22.314406]]]]},"properties":{"GmlID":"PCWA_BerthVacancy.42","berth_id":"NY-05","Vacant":"N","OBJECTID":42}},{"type":"Feature","geometry":{"type":"MultiPolygon","coordinates":[[[[114.159923,22.313719],[114.159438,22.313719],[114.159438,22.313466],[114.159923,22.313466],[114.159923,22.313719]]]]},"properties":{"GmlID":"PCWA_BerthVacancy.43","berth_id":"NY-06","Vacant":"N","OBJECTID":43}},{"type":"Feature","geometry":{"type":"MultiPolygon","coordinates":[[[[114.159438,22.313466],[114.159438,22.313033],[114.159923,22.313032],[114.159923,22.313466],[114.159438,22.313466]]]]},"properties":{"GmlID":"PCWA_BerthVacancy.44","berth_id":"NY-07","Vacant":"N","OBJECTID":44}},{"type":"Feature","geometry":{"type":"MultiPolygon","coordinates":[[[[114.159923,22.313032],[114.159438,22.313033],[114.159438,22.312599],[114.159923,22.312599],[114.159923,22.313032]]]]},"properties":{"GmlID":"PCWA_BerthVacancy.45","berth_id":"NY-08","Vacant":"N","OBJECTID":45}},{"type":"Feature","geometry":{"type":"MultiPolygon","coordinates":[[[[114.159438,22.312479],[114.159438,22.312082],[114.159923,22.312082],[114.159923,22.312479],[114.159438,22.312479]]]]},"properties":{"GmlID":"PCWA_BerthVacancy.46","berth_id":"NY-09","Vacant":"N","OBJECTID":46}},{"type":"Feature","geometry":{"type":"MultiPolygon","coordinates":[[[[114.159923,22.312082],[114.159438,22.312082],[114.159438,22.311685],[114.159923,22.311684],[114.159923,22.312082]]]]},"properties":{"GmlID":"PCWA_BerthVacancy.47","berth_id":"NY-10","Vacant":"Y","OBJECTID":47}},{"type":"Feature","geometry":{"type":"MultiPolygon","coordinates":[[[[114.159438,22.311685],[114.159438,22.311396],[114.159924,22.311395],[114.159923,22.311684],[114.159438,22.311685]]]]},"properties":{"GmlID":"PCWA_BerthVacancy.48","berth_id":"NY-11","Vacant":"Y","OBJECTID":48}},{"type":"Feature","geometry":{"type":"MultiPolygon","coordinates":[[[[114.159924,22.311395],[114.159438,22.311396],[114.159438,22.311089],[114.159924,22.311088],[114.159924,22.311395]]]]},"properties":{"GmlID":"PCWA_BerthVacancy.49","berth_id":"NY-12","Vacant":"N","OBJECTID":49}},{"type":"Feature","geometry":{"type":"MultiPolygon","coordinates":[[[[114.159438,22.311089],[114.159438,22.310782],[114.159924,22.310781],[114.159924,22.311088],[114.159438,22.311089]]]]},"properties":{"GmlID":"PCWA_BerthVacancy.50","berth_id":"NY-13","Vacant":"Y","OBJECTID":50}},{"type":"Feature","geometry":{"type":"MultiPolygon","coordinates":[[[[114.159924,22.310781],[114.159438,22.310782],[114.159439,22.30977],[114.159924,22.30977],[114.159924,22.310781]]]]},"properties":{"GmlID":"PCWA_BerthVacancy.51","berth_id":"NY-14","Vacant":"N","OBJECTID":51}},{"type":"Feature","geometry":{"type":"MultiPolygon","coordinates":[[[[114.159439,22.30977],[114.159439,22.309228],[114.159924,22.309228],[114.159924,22.30977],[114.159439,22.30977]]]]},"properties":{"GmlID":"PCWA_BerthVacancy.52","berth_id":"NY-15","Vacant":"N","OBJECTID":52}},{"type":"Feature","geometry":{"type":"MultiPolygon","coordinates":[[[[114.159924,22.309228],[114.159439,22.309228],[114.159439,22.308939],[114.159924,22.308939],[114.159924,22.309228]]]]},"properties":{"GmlID":"PCWA_BerthVacancy.53","berth_id":"NY-16","Vacant":"N","OBJECTID":53}},{"type":"Feature","geometry":{"type":"MultiPolygon","coordinates":[[[[114.159439,22.308939],[114.159439,22.308795],[114.159924,22.308794],[114.159924,22.308939],[114.159439,22.308939]]]]},"properties":{"GmlID":"PCWA_BerthVacancy.54","berth_id":"NY-17","Vacant":"N","OBJECTID":54}},{"type":"Feature","geometry":{"type":"MultiPolygon","coordinates":[[[[114.159924,22.308794],[114.159439,22.308795],[114.159439,22.308614],[114.159924,22.308614],[114.159924,22.308794]]]]},"properties":{"GmlID":"PCWA_BerthVacancy.55","berth_id":"NY-18","Vacant":"N","OBJECTID":55}},{"type":"Feature","geometry":{"type":"MultiPolygon","coordinates":[[[[114.159439,22.308614],[114.159439,22.308542],[114.159924,22.308542],[114.159924,22.308614],[114.159439,22.308614]]]]},"properties":{"GmlID":"PCWA_BerthVacancy.56","berth_id":"NY-19","Vacant":"N","OBJECTID":56}},{"type":"Feature","geometry":{"type":"MultiPolygon","coordinates":[[[[114.159924,22.308542],[114.159439,22.308542],[114.159439,22.308398],[114.159924,22.308397],[114.159924,22.308542]]]]},"properties":{"GmlID":"PCWA_BerthVacancy.57","berth_id":"NY-20","Vacant":"N","OBJECTID":57}},{"type":"Feature","geometry":{"type":"MultiPolygon","coordinates":[[[[114.159439,22.308398],[114.159439,22.308109],[114.159924,22.308108],[114.159924,22.308397],[114.159439,22.308398]]]]},"properties":{"GmlID":"PCWA_BerthVacancy.58","berth_id":"NY-21","Vacant":"N","OBJECTID":58}},{"type":"Feature","geometry":{"type":"MultiPolygon","coordinates":[[[[114.159924,22.308108],[114.159439,22.308109],[114.159439,22.307747],[114.159924,22.307747],[114.159924,22.308108]]]]},"properties":{"GmlID":"PCWA_BerthVacancy.59","berth_id":"NY-22","Vacant":"N","OBJECTID":59}},{"type":"Feature","geometry":{"type":"MultiPolygon","coordinates":[[[[114.159439,22.307747],[114.15944,22.307175],[114.159613,22.307061],[114.159924,22.307061],[114.159924,22.307747],[114.159439,22.307747]]]]},"properties":{"GmlID":"PCWA_BerthVacancy.60","berth_id":"NY-23","Vacant":"N","OBJECTID":60}},{"type":"Feature","geometry":{"type":"MultiPolygon","coordinates":[[[[114.15944,22.307175],[114.159175,22.306819],[114.159569,22.306559],[114.159836,22.306914],[114.15944,22.307175]]]]},"properties":{"GmlID":"PCWA_BerthVacancy.61","berth_id":"NY-24","Vacant":"N","OBJECTID":61}},{"type":"Feature","geometry":{"type":"MultiPolygon","coordinates":[[[[114.159569,22.306559],[114.159175,22.306819],[114.158931,22.306492],[114.159324,22.306233],[114.159569,22.306559]]]]},"properties":{"GmlID":"PCWA_BerthVacancy.62","berth_id":"NY-25","Vacant":"N","OBJECTID":62}},{"type":"Feature","geometry":{"type":"MultiPolygon","coordinates":[[[[114.158931,22.306492],[114.158688,22.306166],[114.15908,22.305907],[114.159324,22.306233],[114.158931,22.306492]]]]},"properties":{"GmlID":"PCWA_BerthVacancy.63","berth_id":"NY-26","Vacant":"N","OBJECTID":63}},{"type":"Feature","geometry":{"type":"MultiPolygon","coordinates":[[[[114.15908,22.305907],[114.158688,22.306166],[114.158333,22.305691],[114.158724,22.305434],[114.15908,22.305907]]]]},"properties":{"GmlID":"PCWA_BerthVacancy.64","berth_id":"NY-27","Vacant":"N","OBJECTID":64}},{"type":"Feature","geometry":{"type":"MultiPolygon","coordinates":[[[[114.158333,22.305691],[114.158112,22.305395],[114.158502,22.305137],[114.158724,22.305434],[114.158333,22.305691]]]]},"properties":{"GmlID":"PCWA_BerthVacancy.65","berth_id":"NY-28","Vacant":"N","OBJECTID":65}},{"type":"Feature","geometry":{"type":"MultiPolygon","coordinates":[[[[114.158502,22.305137],[114.158112,22.305395],[114.157846,22.305039],[114.158229,22.304786],[114.158502,22.305137]]]]},"properties":{"GmlID":"PCWA_BerthVacancy.66","berth_id":"NY-29","Vacant":"N","OBJECTID":66}},{"type":"Feature","geometry":{"type":"MultiPolygon","coordinates":[[[[114.1274167,22.3185667],[114.1265667,22.319],[114.1263333,22.3186167],[114.1272,22.3181667],[114.1274167,22.3185667]]]]},"properties":{"GmlID":"PCWA_BerthVacancy.67","berth_id":"SI-01","Vacant":"N","OBJECTID":67}},{"type":"Feature","geometry":{"type":"MultiPolygon","coordinates":[[[[114.1263333,22.3186167],[114.1265667,22.319],[114.1263,22.3191333],[114.1260667,22.31875],[114.1263333,22.3186167]]]]},"properties":{"GmlID":"PCWA_BerthVacancy.68","berth_id":"SI-02","Vacant":"N","OBJECTID":68}},{"type":"Feature","geometry":{"type":"MultiPolygon","coordinates":[[[[114.1263,22.3191333],[114.1260333,22.3192667],[114.1258167,22.3188833],[114.1260667,22.31875],[114.1263,22.3191333]]]]},"properties":{"GmlID":"PCWA_BerthVacancy.69","berth_id":"SI-03","Vacant":"N","OBJECTID":69}},{"type":"Feature","geometry":{"type":"MultiPolygon","coordinates":[[[[114.1258167,22.3188833],[114.1260333,22.3192667],[114.1256667,22.3194667],[114.12545,22.3190667],[114.1258167,22.3188833]]]]},"properties":{"GmlID":"PCWA_BerthVacancy.70","berth_id":"SI-04","Vacant":"N","OBJECTID":70}},{"type":"Feature","geometry":{"type":"MultiPolygon","coordinates":[[[[114.1256667,22.3194667],[114.12525,22.3196833],[114.1250167,22.3192833],[114.12545,22.3190667],[114.1256667,22.3194667]]]]},"properties":{"GmlID":"PCWA_BerthVacancy.71","berth_id":"SI-05","Vacant":"Y","OBJECTID":71}},{"type":"Feature","geometry":{"type":"MultiPolygon","coordinates":[[[[114.1250167,22.3192833],[114.12525,22.3196833],[114.12485,22.3198833],[114.1246167,22.3194833],[114.1250167,22.3192833]]]]},"properties":{"GmlID":"PCWA_BerthVacancy.72","berth_id":"SI-06","Vacant":"N","OBJECTID":72}},{"type":"Feature","geometry":{"type":"MultiPolygon","coordinates":[[[[114.12485,22.3198833],[114.12445,22.3200833],[114.1242167,22.3196833],[114.1246167,22.3194833],[114.12485,22.3198833]]]]},"properties":{"GmlID":"PCWA_BerthVacancy.73","berth_id":"SI-07","Vacant":"N","OBJECTID":73}},{"type":"Feature","geometry":{"type":"MultiPolygon","coordinates":[[[[114.1242167,22.3196833],[114.12445,22.3200833],[114.1241833,22.3202167],[114.12395,22.3198167],[114.1242167,22.3196833]]]]},"properties":{"GmlID":"PCWA_BerthVacancy.74","berth_id":"SI-08","Vacant":"N","OBJECTID":74}},{"type":"Feature","geometry":{"type":"MultiPolygon","coordinates":[[[[114.1241833,22.3202167],[114.12365,22.3204833],[114.1234333,22.3201],[114.12395,22.3198167],[114.1241833,22.3202167]]]]},"properties":{"GmlID":"PCWA_BerthVacancy.75","berth_id":"SI-09","Vacant":"N","OBJECTID":75}},{"type":"Feature","geometry":{"type":"MultiPolygon","coordinates":[[[[114.1234333,22.3201],[114.12365,22.3204833],[114.1233167,22.3206667],[114.1231,22.3202667],[114.1234333,22.3201]]]]},"properties":{"GmlID":"PCWA_BerthVacancy.76","berth_id":"SI-10","Vacant":"N","OBJECTID":76}},{"type":"Feature","geometry":{"type":"MultiPolygon","coordinates":[[[[114.1233167,22.3206667],[114.1229833,22.3208333],[114.1227667,22.3204333],[114.1231,22.3202667],[114.1233167,22.3206667]]]]},"properties":{"GmlID":"PCWA_BerthVacancy.77","berth_id":"SI-11","Vacant":"N","OBJECTID":77}},{"type":"Feature","geometry":{"type":"MultiPolygon","coordinates":[[[[114.1227667,22.3204333],[114.1229833,22.3208333],[114.1226667,22.321],[114.1224333,22.3206],[114.1227667,22.3204333]]]]},"properties":{"GmlID":"PCWA_BerthVacancy.78","berth_id":"SI-12","Vacant":"N","OBJECTID":78}},{"type":"Feature","geometry":{"type":"MultiPolygon","coordinates":[[[[114.115608,22.351638],[114.115682,22.351662],[114.115585,22.351918],[114.115512,22.351894],[114.115608,22.351638]]]]},"properties":{"GmlID":"PCWA_BerthVacancy.79","berth_id":"RC-01","Vacant":"N","OBJECTID":79}},{"type":"Feature","geometry":{"type":"MultiPolygon","coordinates":[[[[114.115914,22.351738],[114.115932,22.351845],[114.11574,22.351873],[114.115722,22.351766],[114.115914,22.351738]]]]},"properties":{"GmlID":"PCWA_BerthVacancy.80","berth_id":"RC-02","Vacant":"N","OBJECTID":80}},{"type":"Feature","geometry":{"type":"MultiPolygon","coordinates":[[[[114.11574,22.351873],[114.115932,22.351845],[114.11595,22.351952],[114.115758,22.35198],[114.11574,22.351873]]]]},"properties":{"GmlID":"PCWA_BerthVacancy.81","berth_id":"RC-03","Vacant":"N","OBJECTID":81}},{"type":"Feature","geometry":{"type":"MultiPolygon","coordinates":[[[[114.11595,22.351952],[114.11598,22.352131],[114.115693,22.352173],[114.115663,22.351994],[114.11595,22.351952]]]]},"properties":{"GmlID":"PCWA_BerthVacancy.82","berth_id":"RC-04","Vacant":"N","OBJECTID":82}},{"type":"Feature","geometry":{"type":"MultiPolygon","coordinates":[[[[114.115693,22.352173],[114.11598,22.352131],[114.116041,22.352488],[114.115753,22.35253],[114.115693,22.352173]]]]},"properties":{"GmlID":"PCWA_BerthVacancy.83","berth_id":"RC-05","Vacant":"N","OBJECTID":83}},{"type":"Feature","geometry":{"type":"MultiPolygon","coordinates":[[[[114.116041,22.352488],[114.116111,22.352898],[114.115823,22.35294],[114.115753,22.35253],[114.116041,22.352488]]]]},"properties":{"GmlID":"PCWA_BerthVacancy.84","berth_id":"RC-06","Vacant":"N","OBJECTID":84}},{"type":"Feature","geometry":{"type":"MultiPolygon","coordinates":[[[[114.115823,22.35294],[114.116111,22.352898],[114.116181,22.353308],[114.115893,22.353351],[114.115823,22.35294]]]]},"properties":{"GmlID":"PCWA_BerthVacancy.85","berth_id":"RC-07","Vacant":"N","OBJECTID":85}},{"type":"Feature","geometry":{"type":"MultiPolygon","coordinates":[[[[114.116181,22.353308],[114.116242,22.353665],[114.115954,22.353707],[114.115893,22.353351],[114.116181,22.353308]]]]},"properties":{"GmlID":"PCWA_BerthVacancy.86","berth_id":"RC-08","Vacant":"N","OBJECTID":86}},{"type":"Feature","geometry":{"type":"MultiPolygon","coordinates":[[[[114.115954,22.353707],[114.116242,22.353665],[114.116284,22.353915],[114.115997,22.353957],[114.115954,22.353707]]]]},"properties":{"GmlID":"PCWA_BerthVacancy.87","berth_id":"RC-09","Vacant":"N","OBJECTID":87}},{"type":"Feature","geometry":{"type":"MultiPolygon","coordinates":[[[[114.116284,22.353915],[114.116341,22.354254],[114.116054,22.354296],[114.115997,22.353957],[114.116284,22.353915]]]]},"properties":{"GmlID":"PCWA_BerthVacancy.88","berth_id":"RC-10","Vacant":"N","OBJECTID":88}},{"type":"Feature","geometry":{"type":"MultiPolygon","coordinates":[[[[114.116054,22.354296],[114.116341,22.354254],[114.116399,22.354593],[114.116111,22.354635],[114.116054,22.354296]]]]},"properties":{"GmlID":"PCWA_BerthVacancy.89","berth_id":"RC-11","Vacant":"N","OBJECTID":89}},{"type":"Feature","geometry":{"type":"MultiPolygon","coordinates":[[[[114.116185,22.35485],[114.11565,22.355143],[114.115502,22.354909],[114.116038,22.354616],[114.116185,22.35485]]]]},"properties":{"GmlID":"PCWA_BerthVacancy.90","berth_id":"RC-12","Vacant":"N","OBJECTID":90}},{"type":"Feature","geometry":{"type":"MultiPolygon","coordinates":[[[[114.115564,22.355189],[114.115443,22.355455],[114.115175,22.355348],[114.115296,22.355083],[114.115564,22.355189]]]]},"properties":{"GmlID":"PCWA_BerthVacancy.91","berth_id":"RC-13","Vacant":"N","OBJECTID":91}},{"type":"Feature","geometry":{"type":"MultiPolygon","coordinates":[[[[114.115175,22.355348],[114.115443,22.355455],[114.115321,22.35572],[114.115053,22.355614],[114.115175,22.355348]]]]},"properties":{"GmlID":"PCWA_BerthVacancy.92","berth_id":"RC-14","Vacant":"N","OBJECTID":92}},{"type":"Feature","geometry":{"type":"MultiPolygon","coordinates":[[[[114.115069,22.356271],[114.114948,22.356537],[114.11468,22.356431],[114.114801,22.356165],[114.115069,22.356271]]]]},"properties":{"GmlID":"PCWA_BerthVacancy.93","berth_id":"RC-15","Vacant":"N","OBJECTID":93}},{"type":"Feature","geometry":{"type":"MultiPolygon","coordinates":[[[[114.11468,22.356431],[114.114948,22.356537],[114.114704,22.357069],[114.114436,22.356963],[114.11468,22.356431]]]]},"properties":{"GmlID":"PCWA_BerthVacancy.94","berth_id":"RC-16","Vacant":"N","OBJECTID":94}},{"type":"Feature","geometry":{"type":"MultiPolygon","coordinates":[[[[114.114704,22.357069],[114.114583,22.357335],[114.114315,22.357228],[114.114436,22.356963],[114.114704,22.357069]]]]},"properties":{"GmlID":"PCWA_BerthVacancy.95","berth_id":"RC-17","Vacant":"N","OBJECTID":95}},{"type":"Feature","geometry":{"type":"MultiPolygon","coordinates":[[[[114.114315,22.357228],[114.114583,22.357335],[114.114461,22.3576],[114.114193,22.357494],[114.114315,22.357228]]]]},"properties":{"GmlID":"PCWA_BerthVacancy.96","berth_id":"RC-18","Vacant":"N","OBJECTID":96}},{"type":"Feature","geometry":{"type":"MultiPolygon","coordinates":[[[[114.114461,22.3576],[114.11434,22.357866],[114.114072,22.35776],[114.114193,22.357494],[114.114461,22.3576]]]]},"properties":{"GmlID":"PCWA_BerthVacancy.97","berth_id":"RC-19","Vacant":"N","OBJECTID":97}},{"type":"Feature","geometry":{"type":"MultiPolygon","coordinates":[[[[114.114072,22.35776],[114.11434,22.357866],[114.114218,22.358132],[114.11395,22.358026],[114.114072,22.35776]]]]},"properties":{"GmlID":"PCWA_BerthVacancy.98","berth_id":"RC-20","Vacant":"N","OBJECTID":98}},{"type":"Feature","geometry":{"type":"MultiPolygon","coordinates":[[[[114.114218,22.358132],[114.114066,22.358465],[114.113798,22.358359],[114.11395,22.358026],[114.114218,22.358132]]]]},"properties":{"GmlID":"PCWA_BerthVacancy.99","berth_id":"RC-21","Vacant":"N","OBJECTID":99}},{"type":"Feature","geometry":{"type":"MultiPolygon","coordinates":[[[[114.113798,22.358359],[114.114066,22.358465],[114.113883,22.358863],[114.113615,22.358757],[114.113798,22.358359]]]]},"properties":{"GmlID":"PCWA_BerthVacancy.100","berth_id":"RC-22","Vacant":"N","OBJECTID":100}},{"type":"Feature","geometry":{"type":"MultiPolygon","coordinates":[[[[114.113883,22.358863],[114.113762,22.359129],[114.113494,22.359023],[114.113615,22.358757],[114.113883,22.358863]]]]},"properties":{"GmlID":"PCWA_BerthVacancy.101","berth_id":"RC-23","Vacant":"Y","OBJECTID":101}},{"type":"Feature","geometry":{"type":"MultiPolygon","coordinates":[[[[114.113494,22.359023],[114.113762,22.359129],[114.11361,22.359462],[114.113342,22.359356],[114.113494,22.359023]]]]},"properties":{"GmlID":"PCWA_BerthVacancy.102","berth_id":"RC-24","Vacant":"Y","OBJECTID":102}},{"type":"Feature","geometry":{"type":"MultiPolygon","coordinates":[[[[114.11361,22.359462],[114.113488,22.359728],[114.11322,22.359622],[114.113342,22.359356],[114.11361,22.359462]]]]},"properties":{"GmlID":"PCWA_BerthVacancy.103","berth_id":"RC-25","Vacant":"N","OBJECTID":103}},{"type":"Feature","geometry":{"type":"MultiPolygon","coordinates":[[[[114.11322,22.359622],[114.113488,22.359728],[114.113287,22.360167],[114.112522,22.359861],[114.112495,22.359816],[114.112779,22.359669],[114.113133,22.359811],[114.11322,22.359622]]]]},"properties":{"GmlID":"PCWA_BerthVacancy.104","berth_id":"RC-26","Vacant":"N","OBJECTID":104}},{"type":"Feature","geometry":{"type":"MultiPolygon","coordinates":[[[[114.112495,22.359816],[114.112212,22.359342],[114.112467,22.35921],[114.112729,22.359649],[114.112779,22.359669],[114.112495,22.359816]]]]},"properties":{"GmlID":"PCWA_BerthVacancy.105","berth_id":"RC-27","Vacant":"N","OBJECTID":105}},{"type":"Feature","geometry":{"type":"MultiPolygon","coordinates":[[[[113.975363,22.381119],[113.975011,22.380967],[113.975214,22.380557],[113.975567,22.380709],[113.975363,22.381119]]]]},"properties":{"GmlID":"PCWA_BerthVacancy.106","berth_id":"TM-01","Vacant":"Y","OBJECTID":106}},{"type":"Feature","geometry":{"type":"MultiPolygon","coordinates":[[[[113.975214,22.380557],[113.975011,22.380967],[113.974623,22.380801],[113.974826,22.380391],[113.975214,22.380557]]]]},"properties":{"GmlID":"PCWA_BerthVacancy.107","berth_id":"TM-02","Vacant":"N","OBJECTID":107}},{"type":"Feature","geometry":{"type":"MultiPolygon","coordinates":[[[[113.974623,22.380801],[113.9742,22.380619],[113.974403,22.380209],[113.974826,22.380391],[113.974623,22.380801]]]]},"properties":{"GmlID":"PCWA_BerthVacancy.108","berth_id":"TM-03","Vacant":"Y","OBJECTID":108}},{"type":"Feature","geometry":{"type":"MultiPolygon","coordinates":[[[[113.974403,22.380209],[113.9742,22.380619],[113.973856,22.380472],[113.974059,22.380062],[113.974403,22.380209]]]]},"properties":{"GmlID":"PCWA_BerthVacancy.109","berth_id":"TM-04","Vacant":"N","OBJECTID":109}},{"type":"Feature","geometry":{"type":"MultiPolygon","coordinates":[[[[113.973856,22.380472],[113.973512,22.380325],[113.973715,22.379915],[113.974059,22.380062],[113.973856,22.380472]]]]},"properties":{"GmlID":"PCWA_BerthVacancy.110","berth_id":"TM-05","Vacant":"N","OBJECTID":110}},{"type":"Feature","geometry":{"type":"MultiPolygon","coordinates":[[[[113.973715,22.379915],[113.973512,22.380325],[113.973177,22.380181],[113.97338,22.379771],[113.973715,22.379915]]]]},"properties":{"GmlID":"PCWA_BerthVacancy.111","berth_id":"TM-06","Vacant":"Y","OBJECTID":111}},{"type":"Feature","geometry":{"type":"MultiPolygon","coordinates":[[[[113.973177,22.380181],[113.972789,22.380014],[113.972992,22.379604],[113.97338,22.379771],[113.973177,22.380181]]]]},"properties":{"GmlID":"PCWA_BerthVacancy.112","berth_id":"TM-07","Vacant":"N","OBJECTID":112}},{"type":"Feature","geometry":{"type":"MultiPolygon","coordinates":[[[[113.972992,22.379604],[113.972789,22.380014],[113.972401,22.379848],[113.972604,22.379438],[113.972992,22.379604]]]]},"properties":{"GmlID":"PCWA_BerthVacancy.113","berth_id":"TM-08","Vacant":"N","OBJECTID":113}},{"type":"Feature","geometry":{"type":"MultiPolygon","coordinates":[[[[113.972401,22.379848],[113.972013,22.379682],[113.972216,22.379272],[113.972604,22.379438],[113.972401,22.379848]]]]},"properties":{"GmlID":"PCWA_BerthVacancy.114","berth_id":"TM-09","Vacant":"Y","OBJECTID":114}},{"type":"Feature","geometry":{"type":"MultiPolygon","coordinates":[[[[113.972216,22.379272],[113.972013,22.379682],[113.971625,22.379515],[113.971828,22.379105],[113.972216,22.379272]]]]},"properties":{"GmlID":"PCWA_BerthVacancy.115","berth_id":"TM-10","Vacant":"N","OBJECTID":115}},{"type":"Feature","geometry":{"type":"MultiPolygon","coordinates":[[[[113.971625,22.379515],[113.971343,22.379394],[113.971546,22.378984],[113.971828,22.379105],[113.971625,22.379515]]]]},"properties":{"GmlID":"PCWA_BerthVacancy.116","berth_id":"TM-11","Vacant":"N","OBJECTID":116}},{"type":"Feature","geometry":{"type":"MultiPolygon","coordinates":[[[[113.971546,22.378984],[113.971343,22.379394],[113.970955,22.379228],[113.971158,22.378818],[113.971546,22.378984]]]]},"properties":{"GmlID":"PCWA_BerthVacancy.117","berth_id":"TM-12","Vacant":"N","OBJECTID":117}},{"type":"Feature","geometry":{"type":"MultiPolygon","coordinates":[[[[113.970955,22.379228],[113.970602,22.379077],[113.970805,22.378667],[113.971158,22.378818],[113.970955,22.379228]]]]},"properties":{"GmlID":"PCWA_BerthVacancy.118","berth_id":"TM-13","Vacant":"N","OBJECTID":118}},{"type":"Feature","geometry":{"type":"MultiPolygon","coordinates":[[[[113.970805,22.378667],[113.970602,22.379077],[113.970179,22.378895],[113.970382,22.378485],[113.970805,22.378667]]]]},"properties":{"GmlID":"PCWA_BerthVacancy.119","berth_id":"TM-14","Vacant":"N","OBJECTID":119}},{"type":"Feature","geometry":{"type":"MultiPolygon","coordinates":[[[[113.970179,22.378895],[113.969932,22.378788],[113.970135,22.378379],[113.970382,22.378485],[113.970179,22.378895]]]]},"properties":{"GmlID":"PCWA_BerthVacancy.120","berth_id":"TM-15","Vacant":"N","OBJECTID":120}}]}