{"type":"FeatureCollection","features":[{"type":"Feature","geometry":{"type":"MultiPoint","coordinates":[[114.0907833,22.1984667]]},"properties":{"GmlID":"PilotBoardingStn.1","OBJNAM":"Ha Mei Wan, west of Lamma Island","INFORM":"Pilot boarding station is an area of 0.5 nautical mile radius from point centre","OBJECTID":1}},{"type":"Feature","geometry":{"type":"MultiPoint","coordinates":[[114.2635667,22.2651333]]},"properties":{"GmlID":"PilotBoardingStn.2","OBJNAM":"Turning buoy in the Tathong Channel","INFORM":"Pilot Boarding Station is an area of 0.4 nautical mile radius from point centre","OBJECTID":2}},{"type":"Feature","geometry":{"type":"MultiPoint","coordinates":[[113.8891167,22.4154167]]},"properties":{"GmlID":"PilotBoardingStn.3","OBJNAM":"Lam Kok Tsui (Black Point) in Urmston Road","INFORM":"Pilot Boarding Station is an area of 1.0 nautical mile radius from point centre","OBJECTID":3}},{"type":"Feature","geometry":{"type":"MultiPoint","coordinates":[[114.3308,22.4918]]},"properties":{"GmlID":"PilotBoardingStn.4","OBJNAM":"Entrance to Tolo Channel","INFORM":"Pilot Boarding Station is an area of 0.5 nautical mile radius from point centre","OBJECTID":4}},{"type":"Feature","geometry":{"type":"MultiPoint","coordinates":[[114.1641167,22.2159667]]},"properties":{"GmlID":"PilotBoardingStn.5","OBJNAM":"Ngan Chau in East Lamma Channel","INFORM":"Pilot boarding station is an area of 0.5 nautical mile radius from point centre","OBJECTID":5}},{"type":"Feature","geometry":{"type":"MultiPoint","coordinates":[[114.3933333,22.5466667]]},"properties":{"GmlID":"PilotBoardingStn.6","OBJNAM":"Ping Chau in Mirs Bay","INFORM":"Pilot boarding station is an area of 0.5 nautical mile radius from point centre","OBJECTID":6}},{"type":"Feature","geometry":{"type":"MultiPoint","coordinates":[[114.3366667,22.5583333]]},"properties":{"GmlID":"PilotBoardingStn.7","OBJNAM":"Crooked Island in Mirs Bay","INFORM":"Pilot boarding station is an area of 0.5 nautical mile radius from point centre","OBJECTID":7}},{"type":"Feature","geometry":{"type":"MultiPoint","coordinates":[[114.4423333,22.495]]},"properties":{"GmlID":"PilotBoardingStn.8","OBJNAM":"Shek Ngau Chau in Mirs Bay","INFORM":"Pilot boarding station is an area of 0.5 nautical mile radius from point centre","OBJECTID":8}},{"type":"Feature","geometry":{"type":"MultiPoint","coordinates":[[114.0509167,22.16105]]},"properties":{"GmlID":"PilotBoardingStn.9","OBJNAM":"South of Cheung Chau Island","INFORM":"Pilot boarding station is an area of 0.7 nautical mile radius from point centre","OBJECTID":9}}]}