{"type":"FeatureCollection","features":[{"type":"Feature","geometry":{"type":"Point","coordinates":[114.1614,22.2374]},"properties":{"GmlID":"Private_Mooring_Areas.1","name_en":"Aberdeen South Typhoon Shelter (Pak Sha Wan) Private Mooring Area","name_tc":"香港仔南避風塘（白沙灣）私人繫泊設備區","name_sc":"香港仔南避风塘（白沙湾）私人系泊设备区","OBJECTID":1}},{"type":"Feature","geometry":{"type":"Point","coordinates":[114.1633,22.2404]},"properties":{"GmlID":"Private_Mooring_Areas.2","name_en":"Aberdeen South Typhoon Shelter (Po Chong Wan) Private Mooring Area","name_tc":"香港仔南避風塘（布廠灣）私人繫泊設備區","name_sc":"香港仔南避风塘（布厂湾）私人系泊设备区","OBJECTID":2}},{"type":"Feature","geometry":{"type":"Point","coordinates":[114.1397,22.2475]},"properties":{"GmlID":"Private_Mooring_Areas.3","name_en":"Aberdeen West Typhoon Shelter (Outside Breakwater) Private Mooring Area","name_tc":"香港仔西避風塘（防波提外）私人繫泊設備區","name_sc":"香港仔西避风塘（防波提外）私人系泊设备区","OBJECTID":3}},{"type":"Feature","geometry":{"type":"Point","coordinates":[114.1858,22.2853]},"properties":{"GmlID":"Private_Mooring_Areas.4","name_en":"Causeway Bay Typhoon Shelter Private Mooring Area","name_tc":"銅鑼灣避風塘私人繫泊設備區","name_sc":"铜锣湾避风塘私人系泊设备区","OBJECTID":4}},{"type":"Feature","geometry":{"type":"Point","coordinates":[114.3505,22.4258]},"properties":{"GmlID":"Private_Mooring_Areas.5","name_en":"Chek Keng Hau (Long Harbour) Private Mooring Area","name_tc":"赤徑口（大灘海峽）私人繫泊設備區","name_sc":"赤径口（大滩海峡）私人系泊设备区","OBJECTID":5}},{"type":"Feature","geometry":{"type":"Point","coordinates":[114.0209,22.2053]},"properties":{"GmlID":"Private_Mooring_Areas.6","name_en":"Cheung Chau Typhoon Shelter Private Mooring Area","name_tc":"長洲避風塘私人繫泊設備區","name_sc":"长洲避风塘私人系泊设备区","OBJECTID":6}},{"type":"Feature","geometry":{"type":"Point","coordinates":[114.0218,22.2886]},"properties":{"GmlID":"Private_Mooring_Areas.7","name_en":"Cheung Sha Lan Private Mooring Area","name_tc":"長沙欄私人繫泊設備區","name_sc":"长沙栏私人系泊设备区","OBJECTID":7}},{"type":"Feature","geometry":{"type":"Point","coordinates":[114.3172,22.5323]},"properties":{"GmlID":"Private_Mooring_Areas.8","name_en":"Crescent Bay Private Mooring Area","name_tc":"娥眉灣私人繫泊設備區","name_sc":"娥眉湾私人系泊设备区","OBJECTID":8}},{"type":"Feature","geometry":{"type":"Point","coordinates":[114.0202,22.297]},"properties":{"GmlID":"Private_Mooring_Areas.9","name_en":"Discovery Bay Private Mooring Area","name_tc":"愉景灣私人繫泊設備區","name_sc":"愉景湾私人系泊设备区","OBJECTID":9}},{"type":"Feature","geometry":{"type":"Point","coordinates":[114.104,22.2206]},"properties":{"GmlID":"Private_Mooring_Areas.10","name_en":"Ha Mei Wan Private Mooring Area","name_tc":"下尾灣私人繫泊設備區","name_sc":"下尾湾私人系泊设备区","OBJECTID":10}},{"type":"Feature","geometry":{"type":"Point","coordinates":[114.2644,22.363]},"properties":{"GmlID":"Private_Mooring_Areas.11","name_en":"Hebe Haven  Private Mooring Area","name_tc":"白沙灣私人繫泊設備區","name_sc":"白沙湾私人系泊设备区","OBJECTID":11}},{"type":"Feature","geometry":{"type":"Point","coordinates":[114.0327,22.2469]},"properties":{"GmlID":"Private_Mooring_Areas.12","name_en":"Hei Ling Chau Typhoon Shelter Private Mooring Area","name_tc":"喜靈洲避風塘私人繫泊設備區","name_sc":"喜灵洲避风塘私人系泊设备区","OBJECTID":12}},{"type":"Feature","geometry":{"type":"Point","coordinates":[114.3038,22.366]},"properties":{"GmlID":"Private_Mooring_Areas.13","name_en":"Kau Sai Chau Private Mooring Area","name_tc":"滘西洲私人繫泊設備區","name_sc":"滘西洲私人系泊设备区","OBJECTID":13}},{"type":"Feature","geometry":{"type":"Point","coordinates":[114.3408,22.4325]},"properties":{"GmlID":"Private_Mooring_Areas.14","name_en":"Ko Tong Hau (Long Harbour) Private Mooring Area","name_tc":"高塘口（大灘海峽）私人繫泊設備區","name_sc":"高塘口（大滩海峡）私人系泊设备区","OBJECTID":14}},{"type":"Feature","geometry":{"type":"Point","coordinates":[114.1442,22.3276]},"properties":{"GmlID":"Private_Mooring_Areas.15","name_en":"Lai Chi Kok Private Mooring Area","name_tc":"荔枝角私人繫泊設備區","name_sc":"荔枝角私人系泊设备区","OBJECTID":15}},{"type":"Feature","geometry":{"type":"Point","coordinates":[114.1337,22.2263]},"properties":{"GmlID":"Private_Mooring_Areas.16","name_en":"Luk Chau Wan Private Mooring Area","name_tc":"鹿洲灣私人繫泊設備區","name_sc":"鹿洲湾私人系泊设备区","OBJECTID":16}},{"type":"Feature","geometry":{"type":"Point","coordinates":[113.9079,22.3953]},"properties":{"GmlID":"Private_Mooring_Areas.17","name_en":"Lung Kwu Tan Private Mooring Area","name_tc":"龍鼓灘私人繫泊設備區","name_sc":"龙鼓滩私人系泊设备区","OBJECTID":17}},{"type":"Feature","geometry":{"type":"Point","coordinates":[114.186,22.2371]},"properties":{"GmlID":"Private_Mooring_Areas.18","name_en":"Middle Island Private Mooring Area","name_tc":"熨波洲私人繫泊設備區","name_sc":"熨波洲私人系泊设备区","OBJECTID":18}},{"type":"Feature","geometry":{"type":"Point","coordinates":[114.154,22.3102]},"properties":{"GmlID":"Private_Mooring_Areas.19","name_en":"New Yau Ma Tei Typhoon Shelter (Outside Breakwater) Private Mooring Area","name_tc":"新油麻地避風塘（防波提外）私人繫泊設備區","name_sc":"新油麻地避风塘（防波提外）私人系泊设备区","OBJECTID":19}},{"type":"Feature","geometry":{"type":"Point","coordinates":[114.157,22.3159]},"properties":{"GmlID":"Private_Mooring_Areas.20","name_en":"New Yau Ma Tei Typhoon Shelter Private Mooring Area","name_tc":"新油麻地避風塘私人繫泊設備區","name_sc":"新油麻地避风塘私人系泊设备区","OBJECTID":20}},{"type":"Feature","geometry":{"type":"Point","coordinates":[114.0214,22.2917]},"properties":{"GmlID":"Private_Mooring_Areas.21","name_en":"Nim Shue Wan Private Mooring Area","name_tc":"稔樹灣私人繫泊設備區","name_sc":"稔树湾私人系泊设备区","OBJECTID":21}},{"type":"Feature","geometry":{"type":"Point","coordinates":[114.0304,22.3395]},"properties":{"GmlID":"Private_Mooring_Areas.22","name_en":"North Lantau Island Private Mooring Area","name_tc":"北大嶼山私人繫泊設備區","name_sc":"北大屿山私人系泊设备区","OBJECTID":22}},{"type":"Feature","geometry":{"type":"Point","coordinates":[114.15,22.319]},"properties":{"GmlID":"Private_Mooring_Areas.23","name_en":"North of Yau Ma Tei Anchorage Private Mooring Area","name_tc":"油麻地錨地以北私人繫泊設備區","name_sc":"油麻地锚地以北私人系泊设备区","OBJECTID":23}},{"type":"Feature","geometry":{"type":"Point","coordinates":[114.1134,22.3553]},"properties":{"GmlID":"Private_Mooring_Areas.24","name_en":"Rambler Channel Typhoon Shelter (Outside Breakwater) Private Mooring Area","name_tc":"藍巴勒海峽避風塘（防波提外）私人繫泊設備區","name_sc":"蓝巴勒海峡避风塘（防波提外）私人系泊设备区","OBJECTID":24}},{"type":"Feature","geometry":{"type":"Point","coordinates":[114.237,22.2907]},"properties":{"GmlID":"Private_Mooring_Areas.25","name_en":"Sam Ka Tsuen Typhoon Shelter Private Mooring Area","name_tc":"三家村避風塘私人繫泊設備區","name_sc":"三家村避风塘私人系泊设备区","OBJECTID":25}},{"type":"Feature","geometry":{"type":"Point","coordinates":[114.2173,22.4622]},"properties":{"GmlID":"Private_Mooring_Areas.26","name_en":"Shuen Wan Hoi Private Mooring Area","name_tc":"船灣海私人繫泊設備區","name_sc":"船湾海私人系泊设备区","OBJECTID":26}},{"type":"Feature","geometry":{"type":"Point","coordinates":[114.2162,22.2197]},"properties":{"GmlID":"Private_Mooring_Areas.27","name_en":"Stanley Main Beach  Private Mooring Area","name_tc":"赤柱正灘私人繫泊設備區","name_sc":"赤柱正滩私人系泊设备区","OBJECTID":27}},{"type":"Feature","geometry":{"type":"Point","coordinates":[114.2301,22.4694]},"properties":{"GmlID":"Private_Mooring_Areas.28","name_en":"Tai Mei Tuk Private Mooring Area","name_tc":"大美督私人繫泊設備區","name_sc":"大美督私人系泊设备区","OBJECTID":28}},{"type":"Feature","geometry":{"type":"Point","coordinates":[114.2958,22.389]},"properties":{"GmlID":"Private_Mooring_Areas.29","name_en":"Tai Mong Tsai (A Kung Wan) Private Mooring Area","name_tc":"大網仔（阿公灣）私人繫泊設備區","name_sc":"大网仔（阿公湾）私人系泊设备区","OBJECTID":29}},{"type":"Feature","geometry":{"type":"Point","coordinates":[114.2983,22.3861]},"properties":{"GmlID":"Private_Mooring_Areas.30","name_en":"Tai Mong Tsai Private Mooring Area","name_tc":"大網仔私人繫泊設備區","name_sc":"大网仔私人系泊设备区","OBJECTID":30}},{"type":"Feature","geometry":{"type":"Point","coordinates":[114.2292,22.2396]},"properties":{"GmlID":"Private_Mooring_Areas.31","name_en":"Tai Tam Harbour Private Mooring Area","name_tc":"大潭港私人繫泊設備區","name_sc":"大潭港私人系泊设备区","OBJECTID":31}},{"type":"Feature","geometry":{"type":"Point","coordinates":[114.0869,22.3666]},"properties":{"GmlID":"Private_Mooring_Areas.32","name_en":"Ting Kau Private Mooring Area","name_tc":"汀九私人繫泊設備區","name_sc":"汀九私人系泊设备区","OBJECTID":32}},{"type":"Feature","geometry":{"type":"Point","coordinates":[114.1943,22.3143]},"properties":{"GmlID":"Private_Mooring_Areas.33","name_en":"To Kwa Wan Private Mooring Area","name_tc":"土瓜灣私人繫泊設備區","name_sc":"土瓜湾私人系泊设备区","OBJECTID":33}},{"type":"Feature","geometry":{"type":"Point","coordinates":[114.3148,22.3886]},"properties":{"GmlID":"Private_Mooring_Areas.34","name_en":"Tsam Chuk Wan Private Mooring Area","name_tc":"斬竹灣私人繫泊設備區","name_sc":"斩竹湾私人系泊设备区","OBJECTID":34}},{"type":"Feature","geometry":{"type":"Point","coordinates":[114.0964,22.3631]},"properties":{"GmlID":"Private_Mooring_Areas.35","name_en":"Tsing Yi North Private Mooring Area","name_tc":"青衣北私人繫泊設備區","name_sc":"青衣北私人系泊设备区","OBJECTID":35}},{"type":"Feature","geometry":{"type":"Point","coordinates":[114.0832,22.3444]},"properties":{"GmlID":"Private_Mooring_Areas.36","name_en":"Tsing Yi West Private Mooring Area","name_tc":"青衣西私人繫泊設備區","name_sc":"青衣西私人系泊设备区","OBJECTID":36}},{"type":"Feature","geometry":{"type":"Point","coordinates":[114.2861,22.387]},"properties":{"GmlID":"Private_Mooring_Areas.37","name_en":"Tso Wo Hang Private Mooring Area","name_tc":"早禾坑私人繫泊設備區","name_sc":"早禾坑私人系泊设备区","OBJECTID":37}},{"type":"Feature","geometry":{"type":"Point","coordinates":[114.1059,22.3662]},"properties":{"GmlID":"Private_Mooring_Areas.38","name_en":"Tsuen Wan Private Mooring Area","name_tc":"荃灣私人繫泊設備區","name_sc":"荃湾私人系泊设备区","OBJECTID":38}},{"type":"Feature","geometry":{"type":"Point","coordinates":[113.976,22.3714]},"properties":{"GmlID":"Private_Mooring_Areas.39","name_en":"Tuen Mun Typhoon Shelter (Outside Breakwater) Private Mooring Area","name_tc":"屯門避風塘（防波提外）私人繫泊設備區","name_sc":"屯门避风塘（防波提外）私人系泊设备区","OBJECTID":39}},{"type":"Feature","geometry":{"type":"Point","coordinates":[113.976,22.3782]},"properties":{"GmlID":"Private_Mooring_Areas.40","name_en":"Tuen Mun Typhoon Shelter Private Mooring Area","name_tc":"屯門避風塘私人繫泊設備區","name_sc":"屯门避风塘私人系泊设备区","OBJECTID":40}},{"type":"Feature","geometry":{"type":"Point","coordinates":[114.3078,22.5085]},"properties":{"GmlID":"Private_Mooring_Areas.41","name_en":"Wong Wan (Wong Chuk Kok Hoi) Private Mooring Area","name_tc":"往灣（黃竹角海）私人繫泊設備區","name_sc":"往湾（黄竹角海）私人系泊设备区","OBJECTID":41}},{"type":"Feature","geometry":{"type":"Point","coordinates":[114.2365,22.4345]},"properties":{"GmlID":"Private_Mooring_Areas.42","name_en":"Wu Kwai Sha Tsui (Wu Kai Sha)  Private Mooring Area","name_tc":"烏溪沙烏龜沙咀私人繫泊設備區","name_sc":"乌溪沙乌龟沙咀私人系泊设备区","OBJECTID":42}},{"type":"Feature","geometry":{"type":"Point","coordinates":[114.1097,22.2261]},"properties":{"GmlID":"Private_Mooring_Areas.43","name_en":"Yung Shue Wan Private Mooring Area","name_tc":"榕樹灣私人繫泊設備區","name_sc":"榕树湾私人系泊设备区","OBJECTID":43}}]}