{"type":"FeatureCollection","features":[{"type":"Feature","geometry":{"type":"Point","coordinates":[114.122665,22.323726]},"properties":{"GmlID":"geodatastore.1","EASTING":830683.0,"NORTHING":820524.0,"OBJECTID":1.0,"TIDAL_INFORMATION":"https://tide1.hydro.gov.hk/hotide/OpenData/station_data.php?station=ct8","TIDE_STATION_EN":"Kwai Chung","TIDE_STATION_SC":"葵涌","TIDE_STATION_TC":"葵涌"}},{"type":"Feature","geometry":{"type":"Point","coordinates":[114.071347,22.36395]},"properties":{"GmlID":"geodatastore.2","EASTING":825399.0,"NORTHING":824981.0,"OBJECTID":2.0,"TIDAL_INFORMATION":"https://tide1.hydro.gov.hk/hotide/OpenData/station_data.php?station=mwc","TIDE_STATION_EN":"Ma Wan","TIDE_STATION_SC":"马湾","TIDE_STATION_TC":"馬灣"}},{"type":"Feature","geometry":{"type":"Point","coordinates":[114.023014,22.214012]},"properties":{"GmlID":"geodatastore.3","EASTING":820404.0,"NORTHING":808382.0,"OBJECTID":3.0,"TIDAL_INFORMATION":"https://tide1.hydro.gov.hk/hotide/OpenData/station_data.php?station=chc","TIDE_STATION_EN":"Cheung Chau","TIDE_STATION_SC":"长洲","TIDE_STATION_TC":"長洲"}},{"type":"Feature","geometry":{"type":"Point","coordinates":[114.360616,22.458492]},"properties":{"GmlID":"geodatastore.4","EASTING":855180.0,"NORTHING":835458.0,"OBJECTID":4.0,"TIDAL_INFORMATION":"https://tide1.hydro.gov.hk/hotide/OpenData/station_data.php?station=klw","TIDE_STATION_EN":"Ko Lau Wan","TIDE_STATION_SC":"高流湾","TIDE_STATION_TC":"高流灣"}},{"type":"Feature","geometry":{"type":"Point","coordinates":[114.352831,22.348293]},"properties":{"GmlID":"geodatastore.5","EASTING":854393.0,"NORTHING":823254.0,"OBJECTID":5.0,"TIDAL_INFORMATION":"https://tide1.hydro.gov.hk/hotide/OpenData/station_data.php?station=skt","TIDE_STATION_EN":"Sha Kiu Tau","TIDE_STATION_SC":"沙桥头","TIDE_STATION_TC":"沙橋頭"}}]}