{"type":"FeatureCollection","features":[{"type":"Feature","geometry":{"type":"MultiPolygon","coordinates":[[[[114.1601266,22.2462043],[114.1599333,22.24635],[114.1599272,22.2463546],[114.1595466,22.2466465],[114.1595466,22.2466465],[114.1594034,22.2467565],[114.1593439,22.2468033],[114.159184,22.246848],[114.159184,22.246848],[114.1584429,22.2470555],[114.1580819,22.2469769],[114.1580819,22.2469769],[114.1572563,22.2467974],[114.1572563,22.2467974],[114.1570666,22.2467561],[114.1570331,22.2467487],[114.1570331,22.2467487],[114.1567697,22.2466901],[114.1567697,22.2466901],[114.1566379,22.2466608],[114.156532,22.2466592],[114.156532,22.2466592],[114.1563535,22.2466566],[114.1563535,22.2466566],[114.1549833,22.2466362],[114.1547626,22.2467558],[114.154671,22.2468038],[114.1546357,22.246841],[114.1544269,22.2470621],[114.1544269,22.2470621],[114.1542877,22.2472095],[114.1542732,22.247212],[114.1542732,22.247212],[114.1542568,22.247119],[114.1542785,22.2471157],[114.1542605,22.246984],[114.1541942,22.2469938],[114.1542167,22.2471265],[114.1542423,22.2471223],[114.1542611,22.247214],[114.1542611,22.247214],[114.1540506,22.2472485],[114.1540506,22.2472485],[114.1540483,22.2471651],[114.154076,22.2471584],[114.1540532,22.2469959],[114.1539737,22.2470072],[114.1539962,22.2471729],[114.1540226,22.2471674],[114.1540264,22.2472524],[114.1540264,22.2472524],[114.1539713,22.2472615],[114.1539713,22.2472615],[114.1539582,22.2471805],[114.1539733,22.2471765],[114.1539446,22.2470304],[114.1538916,22.2470417],[114.1539167,22.2471832],[114.1539372,22.2471778],[114.1539521,22.2472651],[114.1539521,22.2472651],[114.1537827,22.247293],[114.1537827,22.247293],[114.1537709,22.2472109],[114.1537922,22.2472078],[114.1537814,22.2471381],[114.153721,22.2471482],[114.1537327,22.2472195],[114.1537552,22.2472139],[114.1537691,22.2472953],[114.1537691,22.2472953],[114.1536788,22.2473102],[114.1536788,22.2473102],[114.1536665,22.2472384],[114.1536939,22.2472335],[114.1536753,22.2471185],[114.1536079,22.2471287],[114.1536245,22.2472435],[114.1536476,22.2472402],[114.1536618,22.247313],[114.1536618,22.247313],[114.1534745,22.247344],[114.1534745,22.247344],[114.1534616,22.2472785],[114.1534844,22.2472751],[114.1534642,22.2471503],[114.153407,22.247157],[114.1534254,22.2472832],[114.1534468,22.2472797],[114.1534572,22.2473469],[114.1534572,22.2473469],[114.1534315,22.2473511],[114.1534315,22.2473511],[114.153235,22.2473834],[114.153235,22.2473834],[114.1532212,22.2473092],[114.1533583,22.2472772],[114.1533397,22.2471979],[114.1531166,22.2472453],[114.1531294,22.2473184],[114.153203,22.2473037],[114.1532194,22.247386],[114.1532194,22.247386],[114.1531177,22.2474023],[114.1531177,22.2474023],[114.1531055,22.2473373],[114.1531185,22.2473342],[114.153085,22.247175],[114.1530182,22.2471875],[114.1530527,22.2473429],[114.1530618,22.2473406],[114.1530764,22.2474089],[114.1530764,22.2474089],[114.1527766,22.247457],[114.1527766,22.247457],[114.1527611,22.2473777],[114.1527752,22.2473746],[114.1527529,22.2472741],[114.1526963,22.2472852],[114.1527199,22.2473857],[114.1527361,22.2473817],[114.1527549,22.2474606],[114.1527549,22.2474606],[114.1526274,22.2474814],[114.1526274,22.2474814],[114.152615,22.2473877],[114.1526297,22.2473857],[114.1526172,22.2472808],[114.1525699,22.2472876],[114.1525853,22.2473905],[114.1525969,22.2473922],[114.1526088,22.2474844],[114.1526088,22.2474844],[114.15252,22.2474989],[114.15252,22.2474989],[114.1525116,22.2474098],[114.1525254,22.2474072],[114.1525129,22.2472782],[114.1524672,22.2472806],[114.1524792,22.2474103],[114.1524918,22.2474072],[114.1525062,22.2475012],[114.1525062,22.2475012],[114.152429,22.2475142],[114.152429,22.2475142],[114.1524207,22.2474418],[114.152431,22.2474373],[114.1524236,22.2473471],[114.1523835,22.2473508],[114.152392,22.2474438],[114.1524049,22.2474434],[114.1524114,22.247517],[114.1524114,22.247517],[114.1523273,22.2475316],[114.1523273,22.2475316],[114.1523245,22.2474743],[114.1523378,22.247471],[114.1523202,22.2473719],[114.1522813,22.2473767],[114.1522922,22.2474508],[114.1523046,22.2474495],[114.1523136,22.2475346],[114.1523136,22.2475346],[114.1522986,22.2475336],[114.1522986,22.2475336],[114.1522969,22.2475238],[114.1522382,22.2475286],[114.1522302,22.2474773],[114.1521315,22.2474912],[114.1521334,22.2475057],[114.1521078,22.2475101],[114.1521132,22.2475375],[114.1520984,22.2475404],[114.1520918,22.2475119],[114.1520501,22.2475219],[114.1520526,22.2474937],[114.1520378,22.2473928],[114.1519999,22.2473989],[114.1520139,22.2474988],[114.1520272,22.2475264],[114.1519822,22.2475359],[114.1519831,22.2475663],[114.1519348,22.2475797],[114.1519249,22.2475521],[114.1519269,22.2475202],[114.1519432,22.2475223],[114.151924,22.247388],[114.151855,22.2474002],[114.1518794,22.2475303],[114.1518928,22.2475269],[114.151906,22.2475554],[114.1519038,22.2475841],[114.1518853,22.2475884],[114.1518779,22.2475523],[114.1516574,22.2475851],[114.1516624,22.2476242],[114.1516315,22.2476309],[114.151622,22.2475835],[114.1515665,22.2475938],[114.1515726,22.2476391],[114.1515452,22.2476447],[114.1515377,22.247612],[114.1515377,22.247612],[114.151509,22.2476157],[114.1515153,22.2476478],[114.151488,22.2476533],[114.1514781,22.247624],[114.1514467,22.2476326],[114.1514428,22.2476155],[114.1513879,22.2476284],[114.151398,22.2476756],[114.151398,22.2476756],[114.1511564,22.2477136],[114.1511564,22.2477136],[114.1511106,22.2477209],[114.1506022,22.2478359],[114.1506022,22.2478359],[114.1505346,22.2478512],[114.1505346,22.2478512],[114.1505118,22.247763],[114.1505118,22.247763],[114.1504953,22.2476996],[114.1504953,22.2476996],[114.1504716,22.2476079],[114.1503903,22.2476293],[114.1504189,22.2477438],[114.1504189,22.2477438],[114.1504296,22.2477869],[114.1504296,22.2477869],[114.1504502,22.2478693],[114.1504502,22.2478693],[114.1503609,22.2478896],[114.1503609,22.2478896],[114.1500028,22.2479713],[114.1493204,22.2478757],[114.1493204,22.2478757],[114.1488636,22.2478118],[114.148823,22.2478209],[114.148823,22.2478209],[114.1487787,22.247655],[114.1487806,22.2476533],[114.1487642,22.2476087],[114.1486956,22.2476262],[114.148712,22.2477001],[114.1487489,22.2478367],[114.1487489,22.2478367],[114.1487283,22.2478414],[114.1487283,22.2478414],[114.1484137,22.247913],[114.1484137,22.247913],[114.1480742,22.2479903],[114.1480742,22.2479903],[114.1479063,22.2480285],[114.1479063,22.2480285],[114.1471957,22.2481905],[114.1471957,22.2481905],[114.1468352,22.2482727],[114.1468352,22.2482727],[114.1467123,22.2483008],[114.1467123,22.2483008],[114.1466472,22.2482967],[114.1466472,22.2482967],[114.1440439,22.2481376],[114.1440439,22.2481376],[114.1438256,22.248053],[114.1438256,22.248053],[114.144102,22.2474053],[114.1443802,22.2467538],[114.1444639,22.2465659],[114.1448043,22.2457565],[114.1447854,22.2457113],[114.1447854,22.2457113],[114.1447744,22.245715],[114.1447744,22.245715],[114.1451492,22.2448355],[114.1451492,22.2448355],[114.1451567,22.2448411],[114.1451985,22.2448603],[114.1452307,22.244866],[114.1455894,22.2448892],[114.1455894,22.2448892],[114.1461533,22.2449259],[114.1461533,22.2449259],[114.1464895,22.2449477],[114.1464895,22.2449477],[114.1472084,22.2449945],[114.1475466,22.2451962],[114.1475466,22.2451962],[114.14777,22.2453294],[114.14777,22.2453294],[114.1478643,22.2453855],[114.1478643,22.2453855],[114.1480583,22.2455013],[114.1480583,22.2455013],[114.1480834,22.2455163],[114.1480834,22.2455163],[114.1481215,22.245539],[114.1481215,22.245539],[114.1481826,22.2455755],[114.1482184,22.2455247],[114.148236,22.2455349],[114.1482196,22.245558],[114.1482155,22.2455768],[114.1482122,22.2455713],[114.1481953,22.2455759],[114.1482031,22.2456002],[114.1481818,22.2456061],[114.1481692,22.2456048],[114.1481679,22.2456163],[114.1481856,22.2456181],[114.148207,22.2456123],[114.1482161,22.2456408],[114.1482319,22.2456365],[114.1482319,22.2456365],[114.1482457,22.2456499],[114.1483041,22.2456828],[114.1483398,22.2456964],[114.1483833,22.2457039],[114.1483999,22.2457025],[114.1484353,22.2456858],[114.1485095,22.2456664],[114.1485095,22.2456664],[114.1485324,22.24564],[114.1485684,22.24561],[114.1486372,22.2455721],[114.14869,22.2455531],[114.1487562,22.2455321],[114.1487562,22.2455321],[114.1487847,22.2455345],[114.1488938,22.2455626],[114.1490122,22.245574],[114.1490122,22.245574],[114.1490751,22.2455802],[114.14913,22.2455673],[114.14913,22.2455673],[114.1491375,22.2455655],[114.1492169,22.2455683],[114.1492751,22.2455505],[114.1492751,22.2455505],[114.1492885,22.2455464],[114.1494075,22.2455274],[114.1494075,22.2455274],[114.149415,22.245573],[114.1494288,22.2455741],[114.1494271,22.245585],[114.1494454,22.2455859],[114.1494454,22.2455859],[114.1494607,22.2455867],[114.14946,22.2455703],[114.1495549,22.2455941],[114.1495894,22.245607],[114.1496533,22.2456155],[114.1497034,22.2456361],[114.1497975,22.2456271],[114.1498558,22.2456109],[114.1498556,22.2456043],[114.1498633,22.2456052],[114.1498833,22.2456419],[114.1499263,22.2456639],[114.1500682,22.2456617],[114.1500687,22.2456769],[114.1502239,22.2456741],[114.1502229,22.2456013],[114.1502829,22.2455906],[114.1502902,22.2456053],[114.1504489,22.2456426],[114.1504489,22.2456426],[114.1506241,22.245684],[114.1506241,22.245684],[114.1507617,22.2457165],[114.152328,22.2452992],[114.1526487,22.245013],[114.1540245,22.2445956],[114.1542511,22.2446723],[114.1542511,22.2446723],[114.1542296,22.244746],[114.1542063,22.2447395],[114.1541862,22.2448027],[114.1542461,22.2448185],[114.1542656,22.244756],[114.1542479,22.2447511],[114.154269,22.2446784],[114.154269,22.2446784],[114.1547748,22.2448497],[114.1547748,22.2448497],[114.1549921,22.2449233],[114.1549921,22.2449233],[114.1553236,22.2450356],[114.1553236,22.2450356],[114.1560014,22.2452649],[114.1560014,22.2452649],[114.1569466,22.2455837],[114.1569466,22.2455837],[114.1570333,22.2456128],[114.1570333,22.2456128],[114.1572065,22.2456711],[114.1572065,22.2456711],[114.1574345,22.245748],[114.1574345,22.245748],[114.1575251,22.2457786],[114.1578905,22.2457072],[114.1578905,22.2457072],[114.1583167,22.2456239],[114.1583167,22.2456239],[114.1584186,22.245604],[114.1584186,22.245604],[114.1587353,22.2455423],[114.1592253,22.2452731],[114.1592253,22.2452731],[114.1593117,22.2451953],[114.1593117,22.2451953],[114.1593117,22.2451953],[114.1601848,22.2460181],[114.1601848,22.2460181],[114.1601848,22.2460181],[114.1600735,22.2460585],[114.1600735,22.2460585],[114.1600691,22.2460821],[114.160074,22.2461075],[114.1601176,22.2461505],[114.1601243,22.2462007],[114.1601243,22.2462007],[114.1601266,22.2462043]]]]},"properties":{"GmlID":"TyphoonShelter.1","OBJNAM":"Aberdeen West Typhoon Shelter","INFORM":"Vessels with a length overall of more than 30.4 metres (100 feet) are prohibited from entering or remaining. The maximum permitted speed is 5 knots.","OBJECTID":1}},{"type":"Feature","geometry":{"type":"MultiPolygon","coordinates":[[[[114.2131932,22.4569176],[114.2127466,22.4570075],[114.2127466,22.4570075],[114.2120085,22.457156],[114.2116617,22.45721],[114.2115197,22.457223],[114.2111711,22.4572077],[114.2107815,22.4571305],[114.2105852,22.4570208],[114.2102142,22.4570319],[114.2096849,22.4569797],[114.20957,22.4569337],[114.2095234,22.4568845],[114.2094732,22.456877],[114.209327,22.4567206],[114.2092796,22.4567106],[114.2092048,22.456718],[114.2092048,22.456718],[114.209479,22.4563522],[114.209479,22.4563522],[114.2097193,22.4560316],[114.2097193,22.4560316],[114.2107036,22.4547181],[114.2107837,22.4546104],[114.2107837,22.4546104],[114.2116003,22.453513],[114.2116153,22.4534799],[114.2116169,22.4534661],[114.2116137,22.4534356],[114.2116031,22.4534129],[114.2115833,22.4533882],[114.2115632,22.4533716],[114.2115372,22.4533617],[114.2115372,22.4533617],[114.2121822,22.4525181],[114.2121822,22.4525181],[114.2123273,22.4526171],[114.2124382,22.4526715],[114.2125498,22.452767],[114.2125953,22.4528344],[114.2126159,22.4529263],[114.2126139,22.4532201],[114.2127096,22.4533934],[114.2127396,22.4535053],[114.2127396,22.4535053],[114.2126911,22.4535366],[114.2127014,22.4535458],[114.2126496,22.4535867],[114.2126594,22.4535956],[114.2127126,22.4535551],[114.2127445,22.453581],[114.2127817,22.453551],[114.2127817,22.453551],[114.2129093,22.4536627],[114.212944,22.4536983],[114.2129754,22.4536755],[114.21307,22.4537555],[114.2133587,22.4539407],[114.2133433,22.4539635],[114.2133786,22.4539938],[114.2133786,22.4539938],[114.2133506,22.4540223],[114.2133114,22.4540816],[114.2132798,22.454057],[114.2132532,22.4540927],[114.2132769,22.4541107],[114.2132738,22.4541211],[114.2132921,22.4541321],[114.2133456,22.4540568],[114.2133682,22.4540689],[114.2134109,22.454016],[114.2134109,22.454016],[114.2135479,22.4540903],[114.2135479,22.4540903],[114.2135992,22.454133],[114.2135992,22.454133],[114.2135361,22.4542315],[114.2135453,22.4542367],[114.2136079,22.4541387],[114.2136079,22.4541387],[114.2136136,22.4541424],[114.2137046,22.4541738],[114.2137597,22.4541989],[114.2137597,22.4541989],[114.2137384,22.4542339],[114.2136756,22.4543392],[114.2136832,22.4543437],[114.2137674,22.4542043],[114.2137674,22.4542043],[114.2138319,22.4542468],[114.2138479,22.4542617],[114.213892,22.4543098],[114.213892,22.4543098],[114.2137665,22.4543826],[114.213771,22.454388],[114.2138963,22.4543159],[114.2138963,22.4543159],[114.2139241,22.454355],[114.2139579,22.4544149],[114.2139594,22.4544291],[114.2139401,22.4544641],[114.2138547,22.4544895],[114.2138641,22.4545472],[114.2138255,22.4545643],[114.2138255,22.4545643],[114.2138317,22.4545781],[114.213979,22.4545009],[114.2140446,22.4545519],[114.213988,22.4546039],[114.2140083,22.4546323],[114.2141145,22.4545511],[114.2141436,22.4545549],[114.2141614,22.4545424],[114.2141614,22.4545424],[114.2140877,22.4547916],[114.2140836,22.4548036],[114.2140836,22.4548036],[114.2140508,22.4547948],[114.2140131,22.4547977],[114.2139494,22.4547867],[114.2139463,22.4547972],[114.2140115,22.4548074],[114.2140564,22.454806],[114.2140845,22.4548134],[114.2140877,22.4548525],[114.2141061,22.4548558],[114.2141061,22.4548558],[114.2140765,22.4550181],[114.2140765,22.4550181],[114.2138836,22.4549801],[114.213881,22.4549892],[114.2140742,22.4550272],[114.2140742,22.4550272],[114.2140603,22.4550788],[114.2140136,22.4553584],[114.2139642,22.4554582],[114.2138358,22.4554057],[114.2137951,22.4554942],[114.2137951,22.4554942],[114.2137758,22.4554743],[114.2137401,22.4554297],[114.2137327,22.4554353],[114.2137672,22.4554802],[114.2137911,22.4555043],[114.2137911,22.4555043],[114.2137452,22.4556014],[114.2136682,22.4556708],[114.2136682,22.4556708],[114.2132621,22.4554792],[114.213279,22.4554494],[114.2132434,22.4554302],[114.2132095,22.45549],[114.213265,22.4555157],[114.213265,22.4555157],[114.2136303,22.4556857],[114.2136303,22.4556857],[114.2135872,22.4558016],[114.2135872,22.4558016],[114.2135348,22.4557866],[114.2135326,22.4557967],[114.2135326,22.4557967],[114.2135836,22.4558151],[114.2135836,22.4558151],[114.2135745,22.455913],[114.2135626,22.455971],[114.2135631,22.4560077],[114.2135677,22.456015],[114.2135677,22.456015],[114.2135919,22.4560226],[114.2135703,22.4561261],[114.213545,22.4561183],[114.2135146,22.4562034],[114.2135146,22.4562034],[114.2134359,22.4561818],[114.2134315,22.4561947],[114.2135726,22.4562325],[114.2135726,22.4562325],[114.2135374,22.456334],[114.2135044,22.4563311],[114.2134874,22.4563692],[114.2134874,22.4563692],[114.2133874,22.4563353],[114.2133823,22.4563481],[114.2134163,22.4563582],[114.2134104,22.4563715],[114.213502,22.4564027],[114.213502,22.4564027],[114.2134613,22.4565321],[114.2134475,22.456593],[114.2134475,22.456593],[114.21328,22.4565114],[114.213275,22.4565187],[114.2134478,22.4566045],[114.2134478,22.4566045],[114.2134164,22.456674],[114.2133503,22.4567655],[114.2131932,22.4569176]]]]},"properties":{"GmlID":"TyphoonShelter.2","OBJNAM":"Shuen Wan Typhoon Shelter","INFORM":"Vessels with a length overall of more than 30.4 metres (100 feet) are prohibited from entering or remaining. The maximum permitted speed is 5 knots.","OBJECTID":2}},{"type":"Feature","geometry":{"type":"MultiPolygon","coordinates":[[[[114.2337115,22.2841825],[114.2337104,22.2842305],[114.2337255,22.2842522],[114.2336061,22.2842863],[114.2336061,22.2842863],[114.233543,22.284239],[114.233543,22.284239],[114.2334805,22.2843049],[114.2334574,22.2843294],[114.233318,22.2844575],[114.2332077,22.2845451],[114.2330634,22.2846473],[114.232847,22.2847732],[114.2326902,22.2848404],[114.2326656,22.2847885],[114.2325427,22.2848395],[114.2325672,22.2848932],[114.2325007,22.2849218],[114.2315872,22.2853067],[114.2315872,22.2853067],[114.2315116,22.2853386],[114.2313473,22.2854036],[114.2306949,22.2856685],[114.2305497,22.2857268],[114.2298574,22.2860052],[114.229724,22.2860605],[114.2294809,22.2861368],[114.2292607,22.2861859],[114.2290733,22.2862108],[114.228869,22.2862233],[114.2285203,22.2862005],[114.2284431,22.2862049],[114.2282792,22.2862276],[114.2282257,22.2862447],[114.2281103,22.286302],[114.2280555,22.286325],[114.2280555,22.286325],[114.2279686,22.2863507],[114.2278833,22.2861667],[114.2273599,22.2857905],[114.2273639,22.2857704],[114.2273592,22.2857566],[114.2273592,22.2857566],[114.2273534,22.2857403],[114.2273314,22.2857113],[114.2272991,22.2856786],[114.2272609,22.2856476],[114.2271924,22.2855839],[114.2271054,22.2855125],[114.2266153,22.2850599],[114.2265886,22.285042],[114.2265603,22.2850339],[114.2265196,22.2850479],[114.2264825,22.2850138],[114.2264825,22.2850138],[114.2262314,22.2847841],[114.2260176,22.2848663],[114.2256529,22.2849989],[114.2256529,22.2849989],[114.2256377,22.2849847],[114.2256157,22.2849645],[114.2256157,22.2849645],[114.2256115,22.2849606],[114.2249689,22.284368],[114.2249689,22.284368],[114.2248764,22.2842828],[114.2250404,22.2841284],[114.2250404,22.2841284],[114.2254903,22.2837052],[114.2254903,22.2837052],[114.2260208,22.2832066],[114.2260208,22.2832066],[114.2262107,22.2830282],[114.2262547,22.2830091],[114.2262547,22.2830091],[114.2262804,22.282998],[114.2268992,22.2829969],[114.2279451,22.282997],[114.2279451,22.282997],[114.2282776,22.2829971],[114.2282776,22.2829971],[114.2294133,22.2829972],[114.229657,22.2830308],[114.2299036,22.2830613],[114.2302454,22.2830645],[114.2302454,22.2830645],[114.2302871,22.283065],[114.2302871,22.283065],[114.2303452,22.2830655],[114.2306062,22.2831611],[114.2306062,22.2831611],[114.2309275,22.2832789],[114.2309275,22.2832789],[114.2310621,22.2833281],[114.2312841,22.2834095],[114.2312841,22.2834095],[114.2313223,22.2832599],[114.2313587,22.2832679],[114.2313587,22.2832679],[114.2313382,22.2833547],[114.2314362,22.2833746],[114.2314573,22.2832859],[114.2314573,22.2832859],[114.2314661,22.283249],[114.2314661,22.283249],[114.2314721,22.283224],[114.2314721,22.283224],[114.231574,22.2832458],[114.2315191,22.2834964],[114.231613,22.2835138],[114.2316619,22.2833029],[114.2317641,22.2833207],[114.2317344,22.2834509],[114.2318346,22.2834716],[114.2318755,22.2832895],[114.2319766,22.2832984],[114.2319715,22.2833217],[114.2320671,22.2833419],[114.2320549,22.2833957],[114.2321581,22.2834109],[114.2321733,22.2833413],[114.232274,22.2833592],[114.2322592,22.2834216],[114.2323652,22.2834435],[114.2323863,22.2833361],[114.232488,22.2833453],[114.2324828,22.283367],[114.2325563,22.2833773],[114.2325563,22.2833773],[114.2325271,22.2834898],[114.2326967,22.2835237],[114.2326967,22.2835237],[114.232769,22.2835385],[114.2329727,22.2835799],[114.2329727,22.2835799],[114.2332828,22.283643],[114.2332828,22.283643],[114.2334404,22.2838609],[114.233487,22.2838299],[114.233487,22.2838299],[114.2335477,22.2838694],[114.2335779,22.2839066],[114.2335923,22.2839223],[114.2335923,22.2839223],[114.2336187,22.2839512],[114.233686,22.2840155],[114.2336939,22.2840189],[114.233703,22.2840178],[114.2337461,22.2840036],[114.2337678,22.2839997],[114.2337866,22.2840048],[114.2338031,22.284016],[114.233817,22.2840404],[114.2338163,22.2840595],[114.2337872,22.2841154],[114.2337813,22.284134],[114.233777,22.2841554],[114.233777,22.2841554],[114.2337115,22.2841825]],[[114.2285993,22.2856442],[114.2284682,22.2856315],[114.2283497,22.2856086],[114.2282255,22.285572],[114.2281768,22.2855532],[114.2281155,22.2855307],[114.2279816,22.2854668],[114.2279053,22.2854251],[114.2278275,22.2853741],[114.2277468,22.2853177],[114.2276582,22.2852532],[114.2275918,22.2851971],[114.2275231,22.285135],[114.2274587,22.2850733],[114.227415,22.2850268],[114.2273817,22.2849976],[114.2273499,22.2849737],[114.2273311,22.2849611],[114.2273157,22.2849543],[114.2272983,22.284949],[114.2272768,22.2849477],[114.2272609,22.2849514],[114.2272426,22.2849567],[114.2272426,22.2849567],[114.2272385,22.284959],[114.2272147,22.2849881],[114.2272138,22.2850209],[114.2272335,22.2850592],[114.2272613,22.2850861],[114.2273658,22.2851822],[114.2275719,22.2853689],[114.2276404,22.285423],[114.2277142,22.2854774],[114.227785,22.2855192],[114.2279169,22.2855878],[114.2280477,22.2856432],[114.2281807,22.2856955],[114.2283041,22.2857339],[114.2283744,22.2857525],[114.2285,22.2857734],[114.2285744,22.2857807],[114.2286553,22.2857846],[114.2287451,22.2857884],[114.2288611,22.2857874],[114.2289547,22.285785],[114.2290253,22.2857796],[114.2290693,22.2857775],[114.2291049,22.2857692],[114.2291274,22.2857565],[114.2291416,22.285735],[114.2291518,22.2857088],[114.2291516,22.2856834],[114.2291394,22.2856575],[114.2291174,22.285647],[114.229085,22.2856385],[114.2290456,22.2856414],[114.2289875,22.2856506],[114.2289131,22.2856549],[114.2288212,22.285657],[114.2287463,22.285656],[114.2286895,22.2856522],[114.2285993,22.2856442]]]]},"properties":{"GmlID":"TyphoonShelter.3","OBJNAM":"Shau Kei Wan Typhoon Shelter","INFORM":"Vessels with a length overall of more than 30.4 metres (100 feet) are prohibited from entering or remaining. The maximum permitted speed is 5 knots.","OBJECTID":3}},{"type":"Feature","geometry":{"type":"MultiPolygon","coordinates":[[[[114.1134374,22.3562807],[114.1143389,22.3551116],[114.1144077,22.3550116],[114.1145128,22.3548391],[114.1145528,22.3547541],[114.1146188,22.354574],[114.1146443,22.3544737],[114.1146599,22.3543944],[114.1146716,22.3542882],[114.1146681,22.3541359],[114.114644,22.3539746],[114.1146267,22.3539273],[114.1145972,22.3538951],[114.114554,22.3538776],[114.1145179,22.3538775],[114.1145179,22.3538775],[114.1145159,22.3538784],[114.1143829,22.3531146],[114.1143829,22.3531146],[114.1144344,22.3531046],[114.1144587,22.3530792],[114.1144667,22.3530623],[114.1144667,22.3530623],[114.1144668,22.352773],[114.1144668,22.352773],[114.1144668,22.3526679],[114.1144754,22.3525488],[114.1144967,22.3524353],[114.1145399,22.3523979],[114.1145399,22.3523979],[114.1146872,22.3523908],[114.1147055,22.3523457],[114.1147517,22.3520781],[114.114813,22.3519455],[114.114813,22.3519455],[114.1149349,22.3519478],[114.1151171,22.351722],[114.1150419,22.3515946],[114.1151415,22.3514873],[114.1156194,22.3516425],[114.1156194,22.3516425],[114.1156731,22.3516599],[114.1156731,22.3516599],[114.1159144,22.3517383],[114.116074,22.3526786],[114.116074,22.3526786],[114.1163127,22.3540766],[114.1163127,22.3540766],[114.1164202,22.3547234],[114.1155633,22.3551893],[114.1153406,22.3556765],[114.1153406,22.3556765],[114.1152598,22.3558534],[114.1152598,22.3558534],[114.1152558,22.3558622],[114.1152558,22.3558622],[114.1150851,22.3562355],[114.1150851,22.3562355],[114.1133778,22.3599703],[114.1133778,22.3599703],[114.113289,22.3601647],[114.1130452,22.3600681],[114.1130452,22.3600681],[114.1126027,22.3598928],[114.1126027,22.3598928],[114.1125224,22.359861],[114.1122135,22.3593423],[114.1122558,22.3593209],[114.1122045,22.3592535],[114.1121682,22.3592306],[114.1121682,22.3592306],[114.1121545,22.3592241],[114.1121,22.3592162],[114.1120489,22.3587742],[114.1120638,22.3587746],[114.1120638,22.3587746],[114.1120953,22.3587655],[114.1121117,22.3587544],[114.1121244,22.3587355],[114.1121244,22.3587355],[114.1121332,22.358716],[114.1121382,22.3586873],[114.1121309,22.3585934],[114.1121355,22.3584768],[114.1122023,22.3583199],[114.1122386,22.3582103],[114.1122193,22.3580259],[114.1122588,22.3579115],[114.1123169,22.3577884],[114.1123851,22.3576657],[114.1124728,22.3575261],[114.1125379,22.3574371],[114.1127699,22.3571413],[114.1128054,22.3571341],[114.1128311,22.3571216],[114.112866,22.3570904],[114.1128954,22.3570459],[114.1128954,22.3570459],[114.1129064,22.3570088],[114.1129224,22.3569798],[114.1129081,22.3569616],[114.1130024,22.3568435],[114.1131791,22.3566136],[114.1131791,22.3566136],[114.1133511,22.3563924],[114.1133511,22.3563924],[114.1134374,22.3562807]]]]},"properties":{"GmlID":"TyphoonShelter.4","OBJNAM":"Rambler Channel Typhoon Shelter","INFORM":"Vessels with a length overall of more than 50 metres (164 feet) are prohibited from entering or remaining. The maximum permitted speed is 5 knots.","OBJECTID":4}},{"type":"Feature","geometry":{"type":"MultiPolygon","coordinates":[[[[114.2011317,22.3120403],[114.1969333,22.31535],[114.1946,22.3142333],[114.1946402,22.3141797],[114.1946402,22.3141797],[114.1946486,22.3141852],[114.1946589,22.3141897],[114.1946704,22.3141932],[114.1946934,22.3141942],[114.1947183,22.314188],[114.1947401,22.3141761],[114.1947584,22.3141586],[114.196,22.3123936],[114.196,22.3123936],[114.1964335,22.3117778],[114.1966318,22.311495],[114.1966386,22.311482],[114.1966422,22.311469],[114.1966434,22.3114544],[114.196641,22.3114402],[114.1966361,22.3114267],[114.1966282,22.3114143],[114.1966179,22.3114036],[114.1966117,22.3113995],[114.1966117,22.3113995],[114.1974192,22.3102487],[114.1974192,22.3102487],[114.1995938,22.3112976],[114.2005887,22.3117773],[114.2011317,22.3120403]]]]},"properties":{"GmlID":"TyphoonShelter.5","OBJNAM":"To Kwa Wan Typhoon Shelter","INFORM":"Vessels with a length overall of more than 50 metres (164 feet) are prohibited from entering or remaining. The maximum permitted speed is 5 knots.","OBJECTID":5}},{"type":"Feature","geometry":{"type":"MultiPolygon","coordinates":[[[[114.018412,22.2016559],[114.0184155,22.2016609],[114.0184271,22.2016677],[114.0184446,22.2016711],[114.0184598,22.2016666],[114.0184647,22.2016622],[114.0184665,22.2016531],[114.0184834,22.2016542],[114.0184998,22.2016649],[114.0185108,22.2016683],[114.0185447,22.2016701],[114.0185568,22.201652],[114.0185726,22.2016554],[114.0185799,22.2016543],[114.0185865,22.2016487],[114.0185956,22.2016345],[114.0186108,22.2016295],[114.0186181,22.2016245],[114.0186235,22.2016103],[114.0186308,22.2016012],[114.0186327,22.2016097],[114.0186447,22.2016239],[114.0186514,22.2016262],[114.0186641,22.2016358],[114.0186732,22.201638],[114.0186805,22.2016364],[114.0186854,22.2016296],[114.0186913,22.2016262],[114.0186986,22.2016284],[114.0187065,22.201625],[114.0187175,22.2016025],[114.0187285,22.2016172],[114.0187411,22.2016274],[114.0187484,22.2016308],[114.0187562,22.2016297],[114.018755,22.2016528],[114.0187586,22.201659],[114.0187678,22.201663],[114.0188059,22.2016732],[114.0188138,22.2016777],[114.0188101,22.2016856],[114.0188108,22.2016957],[114.0188167,22.2017098],[114.0188216,22.2017161],[114.0188283,22.2017218],[114.0188373,22.201724],[114.0188458,22.2017234],[114.0188755,22.201754],[114.0188828,22.2017567],[114.0188906,22.2017567],[114.0188973,22.2017545],[114.0189186,22.2017376],[114.0189234,22.2017314],[114.0189301,22.2017275],[114.0189471,22.2017297],[114.0189611,22.2017224],[114.0189757,22.2017032],[114.0189823,22.2016846],[114.0189907,22.2016846],[114.0189974,22.2016818],[114.0190047,22.2016846],[114.0190223,22.2016852],[114.0190307,22.2016824],[114.0190368,22.2016773],[114.0190435,22.201683],[114.0190514,22.201683],[114.0190592,22.2016802],[114.0190708,22.2016717],[114.0190787,22.2016768],[114.0190872,22.2016752],[114.019095,22.2016706],[114.0191077,22.2016588],[114.0191145,22.2016616],[114.019129,22.2016554],[114.019135,22.2016504],[114.0191477,22.2016312],[114.0191569,22.2016346],[114.0191805,22.2016328],[114.0191811,22.2016369],[114.0192059,22.2016346],[114.0192309,22.2016346],[114.019246,22.2016307],[114.0192678,22.2016324],[114.0192927,22.2016297],[114.0193139,22.20162],[114.0193303,22.2016048],[114.0193369,22.2016195],[114.0193429,22.2016269],[114.0193497,22.2016314],[114.0193594,22.2016286],[114.0193624,22.2016364],[114.019369,22.2016416],[114.0193781,22.2016438],[114.0194035,22.2016376],[114.0194072,22.2016495],[114.0194139,22.2016535],[114.0194224,22.2016546],[114.0194375,22.2016501],[114.0194599,22.2016377],[114.019489,22.2016327],[114.0195145,22.2016214],[114.0195351,22.201605],[114.0195685,22.201569],[114.0195752,22.2015803],[114.0195825,22.2015848],[114.0195903,22.2015841],[114.019597,22.2015796],[114.0196049,22.201578],[114.0196133,22.2015876],[114.0196218,22.2015898],[114.0196285,22.2015866],[114.0196382,22.2015921],[114.0196472,22.2015922],[114.0196509,22.2016012],[114.0196558,22.2016068],[114.0196708,22.2016131],[114.019686,22.2016147],[114.0197005,22.201621],[114.0197005,22.201621],[114.0197102,22.2016148],[114.0197188,22.2016137],[114.0197255,22.2016085],[114.0197285,22.2016041],[114.0197297,22.2015956],[114.0197533,22.2015714],[114.01976,22.2015584],[114.0197673,22.2015534],[114.0197746,22.2015448],[114.0197807,22.201533],[114.0197922,22.2014975],[114.0197923,22.2014579],[114.0197977,22.2014523],[114.0197996,22.2014444],[114.0197966,22.201437],[114.0197917,22.2014337],[114.0198003,22.2014263],[114.019802,22.2014184],[114.0197996,22.2014106],[114.0197906,22.2014038],[114.0198158,22.2013971],[114.0198158,22.2013971],[114.0198252,22.2013947],[114.0198311,22.2013857],[114.0198475,22.2013774],[114.0198585,22.2013671],[114.0198615,22.2013593],[114.01987,22.2013474],[114.0198767,22.2013271],[114.0198907,22.2013096],[114.0198967,22.2012933],[114.0199016,22.2012888],[114.019904,22.2012814],[114.0198986,22.2012769],[114.0198986,22.2012769],[114.0199671,22.2012865],[114.019984,22.2012877],[114.020843,22.201288],[114.0208684,22.2012784],[114.020886,22.2012513],[114.0208799,22.2012163],[114.0208612,22.2012005],[114.0208357,22.201196],[114.0208364,22.2011423],[114.0207316,22.2011417],[114.0207321,22.2011976],[114.0203712,22.2011975],[114.0203712,22.2011975],[114.0200091,22.2011974],[114.0199835,22.2011991],[114.0199671,22.2011979],[114.0199412,22.2011929],[114.0199412,22.2011929],[114.0199483,22.20119],[114.019969,22.201177],[114.0199817,22.201164],[114.019992,22.2011495],[114.0199951,22.2011354],[114.0199927,22.2011274],[114.0199878,22.2011201],[114.0199933,22.2011043],[114.0199915,22.2011003],[114.0200049,22.2010878],[114.020014,22.2010743],[114.020014,22.2010676],[114.020008,22.2010517],[114.0200141,22.2010354],[114.0200116,22.2010264],[114.0200031,22.2010134],[114.0200044,22.2010101],[114.0199983,22.2009897],[114.0200013,22.2009858],[114.0200002,22.2009812],[114.0199741,22.2009614],[114.0199911,22.2009366],[114.0200148,22.2008751],[114.0200136,22.200857],[114.0200081,22.2008412],[114.0200081,22.2008412],[114.0200053,22.2007561],[114.020007,22.2007374],[114.0200156,22.2007154],[114.0200332,22.2006957],[114.0200501,22.2006844],[114.0200937,22.2006684],[114.0200937,22.2006684],[114.0202393,22.2006152],[114.0209119,22.2003725],[114.0209415,22.2003652],[114.0210264,22.2003636],[114.0210876,22.2003772],[114.0211118,22.2003902],[114.0211565,22.2004326],[114.021185,22.2004795],[114.0212049,22.2005434],[114.0212017,22.2012844],[114.0212143,22.2014058],[114.0212264,22.2014481],[114.0212264,22.2014481],[114.0214833,22.2020269],[114.0218048,22.2027453],[114.0218048,22.2027453],[114.0219969,22.2031748],[114.0219969,22.2031748],[114.0222842,22.2038167],[114.0222842,22.2038167],[114.0225069,22.2043144],[114.0225069,22.2043144],[114.0226888,22.2047158],[114.0227245,22.2047683],[114.0227857,22.2048327],[114.0228425,22.2048771],[114.0228425,22.2048771],[114.0230752,22.2050204],[114.0231982,22.205105],[114.0234471,22.2053109],[114.0234445,22.2053938],[114.0234445,22.2053938],[114.0256896,22.2054417],[114.0273975,22.2057047],[114.0274998,22.2057459],[114.0275731,22.2058459],[114.0278934,22.2066556],[114.0279006,22.2067662],[114.0279006,22.2067662],[114.027809,22.2067989],[114.0279468,22.2071366],[114.0280347,22.2071072],[114.0280347,22.2071072],[114.028102,22.2071514],[114.028255,22.20751],[114.0282967,22.2075642],[114.0283694,22.2076037],[114.0286203,22.2076903],[114.0286808,22.2077259],[114.028696,22.2077779],[114.0286947,22.2079192],[114.0286947,22.2079192],[114.0286463,22.2079192],[114.0286459,22.2079401],[114.0284344,22.2079331],[114.0284344,22.2079331],[114.0283293,22.2079297],[114.0282501,22.2079271],[114.0282444,22.2080324],[114.0283397,22.2080363],[114.0283397,22.2080363],[114.0286872,22.2080504],[114.0286872,22.2080504],[114.0286517,22.2084807],[114.0286517,22.2084807],[114.0283211,22.2084364],[114.0283211,22.2084364],[114.0280695,22.208403],[114.0280275,22.2086757],[114.0284023,22.2087248],[114.0284023,22.2087248],[114.0285897,22.2087496],[114.0285897,22.2087496],[114.0284658,22.2096145],[114.0284658,22.2096145],[114.0283972,22.2099755],[114.0283729,22.2100589],[114.0283383,22.2100634],[114.0283176,22.2100809],[114.0281094,22.2104233],[114.0263802,22.2118508],[114.0253373,22.2116749],[114.0253373,22.2116749],[114.0253617,22.2115473],[114.0253829,22.2115506],[114.025384,22.2115457],[114.025384,22.2115457],[114.025392,22.2115112],[114.0253248,22.2114998],[114.0253209,22.2115246],[114.0253209,22.2115246],[114.0253186,22.2115394],[114.0253399,22.2115433],[114.0253161,22.2116708],[114.0253161,22.2116708],[114.0250835,22.2116319],[114.0247785,22.2115811],[114.0244505,22.2115481],[114.0240416,22.2114642],[114.0236384,22.2114361],[114.0236384,22.2114361],[114.0236209,22.2114496],[114.0235774,22.2117099],[114.0235774,22.2117099],[114.023574,22.2117307],[114.0235599,22.2117848],[114.0235593,22.2118362],[114.0235768,22.2118593],[114.0235428,22.2118797],[114.023507,22.2118808],[114.0235161,22.2119067],[114.0234895,22.2119152],[114.0234446,22.2119079],[114.0233936,22.2119179],[114.0233318,22.2119168],[114.0232591,22.2119206],[114.0232052,22.2118969],[114.0231622,22.21189],[114.0231306,22.2119199],[114.0230902,22.2119528],[114.0230902,22.2119528],[114.0227662,22.2116737],[114.0227662,22.2116737],[114.0227721,22.211665],[114.0227833,22.2116219],[114.02278,22.2116001],[114.0219989,22.2098476],[114.0219989,22.2098476],[114.0219386,22.2097121],[114.021911,22.2096631],[114.0218659,22.2096526],[114.0218232,22.2096615],[114.021808,22.2096817],[114.021808,22.2096817],[114.0206965,22.2095784],[114.0206965,22.2095784],[114.0207874,22.209339],[114.0207874,22.209339],[114.0214969,22.2074775],[114.0215594,22.2073119],[114.0215594,22.2073119],[114.0217377,22.2068391],[114.0217112,22.2067837],[114.0216741,22.2067649],[114.0216294,22.2067629],[114.021572,22.2068024],[114.0215521,22.206854],[114.0215521,22.206854],[114.0209411,22.2068795],[114.0209411,22.2068795],[114.0209208,22.2068355],[114.0209208,22.2068355],[114.0208827,22.2067526],[114.0208827,22.2067526],[114.0207186,22.2063963],[114.0205323,22.206023],[114.0205323,22.206023],[114.0204059,22.2057701],[114.0204059,22.2057701],[114.0185023,22.2019589],[114.0184701,22.2019188],[114.0184155,22.2019126],[114.0184155,22.2019126],[114.018412,22.2016559]]]]},"properties":{"GmlID":"TyphoonShelter.6","OBJNAM":"Cheung Chau Typhoon Shelter","INFORM":"Vessels with a length overall of more than 50 metres (164 feet) are prohibited from entering or remaining. The maximum permitted speed is 5 knots.","OBJECTID":6}},{"type":"Feature","geometry":{"type":"MultiPolygon","coordinates":[[[[114.1890447,22.2849163],[114.1893003,22.2849839],[114.1893227,22.2849484],[114.1893622,22.2849585],[114.1893555,22.285015],[114.1894685,22.285046],[114.1896666,22.2851001],[114.1896981,22.2851267],[114.1897149,22.2852164],[114.1899041,22.2851896],[114.1899469,22.2853699],[114.1899633,22.2855086],[114.18977,22.2855392],[114.1898098,22.2857611],[114.1894734,22.2859005],[114.189397,22.2859322],[114.189397,22.2859322],[114.1891658,22.286028],[114.1891658,22.286028],[114.1891099,22.2860512],[114.1888025,22.2869103],[114.1888327,22.2869504],[114.1888327,22.2869504],[114.188894,22.2870317],[114.188894,22.2870317],[114.1887864,22.2870989],[114.1887864,22.2870989],[114.1887217,22.2871394],[114.1887217,22.2871394],[114.1885125,22.2872706],[114.1885125,22.2872706],[114.1882754,22.2874191],[114.1882754,22.2874191],[114.187505,22.287902],[114.187505,22.287902],[114.1875,22.2870143],[114.1875,22.2870143],[114.1875034,22.2870142],[114.1875203,22.2870102],[114.1875343,22.287004],[114.1875574,22.2869848],[114.1875755,22.2869425],[114.1875725,22.2869121],[114.1875586,22.2868866],[114.1875586,22.2868866],[114.1875325,22.2868693],[114.1875325,22.2868693],[114.1875168,22.2868589],[114.18481,22.2861368],[114.18481,22.2861368],[114.1830615,22.2856705],[114.1830615,22.2856705],[114.1830294,22.2856693],[114.1830002,22.2856795],[114.1829633,22.2857183],[114.1829633,22.2857183],[114.1824254,22.2855529],[114.1824254,22.2855529],[114.1824584,22.2854794],[114.1824584,22.2854794],[114.1825026,22.2853808],[114.1825026,22.2853808],[114.1825461,22.2852838],[114.1825461,22.2852838],[114.1826222,22.2851142],[114.1826222,22.2851142],[114.1827455,22.2848391],[114.1827455,22.2848391],[114.1828563,22.2848686],[114.1828563,22.2848686],[114.1832268,22.2849672],[114.1832268,22.2849672],[114.1833132,22.2849903],[114.1833272,22.2849842],[114.1833307,22.2849694],[114.1833266,22.2849621],[114.1833211,22.2849581],[114.1832576,22.284941],[114.1832576,22.284941],[114.1833142,22.2849562],[114.1831488,22.2849119],[114.1831488,22.2849119],[114.1828662,22.2848362],[114.1828662,22.2848362],[114.1829256,22.2846144],[114.1830372,22.284612],[114.1830381,22.2846548],[114.1830542,22.2846688],[114.1830542,22.2846688],[114.1830555,22.2846701],[114.1832158,22.2846679],[114.1832158,22.2846679],[114.1832341,22.2846677],[114.1832895,22.2846676],[114.1832895,22.2846676],[114.1833014,22.2846676],[114.1833128,22.2846526],[114.1833123,22.2845315],[114.1833165,22.2845313],[114.1833369,22.2845318],[114.1833409,22.2845311],[114.1833445,22.2845298],[114.1833477,22.2845278],[114.1833506,22.2845254],[114.1833529,22.2845225],[114.1833546,22.2845193],[114.1833557,22.2845158],[114.1833561,22.284513],[114.1833559,22.2845103],[114.1833488,22.2844726],[114.1833793,22.2844685],[114.1833793,22.2844685],[114.1833469,22.2842907],[114.1832929,22.283973],[114.1832929,22.283973],[114.1834231,22.2839525],[114.1834171,22.2839157],[114.1832863,22.2839342],[114.1832863,22.2839342],[114.1832765,22.2838767],[114.1832765,22.2838767],[114.1833703,22.2838622],[114.1833703,22.2838622],[114.1834051,22.2838569],[114.1833993,22.2838213],[114.183295,22.2838381],[114.183295,22.2838381],[114.1832706,22.2838421],[114.1832706,22.2838421],[114.1832683,22.2838301],[114.1832683,22.2838301],[114.1831766,22.2833431],[114.1832031,22.2833384],[114.1831982,22.2833094],[114.1831982,22.2833094],[114.1831831,22.2832204],[114.1831831,22.2832204],[114.1831541,22.2830615],[114.1831541,22.2830615],[114.1831289,22.282924],[114.1831027,22.2829282],[114.1830697,22.282775],[114.1830697,22.282775],[114.1830547,22.2827052],[114.1830547,22.2827052],[114.1830397,22.2826357],[114.1830126,22.2826407],[114.1829902,22.2825293],[114.1830316,22.2824335],[114.18305,22.2823893],[114.1830742,22.2823483],[114.1830742,22.2823483],[114.1831918,22.2823071],[114.1832295,22.2823211],[114.1832295,22.2823211],[114.1835272,22.2824318],[114.1836182,22.2824895],[114.1836182,22.2824895],[114.1842546,22.2828939],[114.1842546,22.2828939],[114.1848694,22.2832846],[114.1849124,22.2835318],[114.1850343,22.2836227],[114.1850404,22.283621],[114.1854227,22.2839103],[114.1854774,22.283948],[114.1855674,22.2840143],[114.1855674,22.2840143],[114.1856191,22.2840523],[114.1856688,22.2840697],[114.1857621,22.2841015],[114.185838,22.2841277],[114.1858848,22.284144],[114.1859799,22.2841768],[114.1860547,22.2842035],[114.1861138,22.2842228],[114.1861713,22.2842425],[114.1862186,22.2842386],[114.1862987,22.2842276],[114.1862987,22.2842276],[114.1863928,22.284213],[114.1864222,22.2842295],[114.1864428,22.2842393],[114.1864656,22.284248],[114.1865143,22.2842624],[114.1865317,22.2842673],[114.1865317,22.2842673],[114.1865616,22.2842753],[114.1866295,22.2842928],[114.1867997,22.2843358],[114.1875956,22.2845414],[114.187786,22.2845905],[114.1882236,22.2847036],[114.1886233,22.2848063],[114.1886233,22.2848063],[114.1888345,22.2848609],[114.1890447,22.2849163]]]]},"properties":{"GmlID":"TyphoonShelter.7","OBJNAM":"Causeway Bay Typhoon Shelter","INFORM":"Vessels with a length overall of more than 30.4 metres (100 feet) are prohibited from entering or remaining. The maximum permitted speed is 5 knots.","OBJECTID":7}},{"type":"Feature","geometry":{"type":"MultiPolygon","coordinates":[[[[114.2372107,22.2903526],[114.2372021,22.2903317],[114.2372331,22.2903026],[114.2372376,22.2902897],[114.2372512,22.2902508],[114.2372475,22.2902148],[114.2372272,22.2901716],[114.2372187,22.2901647],[114.2375566,22.2898268],[114.2375917,22.2898945],[114.2375274,22.2899211],[114.2375343,22.2899344],[114.2375956,22.2899078],[114.2376031,22.2899223],[114.2375676,22.2899383],[114.2375871,22.289977],[114.2376124,22.2899658],[114.2376557,22.2900464],[114.2376141,22.2900698],[114.2376141,22.2900698],[114.2376558,22.290122],[114.2376918,22.2901061],[114.2376968,22.2901171],[114.2376713,22.2901389],[114.2376904,22.2901741],[114.2377147,22.2901622],[114.237737,22.2902016],[114.2377092,22.2902177],[114.2378799,22.2905353],[114.2378841,22.2905767],[114.2378841,22.2905767],[114.2378643,22.290591],[114.2378772,22.2906167],[114.2379234,22.2905901],[114.2379627,22.2906523],[114.2379804,22.2906535],[114.2379804,22.2906535],[114.2380359,22.2907616],[114.2380359,22.2907616],[114.2380765,22.290743],[114.2381238,22.2908279],[114.2381862,22.2908207],[114.2382355,22.2909115],[114.2382635,22.290903],[114.2382635,22.290903],[114.23827,22.2908998],[114.2385571,22.2914644],[114.2385777,22.2915204],[114.2385716,22.2915858],[114.2385646,22.2915952],[114.2385646,22.2915952],[114.2385437,22.2916231],[114.2384629,22.2917007],[114.2384629,22.2917007],[114.237821,22.2923174],[114.2372212,22.2917865],[114.2371604,22.2917369],[114.2364804,22.2911267],[114.2364804,22.2911267],[114.236472,22.2911192],[114.2364495,22.2910908],[114.2364487,22.2910811],[114.2364507,22.2910758],[114.2364554,22.2910698],[114.2364554,22.2910698],[114.2367657,22.2907763],[114.2371627,22.2903982],[114.2372107,22.2903526]]]]},"properties":{"GmlID":"TyphoonShelter.8","OBJNAM":"Sam Ka Tsuen Typhoon Shelter","INFORM":"Vessels with a length overall of more than 30.4 metres (100 feet) are prohibited from entering or remaining. The maximum permitted speed is 5 knots.","OBJECTID":8}},{"type":"Feature","geometry":{"type":"MultiPolygon","coordinates":[[[[114.2207627,22.3083213],[114.2207388,22.3083516],[114.2207388,22.3083516],[114.220553,22.3082254],[114.2205083,22.3082824],[114.2203846,22.3082072],[114.2203478,22.3082113],[114.2203272,22.3082376],[114.2203899,22.3082801],[114.2203899,22.3082801],[114.2204208,22.3082408],[114.2205037,22.3082882],[114.2206894,22.3084144],[114.2206894,22.3084144],[114.2204515,22.3087182],[114.2204515,22.3087182],[114.2202386,22.3085748],[114.2202386,22.3085748],[114.2200363,22.3084386],[114.2199558,22.3085416],[114.2201907,22.3086985],[114.2201907,22.3086985],[114.2203724,22.3088199],[114.2203724,22.3088199],[114.2199023,22.3094218],[114.2198691,22.3093993],[114.2198691,22.3093993],[114.2196545,22.3092545],[114.2196545,22.3092545],[114.2194735,22.3091325],[114.2187211,22.3100885],[114.2184054,22.3104488],[114.2184054,22.3104488],[114.2173961,22.3116008],[114.2173065,22.3116919],[114.2172228,22.3117731],[114.2167626,22.3122416],[114.2167626,22.3122416],[114.216378,22.312633],[114.216378,22.312633],[114.214303,22.3147454],[114.2134361,22.3155229],[114.2134361,22.3155229],[114.2134359,22.3155229],[114.2128166,22.314924],[114.2128166,22.314924],[114.2109833,22.31315],[114.2096327,22.3118493],[114.2108202,22.3107865],[114.2108202,22.3107865],[114.2109769,22.3106464],[114.2109769,22.3106464],[114.211574,22.310112],[114.2117372,22.3099805],[114.2117372,22.3099805],[114.2118427,22.3098956],[114.2119737,22.3098102],[114.2119737,22.3098102],[114.2121913,22.3096683],[114.2121996,22.3096791],[114.2122078,22.3096738],[114.2121999,22.3096637],[114.2124355,22.3095172],[114.2126104,22.3094493],[114.2126213,22.309491],[114.212637,22.3094878],[114.2126263,22.3094451],[114.2128549,22.3093805],[114.2132783,22.3097851],[114.2132783,22.3097851],[114.2131708,22.3098825],[114.2130179,22.3097331],[114.2129744,22.3097716],[114.2130113,22.3098073],[114.2130113,22.3098073],[114.213169,22.3099603],[114.2133208,22.3098244],[114.2133208,22.3098244],[114.2133422,22.3098053],[114.2133422,22.3098053],[114.2133666,22.3098155],[114.2133882,22.3098123],[114.2134356,22.3097705],[114.2134092,22.3097453],[114.2134023,22.3097513],[114.2133763,22.3097264],[114.2134073,22.3096984],[114.2134516,22.3097544],[114.2134826,22.3097253],[114.2134826,22.3097253],[114.2136209,22.3095954],[114.213864,22.3093808],[114.213864,22.3093808],[114.2143574,22.3089458],[114.2143574,22.3089458],[114.2146375,22.3086987],[114.2146375,22.3086987],[114.2152343,22.3081725],[114.2153063,22.308097],[114.2153795,22.3079896],[114.2153944,22.3079591],[114.2153944,22.3079591],[114.2154244,22.3078978],[114.2154522,22.3078101],[114.2154665,22.3077032],[114.2154647,22.3076776],[114.2154647,22.3076776],[114.2154605,22.3076154],[114.2153268,22.3068666],[114.2153274,22.3068392],[114.2153382,22.3068113],[114.2157882,22.3063241],[114.2159532,22.3061768],[114.2159532,22.3061768],[114.2166481,22.3055567],[114.2166481,22.3055567],[114.217213,22.3050527],[114.217213,22.3050527],[114.217225,22.3050421],[114.2172651,22.3049987],[114.2175043,22.3052037],[114.2174926,22.3052255],[114.2174915,22.3052566],[114.2175003,22.3052773],[114.2175003,22.3052773],[114.2175048,22.3052882],[114.217529,22.3053125],[114.2175873,22.3053276],[114.2177681,22.3053017],[114.2177784,22.3052893],[114.2183922,22.3051904],[114.2184747,22.3051909],[114.2185717,22.305205],[114.2186651,22.3052332],[114.2187415,22.3052732],[114.2193737,22.3057155],[114.2195303,22.3058233],[114.2195715,22.3058679],[114.2197111,22.3059645],[114.219742,22.3059723],[114.2197711,22.30597],[114.2197874,22.3059628],[114.2197874,22.3059628],[114.2197887,22.3059622],[114.2188275,22.3067548],[114.2188063,22.3067551],[114.2188063,22.3067551],[114.2187954,22.3067554],[114.2187644,22.3067672],[114.2187431,22.3067858],[114.2187293,22.3068136],[114.2187269,22.3068445],[114.2187378,22.3068733],[114.218759,22.3068965],[114.218759,22.3068965],[114.2187851,22.3069095],[114.2188264,22.3069167],[114.2191821,22.3071587],[114.2191821,22.3071587],[114.2192377,22.3071966],[114.2194179,22.3073179],[114.2194179,22.3073179],[114.2196879,22.3074998],[114.2196879,22.3074998],[114.2200906,22.3077709],[114.2200906,22.3077709],[114.2200557,22.3078136],[114.2200557,22.3078136],[114.2200416,22.3078343],[114.2207627,22.3083213]]]]},"properties":{"GmlID":"TyphoonShelter.9","OBJNAM":"Kwun Tong Typhoon Shelter","INFORM":"Vessels with a length overall of more than 50 metres (164 feet) are prohibited from entering or remaining. The maximum permitted speed is 5 knots.","OBJECTID":9}},{"type":"Feature","geometry":{"type":"MultiPolygon","coordinates":[[[[114.0388152,22.2425374],[114.0387528,22.2435873],[114.0387528,22.2435873],[114.0386375,22.243575],[114.0385138,22.2436325],[114.0385138,22.2436325],[114.0384246,22.2437023],[114.0383827,22.2437717],[114.0383644,22.2438495],[114.0383758,22.243946],[114.0384088,22.2440345],[114.0384088,22.2440345],[114.0380767,22.2441551],[114.0309725,22.2530259],[114.0274,22.2531833],[114.0274,22.2531833],[114.0269268,22.2521206],[114.0269268,22.2521206],[114.0269576,22.2521101],[114.0270038,22.2520757],[114.0270298,22.2520357],[114.0270354,22.2519747],[114.0270081,22.2518844],[114.0269256,22.2512248],[114.0268765,22.2508334],[114.0268013,22.2502897],[114.0267032,22.2496304],[114.0265865,22.2488152],[114.0263959,22.2473893],[114.0263418,22.2468802],[114.0263354,22.2466692],[114.0263355,22.246598],[114.0263666,22.2463513],[114.0264026,22.2462565],[114.0264464,22.2461697],[114.0266116,22.2458921],[114.0266759,22.2458097],[114.0267846,22.2456908],[114.0270808,22.2453316],[114.0273948,22.2449458],[114.0276947,22.2445555],[114.0283339,22.2437728],[114.0285847,22.2434558],[114.0288932,22.2430832],[114.029261,22.2426165],[114.0296532,22.2421377],[114.0298767,22.2418573],[114.0300052,22.2416802],[114.0301849,22.2414801],[114.0302966,22.2413888],[114.0304221,22.2413114],[114.0304221,22.2413114],[114.0305677,22.2412405],[114.0308462,22.2411759],[114.0310001,22.2411614],[114.0311608,22.2411559],[114.0312675,22.2411605],[114.0314188,22.2411866],[114.0314188,22.2411866],[114.031527,22.2412239],[114.0316493,22.2412855],[114.03175,22.2412631],[114.0318089,22.2411735],[114.0317726,22.2410543],[114.0316757,22.2410096],[114.031533,22.2409657],[114.031533,22.2409657],[114.030491,22.2394734],[114.030491,22.2394734],[114.0309955,22.2393388],[114.0313658,22.2393641],[114.0317588,22.2394527],[114.0320101,22.2395323],[114.0324089,22.2396975],[114.0328132,22.2398801],[114.0334452,22.2401347],[114.033987,22.2403632],[114.0343469,22.240513],[114.0351602,22.2408497],[114.0362716,22.2413129],[114.0375375,22.241848],[114.0379642,22.2420369],[114.0381115,22.2421058],[114.0382921,22.2422178],[114.0387289,22.2425224],[114.0388152,22.2425374]],[[114.0366253,22.2440348],[114.0365409,22.2441662],[114.0366129,22.2442786],[114.0367712,22.2443273],[114.0368767,22.2442783],[114.0369398,22.2441954],[114.0369242,22.2440807],[114.036797,22.2439577],[114.036734,22.2439537],[114.0366253,22.2440348]]]]},"properties":{"GmlID":"TyphoonShelter.10","OBJNAM":"Hei Ling Chau Typhoon Shelter","INFORM":"Vessels with a length overall of more than 75 metres (246 feet) are prohibited from entering or remaining. The maximum permitted speed is 5 knots.","OBJECTID":10}},{"type":"Feature","geometry":{"type":"MultiPolygon","coordinates":[[[[113.9734637,22.3721286],[113.973461,22.3721306],[113.9734454,22.3721934],[113.9734602,22.3722153],[113.9761247,22.3728368],[113.9766133,22.3729513],[113.9773218,22.3731179],[113.9773218,22.3731179],[113.9773964,22.3740378],[113.9773964,22.3740378],[113.9773394,22.3740506],[113.9771639,22.3741135],[113.9770995,22.374149],[113.9770132,22.3742127],[113.9768723,22.3743575],[113.9767428,22.3745504],[113.9762072,22.3754051],[113.9762072,22.3754051],[113.9758041,22.3760488],[113.9758041,22.3760488],[113.9756314,22.3763246],[113.9760492,22.3770072],[113.9775106,22.3793961],[113.9775106,22.3793961],[113.977736,22.379768],[113.977736,22.379768],[113.9777515,22.3797939],[113.9777515,22.3797939],[113.9775968,22.3800323],[113.9775968,22.3800323],[113.9773369,22.3804272],[113.9769824,22.3809636],[113.9765454,22.3816238],[113.9765454,22.3816238],[113.9757448,22.3812809],[113.9757448,22.3812809],[113.9706957,22.3791188],[113.9703628,22.3789745],[113.9699248,22.3787851],[113.9699248,22.3787851],[113.9695167,22.3786167],[113.9693333,22.3785333],[113.96835,22.3781],[113.9685909,22.3776696],[113.9685909,22.3776696],[113.9690239,22.3769045],[113.9690239,22.3769045],[113.969756,22.3756107],[113.969756,22.3756107],[113.9702915,22.3746641],[113.9704511,22.374381],[113.9704511,22.374381],[113.9706262,22.3740709],[113.9708072,22.3737482],[113.9708072,22.3737482],[113.9716658,22.3722179],[113.9716658,22.3722179],[113.9718347,22.3719169],[113.9718657,22.3719169],[113.9718911,22.3719022],[113.9721613,22.3714279],[113.9722793,22.3712458],[113.9723242,22.3711934],[113.9724064,22.3711105],[113.9724944,22.3710401],[113.9726166,22.3709668],[113.9726657,22.3709472],[113.9727009,22.3709351],[113.9727009,22.3709351],[113.9727933,22.3709167],[113.9729472,22.3708979],[113.9731061,22.3708887],[113.9732711,22.3708891],[113.9734634,22.3708962],[113.9737053,22.3709108],[113.9739506,22.3709351],[113.9740221,22.3709439],[113.9740221,22.3709439],[113.9739146,22.3711778],[113.9734637,22.3721286]]]]},"properties":{"GmlID":"TyphoonShelter.11","OBJNAM":"Tuen Mun Typhoon Shelter","INFORM":"Vessels with a length overall of more than 50 metres (164 feet) are prohibited from entering or remaining. The maximum permitted speed is 5 knots.","OBJECTID":11}},{"type":"Feature","geometry":{"type":"MultiPolygon","coordinates":[[[[114.3053217,22.3800313],[114.3053829,22.3800009],[114.3053829,22.3800009],[114.3055296,22.3799282],[114.3055783,22.3798982],[114.3056457,22.3798304],[114.3056693,22.379796],[114.3056819,22.3797609],[114.305684,22.3796903],[114.3056659,22.3796137],[114.3056439,22.3795697],[114.3055987,22.3795112],[114.3055393,22.3794733],[114.3055025,22.3794354],[114.3053836,22.3792752],[114.3053464,22.3791691],[114.3052907,22.3791261],[114.3052745,22.3791014],[114.3052935,22.3790366],[114.3053254,22.3789733],[114.3053254,22.3789733],[114.3053894,22.3788464],[114.305456,22.3787452],[114.3054587,22.3787422],[114.3054587,22.3787422],[114.3054953,22.3787008],[114.3055214,22.3786793],[114.3055548,22.3786653],[114.3056816,22.3786767],[114.3057207,22.3787078],[114.3057347,22.3787546],[114.305763,22.3787646],[114.3059111,22.3787386],[114.305989,22.3787378],[114.3060028,22.3787222],[114.3060246,22.3786321],[114.3060656,22.3786094],[114.3060733,22.3785736],[114.3060651,22.3785337],[114.306016,22.3784793],[114.3059985,22.3784413],[114.3059905,22.3783394],[114.3060188,22.3782462],[114.306077,22.3781545],[114.3061164,22.3781145],[114.306174,22.3780733],[114.3062176,22.3780126],[114.3062284,22.3778821],[114.3062122,22.3778101],[114.3062293,22.3777683],[114.3062323,22.3776871],[114.3062456,22.3776183],[114.3062456,22.3776183],[114.3062829,22.3774247],[114.306277,22.3773283],[114.3062335,22.3772226],[114.3062303,22.3771808],[114.3062683,22.37707],[114.3063037,22.3770304],[114.3063144,22.3770041],[114.3062086,22.3769059],[114.3061235,22.3768622],[114.3061106,22.3768324],[114.3061127,22.3767321],[114.3060889,22.3767277],[114.3060475,22.3767426],[114.3060153,22.3767414],[114.3059163,22.3767185],[114.305829,22.3766842],[114.3057425,22.3766186],[114.3057095,22.3764953],[114.3056502,22.3764355],[114.3056319,22.37636],[114.3055836,22.3762992],[114.3055756,22.3762749],[114.3055736,22.3762268],[114.3055646,22.3761924],[114.3055646,22.3761924],[114.305485,22.3760566],[114.3054807,22.3760039],[114.3054977,22.3759575],[114.3056288,22.375836],[114.305641,22.3758153],[114.3056516,22.3756914],[114.3056438,22.3756401],[114.3056524,22.3755923],[114.3056429,22.3755629],[114.3056429,22.3755629],[114.3055995,22.375526],[114.3054994,22.3754142],[114.3054234,22.3753723],[114.3053176,22.3753762],[114.3052925,22.3753837],[114.3052901,22.3754291],[114.3052816,22.3754506],[114.305261,22.3754773],[114.3052323,22.375493],[114.3051983,22.3754875],[114.3051389,22.3754421],[114.3050415,22.3754018],[114.3049846,22.3753192],[114.3049394,22.3751674],[114.3049312,22.3750641],[114.3049203,22.3750347],[114.3048521,22.3749499],[114.3048273,22.3748576],[114.3047836,22.3747888],[114.3047866,22.3747548],[114.304824,22.3746942],[114.3048061,22.3746492],[114.3047745,22.3746093],[114.3047339,22.3745804],[114.3045742,22.3745031],[114.3044991,22.3744507],[114.3043753,22.3742668],[114.3043619,22.3741957],[114.3043611,22.3740731],[114.3043502,22.3740433],[114.304279,22.373969],[114.3042098,22.373953],[114.3041327,22.3739081],[114.3041065,22.3739063],[114.3041065,22.3739063],[114.3041128,22.3738563],[114.304137,22.3737856],[114.3041694,22.3737213],[114.3042241,22.3736454],[114.3043001,22.3735545],[114.304552,22.3732884],[114.3046315,22.373214],[114.3047199,22.3731482],[114.3047199,22.3731482],[114.3047608,22.3731895],[114.3047674,22.3732359],[114.3047818,22.3732643],[114.304809,22.3732826],[114.304809,22.3732826],[114.3048337,22.3732854],[114.3048677,22.3732794],[114.3048904,22.3732692],[114.304921,22.3732422],[114.3049457,22.3732334],[114.3049798,22.3732351],[114.3050208,22.3732609],[114.3050629,22.3732658],[114.3052274,22.3732256],[114.3052955,22.3732205],[114.3053207,22.3732247],[114.3053558,22.3732443],[114.3054269,22.3733096],[114.3055895,22.3735701],[114.3056674,22.3736811],[114.3057175,22.373778],[114.3057515,22.3738237],[114.3057691,22.3738718],[114.3057669,22.3739011],[114.3057552,22.3739196],[114.3056985,22.3739562],[114.3056148,22.3739875],[114.3055976,22.3740086],[114.3055988,22.3740339],[114.3056248,22.3740848],[114.3056126,22.3741133],[114.3055548,22.3741819],[114.3055618,22.3742663],[114.3055543,22.3743466],[114.3055937,22.3743782],[114.3056154,22.3743839],[114.3057113,22.3743729],[114.3057519,22.3743754],[114.3057768,22.3743904],[114.3058028,22.3744184],[114.3058028,22.3744184],[114.3058146,22.3744311],[114.3058459,22.3744424],[114.3059133,22.3744887],[114.3059714,22.3745137],[114.3060355,22.374555],[114.3060964,22.3745694],[114.3061253,22.3746059],[114.3061222,22.3746569],[114.3060972,22.3747043],[114.3060955,22.3747254],[114.3061035,22.3747386],[114.3061655,22.3747677],[114.306186,22.3748047],[114.3061891,22.3748299],[114.3061195,22.3748372],[114.3060485,22.3748716],[114.3059883,22.3748852],[114.305976,22.3748935],[114.3059745,22.3749023],[114.3059761,22.3749061],[114.3059761,22.3749061],[114.3059796,22.374915],[114.306,22.3749351],[114.3060244,22.3749542],[114.3060546,22.3749698],[114.3060631,22.374983],[114.3060622,22.3749945],[114.3060269,22.37503],[114.3060309,22.3750469],[114.3060349,22.3750486],[114.3060891,22.375031],[114.3061039,22.3750309],[114.3061338,22.3750431],[114.30618,22.3750796],[114.3062038,22.3750868],[114.3062271,22.3750848],[114.3062497,22.3750738],[114.3062497,22.3750738],[114.3062738,22.3750571],[114.306275,22.3750262],[114.3062113,22.3749574],[114.3062097,22.3749413],[114.3063405,22.374963],[114.3063814,22.374961],[114.3064436,22.374935],[114.3064992,22.3748892],[114.3065192,22.3748611],[114.3065264,22.3748243],[114.306513,22.3747533],[114.306529,22.3747009],[114.3065637,22.374631],[114.3065702,22.3745928],[114.3065469,22.3745062],[114.3065964,22.374434],[114.3065933,22.3744056],[114.3065738,22.3743681],[114.3065468,22.374336],[114.3064768,22.3742902],[114.3064702,22.3742636],[114.3065262,22.374149],[114.3065256,22.3741292],[114.3064873,22.3740937],[114.3064886,22.3740767],[114.3065475,22.3740217],[114.3065504,22.3740098],[114.3065521,22.373974],[114.3065209,22.3739053],[114.3065246,22.3738576],[114.3065505,22.3738102],[114.3066417,22.3737197],[114.306645,22.3736862],[114.3066284,22.3736592],[114.3065823,22.3736348],[114.3064669,22.3736047],[114.3064281,22.3735618],[114.3064184,22.3735408],[114.3064172,22.3735059],[114.3064432,22.3734131],[114.3064716,22.3733679],[114.3064719,22.3733478],[114.3064675,22.3733363],[114.3063464,22.3732293],[114.3062961,22.373163],[114.3062909,22.3731392],[114.3062977,22.3731098],[114.306306,22.3731024],[114.306352,22.373093],[114.3063775,22.3730763],[114.3064,22.3730289],[114.3064022,22.3729982],[114.306393,22.3729615],[114.3063701,22.372936],[114.3063383,22.3729178],[114.3063328,22.3728958],[114.3064358,22.3727883],[114.3064673,22.3727729],[114.3064802,22.3727743],[114.3065163,22.3728356],[114.3065366,22.3728514],[114.3066675,22.3729107],[114.3067395,22.3729516],[114.306814,22.372976],[114.3068298,22.3729915],[114.3068232,22.3731048],[114.3068335,22.3732341],[114.3068241,22.3733076],[114.3068549,22.3734556],[114.3068351,22.3735245],[114.3068354,22.3735511],[114.3068469,22.3735758],[114.3068723,22.3736028],[114.3069149,22.3736144],[114.3069353,22.3736276],[114.3069443,22.3736509],[114.3069592,22.3737958],[114.3069965,22.373886],[114.3070312,22.3739096],[114.3070554,22.3739095],[114.3070756,22.3738978],[114.3070942,22.3738643],[114.3070719,22.3737943],[114.3070773,22.3737703],[114.3071336,22.3737043],[114.3071619,22.373656],[114.3072082,22.3736305],[114.3072574,22.3735889],[114.3072978,22.3735722],[114.3073295,22.3735779],[114.3073589,22.3736022],[114.3073958,22.3736596],[114.3074161,22.3737412],[114.3074316,22.3738975],[114.3073956,22.3739795],[114.3073776,22.3740553],[114.3073523,22.3741192],[114.3073417,22.3742311],[114.3073132,22.3743337],[114.3073132,22.3743337],[114.3073174,22.374358],[114.307333,22.3744],[114.3073466,22.374517],[114.3073359,22.3745345],[114.3073083,22.3745411],[114.3072985,22.3745543],[114.3073075,22.3745718],[114.3073437,22.3745954],[114.3073547,22.3746201],[114.3073617,22.3746995],[114.3073532,22.3747582],[114.3073609,22.3748055],[114.3073434,22.3748423],[114.3072975,22.3748655],[114.3072947,22.374876],[114.3073042,22.3748843],[114.3073042,22.3748843],[114.3073502,22.3748936],[114.307371,22.3749068],[114.3073885,22.374932],[114.3074403,22.3749849],[114.3074533,22.3750146],[114.3074611,22.3750627],[114.3074691,22.375076],[114.3074984,22.3750924],[114.3075074,22.3751019],[114.307522,22.375139],[114.3075348,22.3751417],[114.3075496,22.3751324],[114.307559,22.3751319],[114.3075858,22.3751405],[114.3076419,22.3751935],[114.307714,22.3752416],[114.3077868,22.3753128],[114.3078511,22.3753936],[114.3078682,22.3754381],[114.3078714,22.375478],[114.3078621,22.3754969],[114.3078303,22.3755388],[114.307809,22.3755985],[114.3077947,22.3756147],[114.3077681,22.37563],[114.3077524,22.3756484],[114.3077418,22.3756805],[114.3077376,22.3757266],[114.3077574,22.3758057],[114.3077818,22.375825],[114.3078214,22.3758306],[114.3078364,22.3758466],[114.3078464,22.3758717],[114.3078458,22.3759277],[114.3078554,22.3759474],[114.3079072,22.3760054],[114.3079322,22.3760581],[114.3079413,22.3760643],[114.3079545,22.3760629],[114.3079922,22.3760774],[114.3080244,22.3760832],[114.3080658,22.3760743],[114.3081456,22.3760238],[114.3081831,22.3759901],[114.3081897,22.3759658],[114.308179,22.3759177],[114.3081931,22.3758827],[114.3081955,22.3758611],[114.3081796,22.375797],[114.308188,22.3757818],[114.3082283,22.3757444],[114.3082438,22.3757145],[114.3082443,22.3756888],[114.3082303,22.3756655],[114.3082241,22.3756389],[114.3082279,22.375626],[114.3082573,22.3755823],[114.3082588,22.3755588],[114.3082461,22.3755428],[114.3082381,22.3754853],[114.3082415,22.3754629],[114.3082575,22.375447],[114.3082706,22.375442],[114.3083126,22.3754464],[114.3083282,22.3754387],[114.3083549,22.3754127],[114.3083811,22.3754116],[114.3083938,22.3754383],[114.3084029,22.3754469],[114.308419,22.3754532],[114.3085231,22.3754318],[114.3085342,22.3754362],[114.3085339,22.3754458],[114.3085106,22.3754656],[114.3085074,22.375478],[114.3085188,22.3754816],[114.3085493,22.3754696],[114.3085656,22.37547],[114.3085916,22.3754983],[114.3086178,22.3755105],[114.3086253,22.3755215],[114.3086201,22.3755527],[114.3086093,22.3755684],[114.3085754,22.3755837],[114.3085149,22.3755804],[114.3084678,22.3755536],[114.3084386,22.3755432],[114.3084267,22.3755441],[114.308407,22.3755645],[114.308374,22.3755876],[114.3083407,22.3756254],[114.3083384,22.3756493],[114.3083514,22.3756722],[114.3083818,22.3757082],[114.3084111,22.3757182],[114.3084382,22.3757148],[114.3084831,22.3757003],[114.3085126,22.3756744],[114.3085215,22.3756611],[114.3085535,22.3756467],[114.308631,22.3756274],[114.3086577,22.3756314],[114.3087154,22.3756893],[114.308729,22.3757122],[114.3087305,22.375726],[114.3087267,22.3757406],[114.3086709,22.3758213],[114.3086551,22.3758297],[114.3085978,22.3758336],[114.3085603,22.3758443],[114.3084614,22.3759335],[114.3084359,22.3759497],[114.3084267,22.375963],[114.3084129,22.3759879],[114.3084096,22.376004],[114.3083927,22.376145],[114.3083706,22.3762327],[114.3083822,22.3762739],[114.3083794,22.3762917],[114.308371,22.3762923],[114.3083367,22.376265],[114.3082669,22.3761791],[114.3082386,22.3761742],[114.3082288,22.3761793],[114.3081885,22.3762231],[114.3081857,22.3762475],[114.3082022,22.3762675],[114.3082265,22.3762812],[114.3082706,22.3762892],[114.3082845,22.3762983],[114.308298,22.3763217],[114.3082957,22.3763451],[114.30828,22.3763644],[114.3082553,22.3763774],[114.3082371,22.3763784],[114.308186,22.3763658],[114.3081619,22.37637],[114.3081338,22.3763877],[114.3081256,22.3764181],[114.3081529,22.3765146],[114.3081668,22.3765839],[114.3082266,22.3766564],[114.3082768,22.3767486],[114.3082955,22.3767543],[114.3083211,22.3767501],[114.3083682,22.3767522],[114.3083939,22.376764],[114.3084524,22.3768013],[114.3084751,22.3768113],[114.3084869,22.3768104],[114.3085481,22.3767739],[114.3085592,22.3767484],[114.3085631,22.3767001],[114.3085705,22.3766913],[114.3085878,22.3766906],[114.3086464,22.3767289],[114.3087194,22.3767483],[114.3087541,22.3767735],[114.3087754,22.3768101],[114.3087853,22.3768174],[114.3088933,22.3768615],[114.3089423,22.3768847],[114.3089562,22.3768974],[114.3089876,22.377057],[114.3089876,22.377057],[114.3089844,22.3771043],[114.308953,22.3771458],[114.308915,22.3771634],[114.3088954,22.3771804],[114.308863,22.3772338],[114.3088344,22.3772386],[114.3088111,22.3772478],[114.3088029,22.3772607],[114.3088104,22.3772883],[114.3088259,22.3773143],[114.3088384,22.3773478],[114.3088488,22.377351],[114.308912,22.3773484],[114.3089234,22.3773525],[114.3089422,22.3773698],[114.3090237,22.3774696],[114.3090655,22.3775332],[114.3090845,22.3775749],[114.3090913,22.3776382],[114.3091291,22.3776889],[114.3091353,22.3777312],[114.3091265,22.3777808],[114.3091345,22.3778023],[114.309155,22.3778307],[114.3091659,22.3778618],[114.3091853,22.3778774],[114.309207,22.3778819],[114.3092381,22.3778469],[114.3092568,22.377851],[114.3092841,22.3778788],[114.3092927,22.3779031],[114.3092902,22.3779214],[114.3092716,22.377939],[114.3092608,22.3779587],[114.3092628,22.377973],[114.3092723,22.3779835],[114.3093312,22.3780227],[114.3093515,22.3780222],[114.3093905,22.3780051],[114.3094009,22.3780069],[114.3094192,22.3780229],[114.3094315,22.3780451],[114.3094352,22.3780668],[114.3094324,22.3780971],[114.3094139,22.37815],[114.3094013,22.3782042],[114.3093908,22.3782823],[114.3093907,22.3783466],[114.3093824,22.3783732],[114.3093525,22.3784096],[114.3093501,22.3784311],[114.3093556,22.3784541],[114.3093876,22.3785289],[114.3094138,22.3786205],[114.3094378,22.378669],[114.3094809,22.3787272],[114.3094989,22.3787436],[114.3095964,22.3788074],[114.3096174,22.3788253],[114.3096407,22.3788541],[114.3096513,22.3788876],[114.3096535,22.3789546],[114.3096601,22.3789825],[114.3096505,22.3790307],[114.3096566,22.3790712],[114.3096705,22.3790963],[114.3096899,22.3791192],[114.3097316,22.3791429],[114.3097693,22.3791753],[114.3097838,22.3792056],[114.3097893,22.3792386],[114.3097865,22.3792679],[114.3097865,22.3792679],[114.3091911,22.3797067],[114.3091911,22.3797067],[114.3091514,22.3797133],[114.30914,22.3797137],[114.3091218,22.3797096],[114.3091097,22.3797108],[114.3090888,22.3797213],[114.3090647,22.3797235],[114.3090545,22.3797228],[114.3090201,22.3797125],[114.3090007,22.3797098],[114.3089877,22.379712],[114.3089706,22.3797184],[114.3089464,22.3797323],[114.3089118,22.3797339],[114.3088964,22.3797387],[114.3088584,22.3797556],[114.3088292,22.3797632],[114.3088259,22.3797666],[114.3088109,22.3798173],[114.3088181,22.3798329],[114.3088365,22.3798481],[114.3088541,22.3798528],[114.3088608,22.3798572],[114.3088644,22.3798651],[114.3088643,22.3798769],[114.3088587,22.3798943],[114.3088444,22.3799209],[114.3088451,22.3799433],[114.308839,22.3799587],[114.308839,22.3799587],[114.3084093,22.3802685],[114.3084093,22.3802685],[114.3083787,22.3802788],[114.3082666,22.3802673],[114.3081353,22.3802077],[114.3080475,22.3802068],[114.3080089,22.3802225],[114.3079794,22.3802502],[114.3079531,22.3803003],[114.3079113,22.3803533],[114.3078717,22.3804278],[114.3078091,22.3804753],[114.3077968,22.3804887],[114.307765,22.3805431],[114.307765,22.3805431],[114.3075927,22.3806732],[114.3075927,22.3806732],[114.3075626,22.3806788],[114.30749,22.3806649],[114.3074524,22.3806761],[114.3074323,22.3806904],[114.3073866,22.3807475],[114.3073852,22.3807719],[114.3074008,22.3808015],[114.3073969,22.3808145],[114.3073969,22.3808145],[114.3073228,22.3808171],[114.3069269,22.3807788],[114.3066814,22.3807739],[114.3066448,22.38078],[114.3066291,22.3807899],[114.3066291,22.3807899],[114.3053217,22.3800313]],[[114.3076955,22.3784841],[114.3076278,22.3785156],[114.307603,22.3785364],[114.307566,22.3786545],[114.3075135,22.3787282],[114.3075053,22.3787741],[114.3075111,22.3788361],[114.3074806,22.3788825],[114.3074719,22.378912],[114.3074806,22.3789863],[114.3074807,22.3790873],[114.3074719,22.3791048],[114.3074207,22.3791481],[114.3074164,22.3791776],[114.3074309,22.3792151],[114.3074508,22.3792439],[114.3074681,22.3792535],[114.3075481,22.3792449],[114.3077038,22.3792521],[114.3078497,22.3792988],[114.3079861,22.3793064],[114.3080873,22.3792903],[114.3081707,22.3792647],[114.3082705,22.3792703],[114.3083434,22.3792301],[114.3084518,22.3791892],[114.3084602,22.3791726],[114.3084101,22.3791475],[114.3083935,22.3791217],[114.308404,22.3790081],[114.3083984,22.3788777],[114.3083743,22.3787719],[114.3083363,22.3786912],[114.3083202,22.3786357],[114.3083202,22.3786357],[114.3082894,22.3786005],[114.3082695,22.3785826],[114.3082279,22.378558],[114.3081046,22.3785123],[114.3080471,22.3784496],[114.3080149,22.3784332],[114.3079921,22.378431],[114.3079038,22.3784525],[114.3078075,22.3784538],[114.3077689,22.3784416],[114.3077569,22.3784205],[114.3077441,22.3784233],[114.3076955,22.3784841]],[[114.30845,22.3768408],[114.3084338,22.376846],[114.308427,22.3768652],[114.3084266,22.3768809],[114.308437,22.3769052],[114.3084525,22.3769188],[114.3084629,22.3769221],[114.308493,22.3769182],[114.3085091,22.3769095],[114.3085146,22.3768947],[114.3085121,22.37688],[114.3084807,22.3768522],[114.30845,22.3768408]],[[114.3059586,22.3750262],[114.3059433,22.3750355],[114.3059372,22.3750813],[114.3059447,22.3750878],[114.3059818,22.3750898],[114.3059881,22.3750802],[114.3059815,22.3750485],[114.30597,22.3750288],[114.3059586,22.3750262]]]]},"properties":{"GmlID":"TyphoonShelter.12","OBJNAM":"Yim Tin Tsai Typhoon Shelter","INFORM":"Vessels with a length overall of more than 30.4 metres (100 feet) are prohibited from entering or remaining. The maximum permitted speed is 5 knots.","OBJECTID":12}},{"type":"Feature","geometry":{"type":"MultiPolygon","coordinates":[[[[114.1606863,22.2381416],[114.160894,22.2380547],[114.1609504,22.238031],[114.1609504,22.238031],[114.1610204,22.2380017],[114.1609253,22.2378152],[114.1605706,22.237961],[114.1605671,22.2379443],[114.1605613,22.2379466],[114.1605541,22.2379139],[114.1605553,22.2378677],[114.160566,22.2378646],[114.1605661,22.2378485],[114.1605716,22.2378453],[114.1607249,22.23782],[114.1607868,22.2377993],[114.1608488,22.237785],[114.1608856,22.2377596],[114.1608905,22.237731],[114.1608893,22.2376695],[114.1609304,22.2376646],[114.1609222,22.2375934],[114.1608727,22.2375948],[114.1608707,22.2375694],[114.1608342,22.2375634],[114.1607544,22.2375643],[114.1605778,22.2375806],[114.1605558,22.2375642],[114.1605377,22.2375265],[114.160495,22.2374719],[114.1608947,22.2374647],[114.1608946,22.2374587],[114.1608946,22.2374587],[114.1608935,22.237397],[114.1609421,22.2373895],[114.1609067,22.2372078],[114.1606803,22.2372356],[114.1606816,22.2372553],[114.1605918,22.2372698],[114.1605918,22.2372698],[114.1605967,22.2371778],[114.1606075,22.2371115],[114.1606757,22.2371155],[114.1607292,22.237095],[114.1607227,22.2370655],[114.1607227,22.2370655],[114.1607892,22.2370579],[114.1608798,22.2370718],[114.1608793,22.2370522],[114.1607856,22.2370405],[114.1607852,22.2370469],[114.1607205,22.2370577],[114.1607205,22.2370577],[114.1607145,22.2370335],[114.1607145,22.2370335],[114.1606387,22.2370515],[114.1606387,22.2370515],[114.1606361,22.2370386],[114.1606038,22.2370079],[114.1605897,22.2369803],[114.1605779,22.2369466],[114.1605889,22.2369226],[114.1605926,22.2368922],[114.1605902,22.2367947],[114.1605467,22.2366653],[114.1605216,22.2366087],[114.1605197,22.236556],[114.1605197,22.236556],[114.160533,22.236467],[114.1605628,22.2364685],[114.1605655,22.2364481],[114.1605712,22.2364457],[114.1605778,22.2364213],[114.160538,22.2364142],[114.1605577,22.2363755],[114.1605577,22.2363755],[114.160638,22.2363922],[114.1610308,22.2364114],[114.1610308,22.2364114],[114.1612038,22.2364199],[114.1614182,22.2364233],[114.1614182,22.2364233],[114.1616374,22.2364269],[114.1618145,22.2364303],[114.1622507,22.2364446],[114.162643,22.2364779],[114.162856,22.2365157],[114.1629798,22.2365253],[114.1629959,22.236525],[114.1629959,22.236525],[114.162784,22.2378126],[114.162784,22.2378126],[114.1627276,22.2378142],[114.1626846,22.237834],[114.1626592,22.2378588],[114.1626361,22.2379096],[114.1626433,22.2379695],[114.1626743,22.2380038],[114.1627034,22.2380174],[114.1628736,22.2380538],[114.1628736,22.2380538],[114.1629855,22.2380778],[114.1629855,22.2380778],[114.1642371,22.2383457],[114.1642371,22.2383457],[114.1644422,22.2383896],[114.1644422,22.2383896],[114.1645396,22.2385074],[114.1645396,22.2385074],[114.1646692,22.2386639],[114.1646692,22.2386639],[114.1647737,22.2387903],[114.1647737,22.2387903],[114.1650964,22.2391804],[114.1650964,22.2391804],[114.1652663,22.2393857],[114.1652663,22.2393857],[114.1655751,22.2397589],[114.1656031,22.2402023],[114.1656031,22.2402023],[114.1656183,22.2404425],[114.1656183,22.2404425],[114.1656352,22.2407091],[114.1656352,22.2407091],[114.1656804,22.2414251],[114.1656295,22.2414771],[114.1657374,22.2415753],[114.1657374,22.2415753],[114.1656985,22.2416147],[114.1656291,22.2415553],[114.1655746,22.2416078],[114.1656456,22.2416683],[114.1656228,22.2416915],[114.1655194,22.2415958],[114.1654762,22.241557],[114.1654202,22.2416091],[114.1654202,22.2416091],[114.1653432,22.2416802],[114.1652822,22.2417369],[114.1653081,22.2417592],[114.1655046,22.241932],[114.1654439,22.2419918],[114.1652697,22.2418443],[114.1652697,22.2418443],[114.1651583,22.2419608],[114.1650534,22.2418692],[114.1650534,22.2418692],[114.1649904,22.2419358],[114.1650767,22.2420111],[114.1650767,22.2420111],[114.1650084,22.2420796],[114.1650084,22.2420796],[114.1649563,22.2421322],[114.1650156,22.2421826],[114.1649503,22.2422454],[114.1649822,22.2422727],[114.1649301,22.2423257],[114.1649301,22.2423257],[114.1648476,22.2422542],[114.1648476,22.2422542],[114.1648299,22.2422548],[114.1647582,22.242325],[114.1647582,22.242325],[114.1647485,22.2423344],[114.1645881,22.2424959],[114.1645881,22.2424959],[114.1644892,22.2424099],[114.1644892,22.2424099],[114.1642852,22.2422309],[114.1642852,22.2422309],[114.164016,22.2424675],[114.164016,22.2424675],[114.1638712,22.2425949],[114.1638712,22.2425949],[114.1637685,22.2424913],[114.1637685,22.2424913],[114.1637192,22.2424416],[114.1637192,22.2424416],[114.1635414,22.2422625],[114.1635279,22.2422592],[114.1634789,22.2423003],[114.1634801,22.2423099],[114.1635883,22.2424198],[114.1635883,22.2424198],[114.1636937,22.2425266],[114.1636937,22.2425266],[114.1638123,22.2426469],[114.1638123,22.2426469],[114.1637662,22.2426876],[114.1637086,22.2427614],[114.1636952,22.242788],[114.1636952,22.242788],[114.1636219,22.2427541],[114.163608,22.2427095],[114.1636486,22.2426977],[114.1636292,22.2426379],[114.1635495,22.2426618],[114.1635495,22.2426618],[114.1635261,22.2426689],[114.1635347,22.2426957],[114.1635347,22.2426957],[114.1635455,22.2427293],[114.1635885,22.2427157],[114.1636044,22.2427665],[114.1636861,22.2428038],[114.1636861,22.2428038],[114.1636605,22.2428586],[114.1636605,22.2428586],[114.163657,22.242867],[114.163657,22.242867],[114.1636237,22.2429487],[114.1636237,22.2429487],[114.1636012,22.243007],[114.1635898,22.2430527],[114.1635847,22.2431085],[114.1635847,22.2431085],[114.1635813,22.2431447],[114.1635885,22.24323],[114.1636049,22.2433174],[114.1636303,22.2433958],[114.1636667,22.2434726],[114.1636952,22.2435195],[114.1637649,22.2436042],[114.1638958,22.2437312],[114.1638958,22.2437312],[114.1638371,22.2437994],[114.1638436,22.243879],[114.1638436,22.243879],[114.1637181,22.2440083],[114.1637181,22.2440083],[114.1636762,22.2440535],[114.1636611,22.2440692],[114.1635563,22.2441798],[114.1636005,22.2442183],[114.1637199,22.244093],[114.1638123,22.2441667],[114.1638265,22.2441795],[114.1639197,22.2442529],[114.163934,22.2442658],[114.1640293,22.2443417],[114.1640437,22.2443546],[114.1641344,22.2444263],[114.1641486,22.2444392],[114.16428,22.2445513],[114.16428,22.2445513],[114.1642892,22.2445422],[114.1642825,22.244505],[114.164174,22.2444142],[114.164174,22.2444142],[114.164285,22.244299],[114.1643329,22.2443396],[114.1644299,22.2444215],[114.1644426,22.2444244],[114.1644426,22.2444244],[114.1644105,22.2445744],[114.1644401,22.2445789],[114.1644711,22.2444322],[114.1644711,22.2444322],[114.1645214,22.2444453],[114.1645391,22.2444605],[114.1644971,22.2446535],[114.1646276,22.2447658],[114.16448,22.2449285],[114.16448,22.2449285],[114.1644661,22.2449437],[114.1644661,22.2449437],[114.1644053,22.2450108],[114.1644053,22.2450108],[114.1643881,22.2450297],[114.1643881,22.2450297],[114.1643292,22.2450947],[114.1643292,22.2450947],[114.1643144,22.2451109],[114.1643144,22.2451109],[114.1642624,22.2451682],[114.1643358,22.2452286],[114.1643062,22.2452633],[114.1643062,22.2452633],[114.1642887,22.2452839],[114.1642887,22.2452839],[114.1642066,22.2453804],[114.1638725,22.2454227],[114.1638653,22.245417],[114.1638653,22.245417],[114.1638368,22.2453944],[114.1638368,22.2453944],[114.1637774,22.2453487],[114.1636809,22.2454481],[114.1634039,22.2454831],[114.1634039,22.2454831],[114.1633485,22.2454765],[114.16334,22.2454854],[114.1633293,22.2454966],[114.1633293,22.2454966],[114.1630284,22.2455322],[114.1630284,22.2455322],[114.1629207,22.245545],[114.1629207,22.245545],[114.1629078,22.2455305],[114.1628766,22.2455039],[114.162869,22.2455118],[114.1628165,22.2455657],[114.1627542,22.2455131],[114.1627463,22.2455218],[114.1628088,22.2455735],[114.1627849,22.2455982],[114.1627849,22.2455982],[114.1623738,22.2455394],[114.1623738,22.2455394],[114.1623235,22.2455331],[114.1623235,22.2455331],[114.1622125,22.2455156],[114.1622031,22.2454322],[114.1622031,22.2454322],[114.1621745,22.245177],[114.1621745,22.245177],[114.1621719,22.2451539],[114.1621719,22.2451539],[114.162111,22.2451162],[114.1621018,22.2451258],[114.1620833,22.2451448],[114.1620833,22.2451448],[114.1616184,22.2451566],[114.1616184,22.2451566],[114.1615904,22.2451394],[114.1615904,22.2451394],[114.161475,22.2450254],[114.1614284,22.245065],[114.1614284,22.245065],[114.1614208,22.2450714],[114.1614786,22.245129],[114.1614508,22.2451712],[114.1615268,22.2452283],[114.1615115,22.2452497],[114.1614685,22.2453123],[114.1614411,22.2453546],[114.1614175,22.2453735],[114.1613245,22.2454119],[114.161303,22.2454277],[114.161303,22.2454277],[114.1610575,22.2452614],[114.1610575,22.2452614],[114.1610257,22.2452948],[114.1610544,22.245347],[114.1610045,22.2453825],[114.160975,22.2453492],[114.160975,22.2453492],[114.1608811,22.2452325],[114.160865,22.245254],[114.1609069,22.2453222],[114.160886,22.2453549],[114.1608638,22.2453172],[114.1608336,22.2453419],[114.1608079,22.2453078],[114.1607851,22.2453171],[114.1607527,22.2453414],[114.1607962,22.2453984],[114.1607576,22.245414],[114.1607423,22.2453915],[114.1606606,22.2454478],[114.1607581,22.2455906],[114.1607125,22.2456198],[114.1607509,22.2456807],[114.1607099,22.2457049],[114.1607405,22.2457666],[114.1607286,22.2457732],[114.1606681,22.2456777],[114.1606681,22.2456777],[114.1606182,22.2457083],[114.1606545,22.2457695],[114.1606261,22.2457719],[114.1606105,22.245725],[114.1605996,22.2457281],[114.160586,22.2457058],[114.1605431,22.2457213],[114.1605149,22.2456638],[114.1604863,22.2456684],[114.1604928,22.245691],[114.1604928,22.245691],[114.1605417,22.2458613],[114.1605467,22.2458978],[114.1605467,22.2458978],[114.1605141,22.245917],[114.1604916,22.2459273],[114.1604916,22.2459273],[114.1604702,22.2459373],[114.1603928,22.2459485],[114.1603743,22.2459543],[114.1603743,22.2459543],[114.1603343,22.2459672],[114.1601848,22.2460181],[114.1601848,22.2460181],[114.1593117,22.2451953],[114.1593117,22.2451953],[114.1594253,22.2450525],[114.1594253,22.2450525],[114.1594693,22.2449557],[114.1594693,22.2449557],[114.1597298,22.2443826],[114.1598348,22.2441467],[114.1598008,22.2438729],[114.1598008,22.2438729],[114.159696,22.2437962],[114.1594663,22.2432509],[114.1594663,22.2432509],[114.1594353,22.2432108],[114.1591782,22.2426913],[114.1591444,22.2426232],[114.1591359,22.2426001],[114.1591359,22.2426001],[114.1591073,22.2425224],[114.1591119,22.2425126],[114.1591256,22.2425058],[114.1591394,22.2424909],[114.1591476,22.2424238],[114.15913,22.2423953],[114.159114,22.2423851],[114.1590644,22.2423695],[114.1590338,22.2423505],[114.15902,22.2423261],[114.1590171,22.2423064],[114.1589784,22.242188],[114.1590239,22.2421418],[114.1590239,22.2421418],[114.159062,22.2421033],[114.1591396,22.2420385],[114.1591396,22.2420385],[114.1591787,22.2420795],[114.1591787,22.2420795],[114.1592088,22.2421111],[114.1592203,22.2421231],[114.159247,22.2421006],[114.1591573,22.2420058],[114.1591573,22.2420058],[114.1591719,22.2419933],[114.1590857,22.2419019],[114.1590857,22.2419019],[114.1591082,22.2418833],[114.1590682,22.2418403],[114.1590791,22.2418319],[114.1590791,22.2418319],[114.1590906,22.2418229],[114.1591306,22.2418652],[114.1591713,22.2418308],[114.1591331,22.2417895],[114.1591452,22.24178],[114.1591452,22.24178],[114.1591568,22.2417709],[114.1591948,22.2418116],[114.1592301,22.2417822],[114.1591336,22.2416806],[114.159145,22.241671],[114.159145,22.241671],[114.159158,22.2416604],[114.1592549,22.2417614],[114.1593016,22.2417224],[114.1592398,22.2416581],[114.1592647,22.2416371],[114.1593265,22.2417015],[114.159338,22.2416925],[114.1593714,22.2417286],[114.1593714,22.2417286],[114.1593788,22.2417224],[114.1593788,22.2417224],[114.1594845,22.2416347],[114.1594845,22.2416347],[114.1594999,22.241622],[114.1594999,22.241622],[114.1594672,22.2415853],[114.1594945,22.2415621],[114.1593884,22.2414515],[114.1594139,22.2414306],[114.1595206,22.2415408],[114.1595713,22.2414982],[114.1595713,22.2414982],[114.1596242,22.2414537],[114.1594932,22.241324],[114.1595054,22.2413144],[114.1595054,22.2413144],[114.1595175,22.2413047],[114.159649,22.2414335],[114.1596933,22.2413968],[114.159563,22.2412658],[114.1595885,22.2412467],[114.1597182,22.241376],[114.1597298,22.2413657],[114.1597842,22.2414244],[114.1598474,22.2413663],[114.1597977,22.2413144],[114.1598182,22.2412975],[114.1597782,22.2412558],[114.1597994,22.2412388],[114.1598395,22.2412789],[114.1598837,22.2412416],[114.1597352,22.2410863],[114.1597352,22.2410863],[114.1597454,22.2410779],[114.1597454,22.2410779],[114.1597552,22.24107],[114.1597552,22.24107],[114.1599044,22.2412242],[114.1599449,22.2411896],[114.159805,22.2410429],[114.159816,22.2410334],[114.159816,22.2410334],[114.1598267,22.2410243],[114.1599674,22.241171],[114.1600141,22.2411315],[114.1598813,22.2409972],[114.1599019,22.2409797],[114.1600335,22.2411152],[114.1600553,22.2410966],[114.1600553,22.2410966],[114.1601092,22.241153],[114.1601092,22.241153],[114.1601736,22.2411011],[114.1601736,22.2411011],[114.1601184,22.241043],[114.1601184,22.241043],[114.1601481,22.2410176],[114.1600785,22.2409503],[114.1600879,22.2409426],[114.1600879,22.2409426],[114.1600971,22.2409352],[114.1601645,22.2410041],[114.1602094,22.2409657],[114.1601292,22.2408883],[114.1601524,22.2408685],[114.1602299,22.2409482],[114.1602681,22.240916],[114.1601292,22.2407748],[114.1601397,22.2407662],[114.1601397,22.2407662],[114.1601505,22.2407574],[114.1602893,22.2408979],[114.1603404,22.240855],[114.1602003,22.2407185],[114.16021,22.2407099],[114.16021,22.2407099],[114.1602191,22.2407021],[114.1603572,22.2408404],[114.1604106,22.2407953],[114.1604106,22.2407953],[114.1605198,22.2409109],[114.1605519,22.2408839],[114.1605519,22.2408839],[114.160618,22.2408285],[114.1606608,22.2406961],[114.1606608,22.2406961],[114.1606932,22.2405952],[114.1606932,22.2405952],[114.1607248,22.2404973],[114.1607248,22.2404973],[114.1605913,22.2404588],[114.1605913,22.2404588],[114.1606526,22.2402744],[114.1606526,22.2402744],[114.1606954,22.2401455],[114.1606954,22.2401455],[114.1607384,22.2400161],[114.1607384,22.2400161],[114.1607815,22.2398866],[114.1607815,22.2398866],[114.1608675,22.2396277],[114.1608675,22.2396277],[114.160911,22.2394968],[114.160911,22.2394968],[114.161002,22.2392233],[114.161002,22.2392233],[114.1611366,22.239263],[114.1611457,22.2392341],[114.1608782,22.2388323],[114.1608782,22.2388323],[114.1608492,22.2387887],[114.1608492,22.2387887],[114.1607803,22.2386852],[114.1607803,22.2386852],[114.1607196,22.238594],[114.1607196,22.238594],[114.1607213,22.2385878],[114.1607389,22.2385783],[114.1607395,22.2385726],[114.1607389,22.2385636],[114.1607208,22.2385415],[114.1607208,22.2385184],[114.160719,22.2385144],[114.1607002,22.2385066],[114.1606948,22.2385015],[114.1606899,22.2384925],[114.1606851,22.2384732],[114.1606638,22.2384625],[114.1606456,22.2384394],[114.1606517,22.2384394],[114.1606541,22.2384032],[114.1606626,22.2383716],[114.1606723,22.2383576],[114.1606959,22.238348],[114.1607032,22.2383327],[114.1607348,22.2383175],[114.1607336,22.2382779],[114.1607281,22.2382773],[114.1607262,22.2382701],[114.1607275,22.2382638],[114.1607317,22.238256],[114.1607534,22.2382411],[114.1607534,22.2382411],[114.1607863,22.2382187],[114.1607941,22.2382091],[114.1607996,22.2381978],[114.1607959,22.2381798],[114.1607839,22.238178],[114.1607693,22.2381939],[114.1607408,22.2382012],[114.1607342,22.238199],[114.1607191,22.2381887],[114.1607002,22.238165],[114.1606863,22.2381416]]]]},"properties":{"GmlID":"TyphoonShelter.13","OBJNAM":"Aberdeen South Typhoon Shelter","INFORM":"Vessels with a length overall of more than 30.4 metres (100 feet) are prohibited from entering or remaining. The maximum permitted speed is 5 knots.","OBJECTID":13}},{"type":"Feature","geometry":{"type":"MultiPolygon","coordinates":[[[[114.1550481,22.3035618],[114.1550475,22.3033955],[114.1550475,22.3033955],[114.1565183,22.3033946],[114.1572025,22.3033969],[114.1576386,22.3039779],[114.1580412,22.3045209],[114.1582886,22.3048518],[114.1582886,22.3048518],[114.1584384,22.3050526],[114.1594148,22.3063542],[114.1594845,22.3064428],[114.1599253,22.3070338],[114.1599229,22.3119141],[114.1599229,22.3151695],[114.1599229,22.3151695],[114.1599229,22.315389],[114.1599229,22.315389],[114.1599229,22.3155248],[114.1599229,22.3155248],[114.159381,22.3168331],[114.159381,22.3168331],[114.1550425,22.3168347],[114.1550425,22.3168347],[114.155037,22.3167529],[114.1550274,22.3166739],[114.1550432,22.3166073],[114.1550499,22.3164662],[114.1550496,22.3162569],[114.1550496,22.3162569],[114.1550494,22.3161478],[114.1550427,22.3159927],[114.1550487,22.3159012],[114.1550676,22.3158137],[114.1550603,22.3157934],[114.1550506,22.3157826],[114.1550087,22.3157646],[114.1549724,22.3157545],[114.1549315,22.315751],[114.1549315,22.315751],[114.1549185,22.3157536],[114.1542807,22.3145282],[114.1544803,22.3144875],[114.1544803,22.3144875],[114.1544812,22.3144873],[114.1545333,22.3144639],[114.1545333,22.3144639],[114.154696,22.3143913],[114.1548313,22.314288],[114.1548932,22.3142165],[114.1549381,22.314151],[114.1549951,22.3139855],[114.1550169,22.3139085],[114.1550169,22.3139085],[114.1550212,22.3138931],[114.1550382,22.3137897],[114.1550431,22.3136887],[114.1550414,22.3066996],[114.1550559,22.3066059],[114.1550844,22.3065144],[114.1551391,22.3063987],[114.1552076,22.3063124],[114.1553211,22.3062237],[114.1554309,22.3061685],[114.1555474,22.3061335],[114.1555873,22.3061273],[114.1556371,22.3061234],[114.1556652,22.3061234],[114.1556652,22.3061234],[114.1556692,22.3061234],[114.1557287,22.3061268],[114.1557517,22.3061161],[114.1557633,22.3061076],[114.1557748,22.3060958],[114.1557869,22.3060772],[114.1557911,22.306067],[114.1557948,22.3060484],[114.1557942,22.3060263],[114.1557911,22.3060133],[114.1557846,22.3059981],[114.1557694,22.3059784],[114.155759,22.3059693],[114.1557469,22.3059614],[114.1557281,22.3059536],[114.1557027,22.3059491],[114.1556189,22.3059529],[114.1556053,22.3059547],[114.1556053,22.3059547],[114.1543282,22.3048289],[114.1543319,22.3048278],[114.1543319,22.3048278],[114.1544315,22.3048166],[114.1544886,22.3047957],[114.1545523,22.3047686],[114.1546342,22.3047275],[114.1547427,22.3046598],[114.1547839,22.3046292],[114.1548531,22.3045672],[114.1548804,22.3045356],[114.1549046,22.3045018],[114.1549302,22.3044588],[114.1549605,22.3044035],[114.1549945,22.3043347],[114.1550175,22.304276],[114.1550279,22.3042314],[114.1550363,22.3041529],[114.1550516,22.304062],[114.1550533,22.3040129],[114.1550497,22.3039706],[114.1550481,22.3035618]]]]},"properties":{"GmlID":"TyphoonShelter.14","OBJNAM":"New Yau Ma Tei Typhoon Shelter","INFORM":"Vessels with a length overall of more than 50 metres (164 feet) are prohibited from entering or remaining. The maximum permitted speed is 5 knots.","OBJECTID":14}}]}